name,address,url,latitude,longitude,source_file,category
東京都立中央図書館,東京都港区南麻布5-7-13,http://www.library.metro.tokyo.jp/,35.652096,139.726341,130001_public_facility.csv,図書館
東京都立多摩図書館,東京都国分寺市泉町2-2-26,http://www.library.metro.tokyo.jp/,35.698081,139.469872,130001_public_facility.csv,図書館
東京都庭園美術館,東京都港区白金台5-21-9,https://www.teien-art-museum.ne.jp/,35.636947,139.719041,130001_public_facility.csv,文化・博物館
東京都江戸東京博物館,東京都墨田区横網1-4-1,https://www.edo-tokyo-museum.or.jp/,35.696597,139.795734,130001_public_facility.csv,文化・博物館
江戸東京たてもの園,東京都小金井市桜町3-7-1,http://www.tatemonoen.jp/,35.715437,139.51254,130001_public_facility.csv,その他
東京都写真美術館,東京都目黒区三田1-13-3,http://topmuseum.jp/,35.641641,139.713289,130001_public_facility.csv,文化・博物館
東京都現代美術館,東京都江東区三好4-1-1,http://www.mot-art-museum.jp/,35.679643,139.808112,130001_public_facility.csv,文化・博物館
東京都美術館,東京都台東区上野公園8-36,http://www.tobikan.jp/,35.717521,139.773155,130001_public_facility.csv,公園
東京文化会館,東京都台東区上野公園5-45,http://www.t-bunka.jp/,35.714415,139.775299,130001_public_facility.csv,公園
東京芸術劇場,東京都豊島区西池袋1-8-1,http://www.geigeki.jp/,35.729842,139.708075,130001_public_facility.csv,その他
トーキョーアーツアンドスペース本郷,東京都文京区本郷2-4-16,http://www.tokyoartsandspace.jp/,35.702991,139.759239,130001_public_facility.csv,その他
トーキョーアーツアンドスペースレジデンシー,墨田区立川2-14-7,http://www.tokyoartsandspace.jp/,35.69209,139.802025,130001_public_facility.csv,その他
お台場海浜公園,東京都港区台場一丁目４番地,http://www.tptc.co.jp/park/01_02,35.630845,139.776087,130001_public_facility.csv,公園
シンボルプロムナード公園,東京都港区台場一丁目・二丁目、江東区青海一丁目・二丁目、有明二丁目・三丁目,http://www.tptc.co.jp/park_01_04,35.623908,139.77443,130001_public_facility.csv,公園
東八潮緑道公園,東京都品川区東八潮,http://www.tptc.co.jp/park/01_05,35.619315,139.771579,130001_public_facility.csv,公園
青海北ふ頭公園,東京都江東区青海二丁目,http://www.tptc.co.jp/park/01_06,35.618915,139.773785,130001_public_facility.csv,公園
青海南ふ頭公園,東京都江東区青海二丁目,http://www.tptc.co.jp/park/01_09,35.615663,139.776117,130001_public_facility.csv,公園
暁ふ頭公園,東京都江東区青海三丁目、四丁目,http://www.tptc.co.jp/park/01_10,35.623766,139.769915,130001_public_facility.csv,公園
青海緑道公園,東京都江東区青海四丁目,http://www.tptc.co.jp/park/01_08,35.621368,139.77979,130001_public_facility.csv,公園
青海中央ふ頭公園,東京都江東区青海四丁目,http://www.tptc.co.jp/park/01_07,35.620754,139.780239,130001_public_facility.csv,公園
水の広場公園,東京都江東区青海一丁目、青海二丁目、有明三丁目,http://www.tptc.co.jp/park/02_04,35.625052,139.782704,130001_public_facility.csv,公園
有明西ふ頭公園,東京都江東区有明三丁目,http://www.tptc.co.jp/park/02_05,35.627139,139.794619,130001_public_facility.csv,公園
有明北緑道公園,東京都江東区有明一丁目、二丁目,http://www.tptc.co.jp/park/02_06,35.629272,139.790771,130001_public_facility.csv,公園
有明テニスの森公園,東京都江東区有明二丁目,http://www.tptc.co.jp/park/02_03,35.635649,139.787027,130001_public_facility.csv,公園
春海橋公園,東京都江東区豊洲二丁目,http://www.tptc.co.jp/park/02_02,35.653477,139.792089,130001_public_facility.csv,公園
葛西海浜公園,東京都江戸川区臨海町六丁目地先,http://www.tokyo-park.or.jp/oark/format/index027.html,35.640708,139.855249,130001_public_facility.csv,公園
新木場公園,東京都江東区新木場二丁目,http://www.tptc.co.jp/park/03_04,35.642078,139.823485,130001_public_facility.csv,公園
辰巳の森緑道公園,東京都江東区辰巳一丁目・二丁目,http://www.tptc.co.jp/park/03_02,35.64575,139.814328,130001_public_facility.csv,公園
夢の島緑道公園,東京都江東区夢の島一丁目、二丁目、三丁目,http://www.tptc.co.jp/park/03_03,35.647501,139.830315,130001_public_facility.csv,公園
新木場緑道公園,東京都江東区新木場四丁目,http://www.tptc.co.jp/park/03_05,35.640426,139.840441,130001_public_facility.csv,公園
辰巳の森海浜公園,東京都江東区辰巳二丁目１番35号,http://www.tptc.co.jp/park/03_01,35.648542,139.815785,130001_public_facility.csv,公園
東京港野鳥公園,東京都大田区東海三丁目１番,http://www.wildbirdpark.jp/,35.583094,139.758329,130001_public_facility.csv,公園
大井ふ頭中央海浜公園,東京都品川区八潮四丁目１番19号,http://seaside-park.jp/park_ooisports/,35.594776,139.753229,130001_public_facility.csv,公園
若洲海浜公園,東京都江東区若洲三丁目１番２号,http://wakasu.golftk.com/,35.621656,139.834664,130001_public_facility.csv,公園
城南島海浜公園,東京都大田区城南島四丁目２番２号,http://seaside-park.jp/park_jonan/,35.578304,139.783422,130001_public_facility.csv,公園
品川北ふ頭公園,東京都港区港南五丁目,http://seaside-park.jp/otherpark/,35.628471,139.73876,130001_public_facility.csv,公園
コンテナふ頭公園,東京都品川区八潮二丁目,http://seaside-park.jp/otherpark/,35.596416,139.762908,130001_public_facility.csv,公園
城南島ふ頭公園,東京都大田区城南島二丁目,http://seaside-park.jp/otherpark/,35.578915,139.772772,130001_public_facility.csv,公園
京浜島ふ頭公園,東京都大田区京浜島二丁目,http://seaside-park.jp/otherpark/,35.57175,139.760513,130001_public_facility.csv,公園
みなとが丘ふ頭公園,東京都品川区八潮三丁目,http://seaside-park.jp/otherpark/,35.596471,139.762922,130001_public_facility.csv,公園
東海ふ頭公園,東京都大田区東海二丁目,http://seaside-park.jp/otherpark/,35.57775,139.756327,130001_public_facility.csv,公園
京浜島つばさ公園,東京都大田区京浜島二丁目,http://seaside-park.jp/otherpark/,35.571013,139.770478,130001_public_facility.csv,公園
芝浦南ふ頭公園,東京都港区海岸三丁目,http://seaside-park.jp/otherpark/,35.637118,139.759962,130001_public_facility.csv,公園
京浜運河緑道公園,東京都品川区八潮一丁目・五丁目,http://seaside-park.jp/otherpark/,35.596784,139.748901,130001_public_facility.csv,公園
大井ふ頭緑道公園,東京都品川区八潮四丁目・五丁目,http://seaside-park.jp/otherpark/,35.59655,139.754552,130001_public_facility.csv,公園
東海緑道公園,東京都大田区東海一丁目・二丁目・三丁目／四丁目・五丁目・六丁目,http://seaside-park.jp/otherpark/,35.577185,139.759561,130001_public_facility.csv,公園
城南島緑道公園,東京都大田区城南島一丁目・二丁目,http://seaside-park.jp/otherpark/,35.581768,139.775432,130001_public_facility.csv,公園
京浜島緑道公園,東京都大田区京浜島一丁目,http://seaside-park.jp/otherpark/,35.568481,139.765208,130001_public_facility.csv,公園
明治の森高尾国定公園,東京都八王子市高尾町,https://www.ces-net.jp/takaovc/,35.631366,139.26758,130001_public_facility.csv,公園
高尾陣場自然公園,東京都八王子市高尾町,http://www.kankyo.metro.tokyo.jp/naturepark/know/park/introduction/toritu/takao/index.html,35.625024,139.243244,130001_public_facility.csv,公園
滝山自然公園,東京都八王子市高月町、丹木町二、三丁目,https://tamaparks.com/takiyama/,35.701454,139.330101,130001_public_facility.csv,公園
多摩丘陵自然公園,東京都八王子市、町田市、多摩市,https://www.tokyo-park.or.jp/tama/,35.659984,139.41034,130001_public_facility.csv,公園
狭山自然公園,東京都東大和市、東村山市、武蔵村山市、瑞穂町,http://www.sayamaparks.com/sayamahills/,35.763198,139.441582,130001_public_facility.csv,公園
羽村草花丘陵自然公園,東京都あきる野市、福生市、羽村市、青梅市,http://www.city.hamura.tokyo.jp/,35.743495,139.311082,130001_public_facility.csv,公園
秋川丘陵自然公園,東京都八王子市、あきる野市,http://www.kankyo.metro.tokyo.jp/naturepark/know/park/introduction/toritu/akikawa/characteristic.html,35.720824,139.231591,130001_public_facility.csv,公園
青山公園,東京都港区六本木七丁目、南青山一丁目,https://www.tokyo-park.or.jp/park/format/index080.html,35.668524,139.720671,130001_public_facility.csv,公園
赤塚公園,東京都板橋区高島平三丁目、徳丸七・八丁目、四葉二丁目、大門、赤塚四・五・八丁目,https://www.tokyo-park.or.jp/park/format/index005.html,35.785076,139.656438,130001_public_facility.csv,公園
秋留台公園,東京都あきる野市二宮・平沢,https://www.tokyo-park.or.jp/park/format/index053.html,35.729273,139.300293,130001_public_facility.csv,公園
井の頭恩賜公園,東京都武蔵野市御殿山一丁目、吉祥寺南町一丁目、三鷹市井の頭三・四・五丁目、下連雀一丁目、牟礼四丁目,http://www.kensetsu.metro.tokyo.jp/seibuk/inokashira/index.html,35.7007,139.574491,130001_public_facility.csv,公園
上野恩賜公園,東京都台東区上野公園・池之端三丁目,http://www.kensetsu.metro.tokyo.jp/jimusho/toubuk/ueno/index_top.html,35.715336,139.773982,130001_public_facility.csv,公園
宇喜田公園,東京都江戸川区北葛西三丁目・宇喜田町,http://tokyo-eastpark.com/ukita/,35.674423,139.860592,130001_public_facility.csv,公園
浮間公園,東京都板橋区舟渡二丁目、北区浮間二丁目,https://www.tokyo-park.or.jp/park/format/index009.html,35.794827,139.692878,130001_public_facility.csv,公園
大泉中央公園,東京都練馬区大泉学園町九丁目,https://www.tokyo-park.or.jp/park/format/index011.html,35.77462,139.597728,130001_public_facility.csv,公園
大神山公園,（大神山公園・大神山地区）東京都小笠原父島字宮之浜道 、（大神山公園・大村中央地区）東京都小笠原父島字東町,https://www.tokyo-park.or.jp/park/format/index097.html,142.191557,27.093979,130001_public_facility.csv,公園
大島小松川公園,東京都江東区大島九丁目(江戸川区小松川一丁目）,http://tokyo-eastpark.com/ohjima/,35.692509,139.846806,130001_public_facility.csv,公園
大戸緑地,東京都町田市相原町,https://tamaparks.com/oto/,35.617521,139.289337,130001_public_facility.csv,公園
尾久の原公園,東京都荒川区東尾久七丁目,http://tokyo-eastpark.com/ogunohara/,35.751726,139.77705,130001_public_facility.csv,公園
小山内裏公園,東京都町田市小山ケ丘二・四丁目、八王子市南大沢四・五丁目、鑓水二丁目,https://www.tokyo-park.or.jp/park/format/index064.html,35.606146,139.368198,130001_public_facility.csv,公園
小山田緑地,東京都町田市下小山田町・上小山田町,https://www.tokyo-park.or.jp/park/format/index063.html,35.596194,139.416319,130001_public_facility.csv,公園
葛西臨海公園,東京都江戸川区臨海町六丁目,https://www.tokyo-park.or.jp/park/format/index026.html,35.642245,139.860296,130001_public_facility.csv,公園
亀戸中央公園,東京都江東区亀戸八・九丁目,http://tokyo-eastpark.com/kameido/,35.699909,139.838447,130001_public_facility.csv,公園
砧公園,東京都世田谷区砧公園・大蔵一丁目,https://www.tokyo-park.or.jp/park/format/index004.html,35.630429,139.620212,130001_public_facility.csv,公園
木場公園,東京都江東区木場四・五丁目・平野四丁目,https://www.tokyo-park.or.jp/park/format/index020.html,35.676767,139.807561,130001_public_facility.csv,公園
小石川後楽園,東京都文京区後楽一丁目,https://www.tokyo-park.or.jp/teien/contents/index030.html,35.704864,139.747649,130001_public_facility.csv,その他
小金井公園,東京都小金井市桜町三丁目、関野町一・二丁目、小平市花小金井南町三丁目、西東京市向台六丁目、武蔵野市桜堤三丁目,https://www.tokyo-park.or.jp/park/format/index050.html,35.71706,139.517882,130001_public_facility.csv,公園
駒沢オリンピック公園,東京都世田谷区駒沢公園、目黒区東が丘二丁目・八雲五丁目,https://www.tokyo-park.or.jp/park/format/index040.html,35.627198,139.661894,130001_public_facility.csv,公園
小宮公園,東京都八王子市大谷町、暁町二丁目,https://tamaparks.com/komiya/,35.673446,139.340673,130001_public_facility.csv,公園
桜ヶ丘公園,東京都多摩市連光寺三、五丁目,https://www.tokyo-park.or.jp/park/format/index065.html,141.349451,42.562611,130001_public_facility.csv,公園
狭山公園,東京都東村山市多摩湖町3-17-19,http://www.sayamaparks.com/sayama/,35.763187,139.44158,130001_public_facility.csv,公園
狭山・境緑道,東京都小平市花小金井南町一・二・三丁目、花小金井六丁目、鈴木町二丁目、天神町一・二丁目、大沼町一・三丁目、東村山市萩山町一・二・三丁目、栄町三丁目、廻田町二丁目、美住町一・二丁目、東大和市清水一・二丁目、西東京市向台三・四・五・六丁目、新町四・五丁目,http://musashinoparks.com/kouen/sayama/,35.852839,139.412183,130001_public_facility.csv,その他
猿江恩賜公園,東京都江東区住吉二丁目、毛利二丁目,http://tokyo-eastpark.com/sarueonshi/,35.69051,139.819226,130001_public_facility.csv,公園
汐入公園,東京都荒川区南千住八丁目,http://www.tokyo-park.or.jp/park/format/index017.html,35.736607,139.809271,130001_public_facility.csv,公園
潮風公園,東京都品川区東八潮1・2番,http://www.tptc.co.jp/park/01_03,35.62398,139.768796,130001_public_facility.csv,公園
篠崎公園,東京都江戸川区上篠崎一・四・八丁目、篠崎町六・七・八丁目、西篠崎一・二丁目、谷河内二丁目、南篠崎町四丁目、鹿骨町,https://www.tokyo-park.or.jp/park/format/index025.html,35.715629,139.899176,130001_public_facility.csv,公園
芝公園,東京都港区芝公園一・二・三・四丁目,https://www.tokyo-park.or.jp/park/format/index001.html,35.654938,139.747984,130001_public_facility.csv,公園
石神井公園,東京都練馬区石神井台一・二丁目、石神井町五丁目,https://www.tokyo-park.or.jp/park/format/index006.html,35.738171,139.595976,130001_public_facility.csv,公園
城北中央公園,東京都板橋区桜川一丁目、小茂根五丁目、練馬区氷川台一丁目、羽沢三丁目,https://www.tokyo-park.or.jp/park/format/index022.html,139.677579,35.757429,130001_public_facility.csv,公園
浅間山公園,東京都府中市浅間町四丁目、若松町五丁目,http://musashinoparks.com/kouen/sengenyama/,35.680157,139.500427,130001_public_facility.csv,公園
善福寺川緑地,東京都杉並区成田東二・三・四丁目、成田西一・三・四丁目、荻窪一丁目,https://www.tokyo-park.or.jp/park/format/index021.html,35.690675,139.632405,130001_public_facility.csv,公園
善福寺公園,東京都杉並区善福寺二・三丁目,https://www.tokyo-park.or.jp/park/format/index010.html,35.713434,139.591542,130001_public_facility.csv,公園
祖師谷公園,東京都世田谷区上祖師谷三、四丁目・祖師谷六丁目・成城九丁目,https://www.tokyo-park.or.jp/park/format/index008.html,35.656911,139.599357,130001_public_facility.csv,公園
石神井公園,東京都港区台場一丁目10番1号,http://www.tptc.co.jp/park/01_02,139.604122,35.743429,130001_public_facility.csv,公園
滝山公園,東京都八王子市高月町、丹木町二、三丁目,https://tamaparks.com/takiyama/,35.701454,139.330101,130001_public_facility.csv,公園
玉川上水緑道,東京都福生市、昭島市、立川市、小平市、三鷹市、武蔵野市、杉並区,http://musashinoparks.com/kouen/tamagawa/,35.671987,139.664898,130001_public_facility.csv,その他
東京臨海広域防災公園,東京都江東区有明3丁目8番35号,http://www.tokyorinkai-koen.jp/,35.6804,139.769017,130001_public_facility.csv,公園
舎人公園,東京都足立区舎人公園、西伊興町ほか,https://www.tokyo-park.or.jp/park/format/index024.html,35.797451,139.772165,130001_public_facility.csv,公園
富山公園,東京都新宿区戸山一・二・三丁目、新宿区大久保三丁目,https://www.tokyo-park.or.jp/park/format/index002.html,35.707707,139.705066,130001_public_facility.csv,公園
中川公園,東京都足立区中川五丁目,http://tokyo-eastpark.com/nakagawa/,35.774755,139.845443,130001_public_facility.csv,公園
中藤公園,東京都武蔵村山市中央4・5 丁目地内,https://www.sayamaparks.com/nakato/,35.759998,139.389301,130001_public_facility.csv,公園
長沼公園,東京都八王子市長沼町・下柚木・堀之内,https://www.tokyo-park.or.jp/park/format/index067.html,35.638301,139.368525,130001_public_facility.csv,公園
野川公園,東京都調布市野水一・二丁目、小金井市東町一丁目、三鷹市大沢二・三・六丁目,http://musashinoparks.com/kouen/nogawa/,35.68334,139.525446,130001_public_facility.csv,公園
野山北・六道山公園,東京都武蔵村山市三ツ木4-2,http://www.sayamaparks.com/noyama/,35.765884,139.379757,130001_public_facility.csv,公園
八国山緑地,東京都東村山市諏訪町2・3丁目、多摩湖町4丁目,http://www.sayamaparks.com/hachikokuyama/,35.766772,139.454934,130001_public_facility.csv,公園
東綾瀬公園,東京都足立区東綾瀬一・二・三丁目、 綾瀬三・五・六丁目、谷中一丁目,http://tokyo-eastpark.com/higashiayase/,35.770235,139.832565,130001_public_facility.csv,公園
東白鬚公園,東京都墨田区堤通二丁目,http://www.tokyo-park.or.jp/park/format/index012.html,35.733687,139.814077,130001_public_facility.csv,公園
東伏見公園,東京都西東京市東伏見一丁目,https://musashinoparks.com/kouen/higashifushimi/,35.728728,139.557041,130001_public_facility.csv,公園
東村山中央公園,東京都東村山市富士見町五丁目・美住町一丁目,http://www.tokyo-park.or.jp/park/format/index051.html,35.747927,139.459004,130001_public_facility.csv,公園
東大和公園,東京都東大和市湖畔3丁目、高木1丁目、狭山3丁目,http://www.sayamaparks.com/higashiyamato/,35.756214,139.430354,130001_public_facility.csv,公園
東大和南公園,東京都東大和市桜が丘二・三丁目,http://www.tokyo-park.or.jp/park/format/index052.html,35.734226,139.42202,130001_public_facility.csv,公園
光が丘公園,東京都練馬区光が丘二・四丁目、旭町二丁目、板橋区赤塚新町三丁目,https://www.tokyo-park.or.jp/park/format/index023.html,35.765204,139.629503,130001_public_facility.csv,公園
日比谷公園,東京都千代田区日比谷公園,https://www.tokyo-park.or.jp/park/format/index037.html,35.674439,139.755388,130001_public_facility.csv,公園
平山城址公園,東京都八王子市堀之内,https://www.tokyo-park.or.jp/park/format/index066.html,139.380848,35.647956,130001_public_facility.csv,公園
府中の森公園,東京都府中市浅間町一丁目・緑町二丁目・天神町二丁目,http://www.tokyo-park.or.jp/park/format/index048.html,35.676369,139.491872,130001_public_facility.csv,公園
水元公園,東京都葛飾区水元公園・水元猿町・東金町五、八丁目・埼玉県三郷市高洲三丁目,https://www.tokyo-park.or.jp/park/format/index041.html,35.787198,139.869841,130001_public_facility.csv,公園
武蔵国分寺公園,東京都国分寺市泉町二丁目・西元町二丁目,http://musashinoparks.com/kouen/musasikoku/,35.69685,139.472757,130001_public_facility.csv,公園
武蔵野公園,東京都小金井市前原町二丁目、東町五丁目、中町一丁目、府中市多磨町二・三丁目,http://musashinoparks.com/kouen/musasino/,35.687906,139.520496,130001_public_facility.csv,公園
武蔵野中央公園,東京都武蔵野市八幡町二丁目,http://www.tokyo-park.or.jp/park/format/index059.html,35.718669,139.55854,130001_public_facility.csv,公園
武蔵野の森公園,東京都府中市朝日町三丁目、調布市西町、三鷹市大沢五・六丁目,https://www.tokyo-park.or.jp/park/format/index058.html,35.676093,139.522366,130001_public_facility.csv,公園
明治公園,東京都渋谷区千駄ヶ谷一丁目,http://www.kensetsu.metro.tokyo.jp/jimusho/toubuk/meiji/index_top.html,130.416439,33.588397,130001_public_facility.csv,公園
夢の島公園,東京都江東区夢の島,http://www.yumenoshima.jp/park/,35.651124,139.82782,130001_public_facility.csv,公園
横網町公園,東京都墨田区横網二丁目３番地２５号,http://tokyoireikyoukai.or.jp/,35.699188,139.796883,130001_public_facility.csv,公園
代々木公園,東京都渋谷区代々木神園町、神南二丁目,http://www.tokyo-park.or.jp/park/format/index039.html,35.671736,139.694945,130001_public_facility.csv,公園
陵南公園,東京都八王子市長房町、東浅川町,https://tamaparks.com/ryonan/,35.649066,139.289172,130001_public_facility.csv,公園
林試の森公園,東京都目黒区下目黒五丁目、東京都品川区小山台二丁目,http://www.tokyo-park.or.jp/park/format/index003.html,35.624931,139.703329,130001_public_facility.csv,公園
蘆花恒春園,東京都世田谷区粕谷一丁目,http://www.tokyo-park.or.jp/park/format/index007.html,35.661969,139.61091,130001_public_facility.csv,その他
六仙公園,東久留米市中央町三丁目,http://musashinoparks.com/kouen/rokusen/,35.750302,139.522698,130001_public_facility.csv,公園
和田堀公園,東京都杉並区大宮一・二丁目、成田東一・二丁目、成田西一丁目、堀ノ内一・二丁目、松ノ木一丁目,http://www.tokyo-park.or.jp/park/format/index095.html,35.685224,139.64057,130001_public_facility.csv,公園
旧岩崎邸庭園,東京都台東区池之端一丁目,https://www.tokyo-park.or.jp/teien/contents/index035.html,35.70976,139.767205,130001_public_facility.csv,その他
旧芝離宮恩賜庭園,東京都港区海岸一丁目,https://www.tokyo-park.or.jp/teien/contents/index029.html,35.655799,139.758046,130001_public_facility.csv,その他
旧古河庭園,東京都北区西ヶ原一丁目,https://www.tokyo-park.or.jp/teien/contents/index034.html,35.743102,139.746698,130001_public_facility.csv,その他
清澄庭園,東京都江東区清澄二・三丁目,https://www.tokyo-park.or.jp/teien/contents/index033.html,35.680676,139.797804,130001_public_facility.csv,その他
小石川後楽園,東京都文京区後楽一丁目,https://www.tokyo-park.or.jp/teien/contents/index030.html,35.704864,139.747649,130001_public_facility.csv,その他
殿ヶ谷戸庭園,東京都国分寺市南町二丁目,https://www.tokyo-park.or.jp/teien/contents/index036.html,35.69872,139.481937,130001_public_facility.csv,その他
浜離宮恩賜庭園,東京都中央区浜離宮庭園,https://www.tokyo-park.or.jp/teien/contents/index028.html,35.659737,139.763493,130001_public_facility.csv,その他
向島百花園,東京都墨田区東向島三丁目,https://www.tokyo-park.or.jp/teien/contents/index032.html,35.724215,139.815601,130001_public_facility.csv,その他
六義園,東京都文京区本駒込六丁目,https://www.tokyo-park.or.jp/teien/contents/index031.html,35.732759,139.747707,130001_public_facility.csv,その他
墨田区役所,,https://www.city.sumida.lg.jp/sisetu_info/kuyakusyo/sumidakuyakusyo.html,35.710722,139.801497,131075_public_facility.csv,市役所・役場
緑出張所,,https://www.city.sumida.lg.jp/sisetu_info/syuttyouzyo/midori_syuttyouzyo.html,35.693716,139.803289,131075_public_facility.csv,市役所・役場
横川出張所,,https://www.city.sumida.lg.jp/sisetu_info/syuttyouzyo/yokokawa_syuttyouzyo.html,35.705911,139.816341,131075_public_facility.csv,市役所・役場
文花出張所,,https://www.city.sumida.lg.jp/sisetu_info/syuttyouzyo/bunka_syuttyouzyo.html,35.708094,139.824656,131075_public_facility.csv,市役所・役場
墨田二丁目出張所,,https://www.city.sumida.lg.jp/sisetu_info/syuttyouzyo/sumida2_syuttyuouzyo.html,35.731063,139.818292,131075_public_facility.csv,市役所・役場
東向島出張所,,https://www.city.sumida.lg.jp/sisetu_info/syuttyouzyo/hm_syuttyouzyo.html,35.721213,139.818441,131075_public_facility.csv,市役所・役場
ひきふね図書館,,https://www.city.sumida.lg.jp/sisetu_info/tamokuteki/library/annai/hikihune.html,35.717058,139.819491,131075_public_facility.csv,図書館
緑図書館,,https://www.city.sumida.lg.jp/sisetu_info/tamokuteki/library/annai/midori.html,35.69574,139.800613,131075_public_facility.csv,図書館
立花図書館,,https://www.city.sumida.lg.jp/sisetu_info/tamokuteki/library/annai/tatibana.html,35.710694,139.834842,131075_public_facility.csv,図書館
八広図書館,,https://www.city.sumida.lg.jp/sisetu_info/tamokuteki/library/annai/yahiro.html,35.72481,139.825793,131075_public_facility.csv,図書館
東駒形コミュニティ会館図書室,,https://www.city.sumida.lg.jp/sisetu_info/tamokuteki/library/annai/higasikomagata.html,35.705517,139.807746,131075_public_facility.csv,コミュニティセンター
梅若橋コミュニティ会館図書室,,https://www.city.sumida.lg.jp/sisetu_info/tamokuteki/library/annai/umewaka.html,35.735335,139.816746,131075_public_facility.csv,コミュニティセンター
横川コミュニティ会館図書室,,https://www.city.sumida.lg.jp/sisetu_info/tamokuteki/library/annai/yokokawa.html,35.705116,139.81758,131075_public_facility.csv,コミュニティセンター
曳舟文化センター,,https://www.city.sumida.lg.jp/sisetu_info/tamokuteki/hikibunec.html,35.718293,139.818762,131075_public_facility.csv,コミュニティセンター
すみだリバーサイドホール,,https://www.city.sumida.lg.jp/sisetu_info/tamokuteki/sumidariversidehall/index.html,35.710228,139.801599,131075_public_facility.csv,その他
東駒形コミュニティ会館,,https://www.city.sumida.lg.jp/sisetu_info/tamokuteki/communitykaikan/higashikomagata/index.html,35.705517,139.807746,131075_public_facility.csv,コミュニティセンター
梅若橋コミュニティ会館,,https://www.city.sumida.lg.jp/sisetu_info/tamokuteki/communitykaikan/umewakabashi/index.html,35.735335,139.816746,131075_public_facility.csv,コミュニティセンター
横川コミュニティ会館,,https://www.city.sumida.lg.jp/sisetu_info/tamokuteki/communitykaikan/yokokawa/index.html,35.705116,139.81758,131075_public_facility.csv,コミュニティセンター
みどりコミュニティセンター,,https://www.city.sumida.lg.jp/sisetu_info/tamokuteki/midori_communityc.html,35.693598,139.803278,131075_public_facility.csv,コミュニティセンター
東墨田会館,,https://www.city.sumida.lg.jp/sisetu_info/tamokuteki/east_sumida.html,35.721384,139.832596,131075_public_facility.csv,コミュニティセンター
すみだ共生社会推進センター,,https://www.city.sumida.lg.jp/sisetu_info/tamokuteki/sumida_zyoseicenter/index.html,35.712706,139.811982,131075_public_facility.csv,コミュニティセンター
ユートリヤ（すみだ生涯学習センター）,,https://www.city.sumida.lg.jp/sisetu_info/tamokuteki/yutoriya/index.html,35.721049,139.818306,131075_public_facility.csv,学校・教育施設
八広地域プラザ「吾嬬の里」,,https://www.city.sumida.lg.jp/sisetu_info/tamokuteki/plaza/yahiro_chiikiplaza/index.html,35.723165,139.829377,131075_public_facility.csv,その他
本所地域プラザ「BIG SHIP」,,https://www.city.sumida.lg.jp/sisetu_info/tamokuteki/plaza/honjyo_chiikiplaza/index.html,35.703121,139.798799,131075_public_facility.csv,その他
墨田区総合体育館,,https://www.city.sumida.lg.jp/sisetu_info/sports/sumidacitygym.html,35.699416,139.817188,131075_public_facility.csv,スポーツ・体育館
スポーツプラザ梅若,,https://www.city.sumida.lg.jp/sisetu_info/sports/umewaka.html,35.729064,139.815837,131075_public_facility.csv,スポーツ・体育館
立花体育館,,,35.705186,139.83202,131075_public_facility.csv,スポーツ・体育館
すみだスポーツ健康センター,,https://www.city.sumida.lg.jp/sisetu_info/sports/sumidasportcenter.html,35.716461,139.830555,131075_public_facility.csv,スポーツ・体育館
両国屋内プール,,https://www.city.sumida.lg.jp/sisetu_info/sports/ryougoku/index.html,35.697809,139.796259,131075_public_facility.csv,スポーツ・体育館
弓道場,,https://www.city.sumida.lg.jp/sisetu_info/sports/kyuudou.html,35.693357,139.817402,131075_public_facility.csv,その他
屋外体育施設管理事務所八広支所,,,35.726546,139.829392,131075_public_facility.csv,その他
屋外体育施設管理事務所錦糸支所,,,35.699416,139.817188,131075_public_facility.csv,その他
錦糸公園野球場,,https://www.city.sumida.lg.jp/kurashi/sports/sisetu_info/riyouannnai.html,35.699468,139.816995,131075_public_facility.csv,公園
八広野球場,,https://www.city.sumida.lg.jp/kurashi/sports/sisetu_info/riyouannnai.html,35.729774,139.828899,131075_public_facility.csv,その他
墨田野球場,,https://www.city.sumida.lg.jp/kurashi/sports/sisetu_info/riyouannnai.html,35.733249,139.825283,131075_public_facility.csv,その他
荒川四ツ木橋緑地野球場,,https://www.city.sumida.lg.jp/kurashi/sports/sisetu_info/riyouannnai.html,35.737301,139.821909,131075_public_facility.csv,公園
鐘淵野球場,,https://www.city.sumida.lg.jp/kurashi/sports/sisetu_info/riyouannnai.html,35.73864,139.821174,131075_public_facility.csv,その他
荒川四ツ木橋緑地少年野球場,,https://www.city.sumida.lg.jp/kurashi/sports/sisetu_info/riyouannnai.html,35.72555,139.83304,131075_public_facility.csv,公園
東墨田公園少年野球場,,https://www.city.sumida.lg.jp/kurashi/sports/sisetu_info/riyouannnai.html,35.719965,139.835041,131075_public_facility.csv,公園
隅田公園少年野球場,,https://www.city.sumida.lg.jp/kurashi/sports/sisetu_info/riyouannnai.html,35.718826,139.809372,131075_public_facility.csv,公園
江戸川河川敷野球場,,https://www.city.sumida.lg.jp/kurashi/sports/sisetu_info/riyouannnai.html,35.817844,139.889423,131075_public_facility.csv,その他
錦糸公園テニスコート,,https://www.city.sumida.lg.jp/kurashi/sports/sisetu_info/riyouannnai.html,35.69963,139.815499,131075_public_facility.csv,公園
文花テニスコート,,https://www.city.sumida.lg.jp/kurashi/sports/sisetu_info/riyouannnai.html,35.709693,139.823985,131075_public_facility.csv,その他
緑町公園テニスコート,,https://www.city.sumida.lg.jp/kurashi/sports/sisetu_info/riyouannnai.html,35.696358,139.801007,131075_public_facility.csv,公園
東墨田テニスコート,,https://www.city.sumida.lg.jp/kurashi/sports/sisetu_info/riyouannnai.html,35.718387,139.837146,131075_public_facility.csv,その他
堤通公園テニスコート,,https://www.city.sumida.lg.jp/kurashi/sports/sisetu_info/riyouannnai.html,35.723939,139.810789,131075_public_facility.csv,公園
大横川親水公園テニスコート,,https://www.city.sumida.lg.jp/kurashi/sports/sisetu_info/riyouannnai.html,35.69439,139.808936,131075_public_facility.csv,公園
墨田競技場,,https://www.city.sumida.lg.jp/kurashi/sports/sisetu_info/riyouannnai.html,35.73325,139.8253,131075_public_facility.csv,スポーツ・体育館
荒川四ツ木橋緑地競技場,,https://www.city.sumida.lg.jp/kurashi/sports/sisetu_info/riyouannnai.html,35.735975,139.822977,131075_public_facility.csv,公園
荒川四ツ木橋緑地球技場,,https://www.city.sumida.lg.jp/kurashi/sports/sisetu_info/riyouannnai.html,35.734591,139.824082,131075_public_facility.csv,公園
鐘淵球技場,,https://www.city.sumida.lg.jp/kurashi/sports/sisetu_info/riyouannnai.html,35.739293,139.820831,131075_public_facility.csv,その他
荒川四ツ木橋緑地少年サッカー場,,https://www.city.sumida.lg.jp/kurashi/sports/sisetu_info/riyouannnai.html,35.722998,139.835637,131075_public_facility.csv,公園
荒川緑地フィールドハウス,,https://www.city.sumida.lg.jp/kurashi/sports/sisetu_info/riyouannnai.html,35.732701,139.823903,131075_public_facility.csv,公園
東白鬚公園サービスセンター,,https://www.city.sumida.lg.jp/sisetu_info/sports/sirahige_park.html,35.733289,139.813482,131075_public_facility.csv,公園
東白鬚公園テニスコート,,https://www.city.sumida.lg.jp/sisetu_info/sports/sirahige_park.html,35.732339,139.813541,131075_public_facility.csv,公園
東白鬚公園少年野球場,,https://www.city.sumida.lg.jp/sisetu_info/sports/sirahige_park.html,35.733036,139.814324,131075_public_facility.csv,公園
フクシ・エンタープライズ墨田フィールド（墨田区総合運動場）,,https://www.city.sumida.lg.jp/sisetu_info/sports/sougou-undoujou.html,35.738941,139.816432,131075_public_facility.csv,スポーツ・体育館
江東区役所,東京都江東区東陽4-11-28,https://www.city.koto.lg.jp/011501/shisetsuannai/kokyo/kuyakusho/honcho/17152.html,35.672614,139.817331,131083_001_public_facility.csv,市役所・役場
江東区防災センター,東京都江東区東陽4-11-28,https://www.city.koto.lg.jp/051101/kuse/profile/ichi/3099.html,35.67234,139.81736,131083_001_public_facility.csv,コミュニティセンター
東陽二丁目駐車場,東京都江東区東陽2-3-6,https://www.city.koto.lg.jp/053102/kurashi/kotsu/jidosha/7561.html,35.667459,139.817082,131083_001_public_facility.csv,その他
男女共同参画推進センター,東京都江東区扇橋3-22-2パルシティ江東,https://www.city.koto.lg.jp/kurashi/jinken/danjo/center/,35.68412,139.82018,131083_001_public_facility.csv,コミュニティセンター
江東区文化センター,東京都江東区東陽4-11-3,https://www.kcf.or.jp/koto/,35.673086,139.818678,131083_001_public_facility.csv,コミュニティセンター
豊洲文化センター,東京都江東区豊洲2-2-18,https://www.kcf.or.jp/toyosu/,35.654581,139.795247,131083_001_public_facility.csv,コミュニティセンター
東大島文化センター,東京都江東区大島8-33-9,https://www.kcf.or.jp/higashiojima/,35.690052,139.842408,131083_001_public_facility.csv,コミュニティセンター
砂町文化センター,東京都江東区北砂5-1-7,https://www.kcf.or.jp/sunamachi/,35.680617,139.831936,131083_001_public_facility.csv,コミュニティセンター
森下文化センター,東京都江東区森下3-12-17,https://www.kcf.or.jp/morishita/,35.685408,139.802078,131083_001_public_facility.csv,コミュニティセンター
古石場文化センター,東京都江東区古石場2-13-2,https://www.kcf.or.jp/furuishiba/,35.667256,139.799022,131083_001_public_facility.csv,コミュニティセンター
亀戸文化センター,東京都江東区亀戸2-19-1,https://www.kcf.or.jp/kameido/,35.697917,139.824505,131083_001_public_facility.csv,コミュニティセンター
総合区民センター,東京都江東区大島4-5-1,https://www.kcf.or.jp/sogo/,35.68938,139.827021,131083_001_public_facility.csv,コミュニティセンター
江東公会堂,東京都江東区住吉2-28-36,https://www.kcf.or.jp/tiara/,35.688755,139.819463,131083_001_public_facility.csv,コミュニティセンター
江東区芭蕉記念館,東京都江東区常盤1-6-3,https://www.kcf.or.jp/basho/,35.686127,139.794056,131083_001_public_facility.csv,文化・博物館
江東区深川江戸資料館,東京都江東区白河1-3-28,https://www.kcf.or.jp/fukagawa/,35.681189,139.800595,131083_001_public_facility.csv,文化・博物館
江東区中川船番所資料館,東京都江東区大島9-1-15,https://www.kcf.or.jp/nakagawa/,35.687686,139.846282,131083_001_public_facility.csv,文化・博物館
スポーツ会館,東京都江東区北砂1-2-9,https://www.koto-hsc.or.jp/sports_center1/,35.68425,139.82146,131083_001_public_facility.csv,スポーツ・体育館
深川スポーツセンター,東京都江東区越中島1-2-18,https://www.koto-hsc.or.jp/sports_center2/,35.670692,139.791745,131083_001_public_facility.csv,スポーツ・体育館
亀戸スポーツセンター,東京都江東区亀戸8-22-1,https://www.koto-hsc.or.jp/sports_center3/,35.700432,139.836565,131083_001_public_facility.csv,スポーツ・体育館
有明スポーツセンター,東京都江東区有明2-3-5,https://www.koto-hsc.or.jp/sports_center4/,35.6335,139.783824,131083_001_public_facility.csv,スポーツ・体育館
東砂スポーツセンター,東京都江東区東砂4-24-1,https://www.koto-hsc.or.jp/sports_center5/,35.67923,139.8396,131083_001_public_facility.csv,スポーツ・体育館
深川北スポーツセンター,東京都江東区平野3-2-20,https://www.koto-hsc.or.jp/sports_center6/,35.67695,139.80532,131083_001_public_facility.csv,スポーツ・体育館
夢の島競技場,東京都江東区夢の島1-1-2,https://www.di-ksp.jp/facility/yumenoshima_k,35.648623,139.824323,131083_001_public_facility.csv,スポーツ・体育館
夢の島野球場,東京都江東区夢の島1-1-1,https://www.di-ksp.jp/facility/yumenoshima_u,35.65014,139.823453,131083_001_public_facility.csv,その他
新砂運動場,東京都江東区新砂3-9-1,https://www.di-ksp.jp/facility/shinsuna,35.656774,139.834701,131083_001_public_facility.csv,スポーツ・体育館
潮見野球場,東京都江東区潮見1-1-1,https://www.di-ksp.jp/facility/shiomi,35.655935,139.810145,131083_001_public_facility.csv,その他
亀戸野球場,東京都江東区亀戸2-6-50,https://www.di-ksp.jp/facility/kameido,35.701025,139.821286,131083_001_public_facility.csv,その他
潮見庭球場,東京都江東区潮見1-1-1,https://www.di-ksp.jp/facility/shiomi,35.655935,139.810145,131083_001_public_facility.csv,その他
亀戸庭球場,東京都江東区亀戸2-6-50,https://www.di-ksp.jp/facility/kameido,35.701025,139.821286,131083_001_public_facility.csv,その他
越中島プール,東京都江東区越中島1-3-23,https://www.di-ksp.jp/facility/echujima,35.668814,139.789691,131083_001_public_facility.csv,スポーツ・体育館
深川庭球場,東京都江東区富岡1-17-9,https://www.di-ksp.jp/facility/fukagawa,35.672254,139.798897,131083_001_public_facility.csv,その他
豊住庭球場,東京都江東区東陽6-1-13,https://www.di-ksp.jp/facility/toyozumi,35.674264,139.810897,131083_001_public_facility.csv,その他
東砂庭球場,東京都江東区東砂1-2-13,https://www.di-ksp.jp/facility/higashisuna,35.683773,139.839693,131083_001_public_facility.csv,その他
荒川・砂町庭球場,東京都江東区東砂3-28-13,https://www.di-ksp.jp/facility/arakawa,35.680116,139.845007,131083_001_public_facility.csv,その他
夢の島スケートボードパーク,東京都江東区夢の島1-1,https://www.di-ksp.jp/facility/yumenoshima_s,35.648602,139.8237,131083_001_public_facility.csv,その他
扇橋一丁目アパート1号棟,東京都江東区扇橋1-20-1,https://www.city.koto.lg.jp/kurashi/sumai/moshikomi/index.html,35.68398,139.810889,131083_001_public_facility.csv,住宅・住区施設
扇橋一丁目アパート2号棟,東京都江東区扇橋1-20-2,https://www.city.koto.lg.jp/kurashi/sumai/moshikomi/index.html,35.683566,139.810911,131083_001_public_facility.csv,住宅・住区施設
塩浜住宅1号棟,東京都江東区塩浜2-25-1,https://www.city.koto.lg.jp/kurashi/sumai/moshikomi/index.html,35.664665,139.814396,131083_001_public_facility.csv,住宅・住区施設
塩浜住宅2号棟,東京都江東区塩浜2-25-2,https://www.city.koto.lg.jp/kurashi/sumai/moshikomi/index.html,35.664963,139.814349,131083_001_public_facility.csv,住宅・住区施設
東砂八丁目住宅,東京都江東区東砂8-24-1,https://www.city.koto.lg.jp/kurashi/sumai/moshikomi/index.html,35.667463,139.842171,131083_001_public_facility.csv,住宅・住区施設
森下二丁目住宅,東京都江東区森下2-14-10,https://www.city.koto.lg.jp/kurashi/sumai/moshikomi/index.html,35.687643,139.800152,131083_001_public_facility.csv,住宅・住区施設
塩浜一丁目住宅12号棟,東京都江東区塩浜1-4-12,https://www.city.koto.lg.jp/kurashi/sumai/moshikomi/index.html,35.661518,139.801481,131083_001_public_facility.csv,住宅・住区施設
塩浜一丁目住宅14号棟,東京都江東区塩浜1-4-14,https://www.city.koto.lg.jp/kurashi/sumai/moshikomi/index.html,35.661049,139.800928,131083_001_public_facility.csv,住宅・住区施設
北砂七丁目住宅1号棟,東京都江東区北砂7-2-1,https://www.city.koto.lg.jp/kurashi/sumai/moshikomi/index.html,35.677248,139.83473,131083_001_public_facility.csv,住宅・住区施設
北砂七丁目住宅2号棟,東京都江東区北砂7-2-2,https://www.city.koto.lg.jp/kurashi/sumai/moshikomi/index.html,35.677562,139.834811,131083_001_public_facility.csv,住宅・住区施設
北砂七丁目住宅3号棟,東京都江東区北砂7-2-3,https://www.city.koto.lg.jp/kurashi/sumai/moshikomi/index.html,35.677878,139.834908,131083_001_public_facility.csv,住宅・住区施設
北砂七丁目住宅4号棟,東京都江東区北砂7-2-4,https://www.city.koto.lg.jp/kurashi/sumai/moshikomi/index.html,35.678156,139.835116,131083_001_public_facility.csv,住宅・住区施設
東陽一丁目住宅,東京都江東区東陽1-15-9,https://www.city.koto.lg.jp/kurashi/sumai/moshikomi/index.html,35.667862,139.810391,131083_001_public_facility.csv,住宅・住区施設
東陽一丁目第二住宅,東京都江東区東陽1-10-5,https://www.city.koto.lg.jp/kurashi/sumai/moshikomi/index.html,35.668354,139.808938,131083_001_public_facility.csv,住宅・住区施設
ピアすみよし,東京都江東区住吉2-8-9,https://www.city.koto.lg.jp/kurashi/sumai/moshikomi/index.html,35.689743,139.815283,131083_001_public_facility.csv,その他
ピアこうとう,東京都江東区東陽6-2-17,https://www.city.koto.lg.jp/kurashi/sumai/moshikomi/index.html,35.674728,139.812491,131083_001_public_facility.csv,その他
ピアおおじま,東京都江東区大島6-14-4,https://www.city.koto.lg.jp/kurashi/sumai/moshikomi/index.html,35.692999,139.836326,131083_001_public_facility.csv,その他
江東区保健所,東京都江東区東陽2-1-1,https://www.city.koto.lg.jp/shisetsuannai/kenkou/hokenshisetsu/index.html,35.66574,139.814216,131083_001_public_facility.csv,病院・医療
健康センター,東京都江東区東陽2-1-1,https://www.city.koto.lg.jp/260311/shisetsuannai/kenkou/fukushishisetsu/17360.html,35.66574,139.814216,131083_001_public_facility.csv,病院・医療
城東保健相談所,東京都江東区大島3-1-3,https://www.city.koto.lg.jp/shisetsuannai/kenkou/hokenshisetsu/index.html,35.689996,139.827634,131083_001_public_facility.csv,病院・医療
深川保健相談所,東京都江東区白河3-4-3-301,https://www.city.koto.lg.jp/shisetsuannai/kenkou/hokenshisetsu/index.html,35.68208,139.80569,131083_001_public_facility.csv,病院・医療
深川南部保健相談所,東京都江東区枝川1-8-15-102,https://www.city.koto.lg.jp/shisetsuannai/kenkou/hokenshisetsu/index.html,35.65842,139.81925,131083_001_public_facility.csv,病院・医療
城東南部保健相談所,東京都江東区南砂4-3-10,https://www.city.koto.lg.jp/shisetsuannai/kenkou/hokenshisetsu/index.html,35.67423,139.82763,131083_001_public_facility.csv,病院・医療
新大橋地区集会所,東京都江東区新大橋2-11-6,https://www.city.koto.lg.jp/101010/kurashi/komyunitei/chiiki/shukai/7685.html,35.688662,139.79458,131083_001_public_facility.csv,その他
高森地区集会所,東京都江東区森下3-12-17,https://www.city.koto.lg.jp/101010/kurashi/komyunitei/chiiki/shukai/7685.html,35.68528,139.80188,131083_001_public_facility.csv,その他
平野地区集会所,東京都江東区平野3-3-9-102,https://www.city.koto.lg.jp/101010/kurashi/komyunitei/chiiki/shukai/7685.html,35.677472,139.805995,131083_001_public_facility.csv,その他
三好地区集会所,東京都江東区三好3-7-10,https://www.city.koto.lg.jp/101010/kurashi/komyunitei/chiiki/shukai/7685.html,35.680452,139.804634,131083_001_public_facility.csv,その他
白河東地区集会所,東京都江東区白河4-9-15-104,https://www.city.koto.lg.jp/101010/kurashi/komyunitei/chiiki/shukai/7685.html,35.683171,139.808253,131083_001_public_facility.csv,その他
永代地区集会所,東京都江東区永代2-9-4,https://www.city.koto.lg.jp/101010/kurashi/komyunitei/chiiki/shukai/7685.html,35.673383,139.791246,131083_001_public_facility.csv,その他
富岡北地区集会所,東京都江東区深川1-11-18,https://www.city.koto.lg.jp/101010/kurashi/komyunitei/chiiki/shukai/7685.html,35.678539,139.795696,131083_001_public_facility.csv,その他
深川地区集会所,東京都江東区深川2-1-8,https://www.city.koto.lg.jp/101010/kurashi/komyunitei/chiiki/shukai/7685.html,35.673834,139.797112,131083_001_public_facility.csv,その他
牡丹地区集会所,東京都江東区牡丹3-28-6,https://www.city.koto.lg.jp/101010/kurashi/komyunitei/chiiki/shukai/7685.html,35.667837,139.801125,131083_001_public_facility.csv,その他
越中島地区集会所,東京都江東区越中島3-6-34,https://www.city.koto.lg.jp/101010/kurashi/komyunitei/chiiki/shukai/7685.html,35.665296,139.796437,131083_001_public_facility.csv,その他
塩浜東地区集会所,東京都江東区塩浜2-14-2,https://www.city.koto.lg.jp/101010/kurashi/komyunitei/chiiki/shukai/7685.html,35.66287,139.80876,131083_001_public_facility.csv,その他
枝川西地区集会所,東京都江東区枝川1-6-18,https://www.city.koto.lg.jp/101010/kurashi/komyunitei/chiiki/shukai/7685.html,35.657355,139.803581,131083_001_public_facility.csv,その他
潮見地区集会所,東京都江東区潮見1-18-9,https://www.city.koto.lg.jp/101010/kurashi/komyunitei/chiiki/shukai/7685.html,35.657591,139.813291,131083_001_public_facility.csv,その他
千石地区集会所,東京都江東区千石1-13-13,https://www.city.koto.lg.jp/101010/kurashi/komyunitei/chiiki/shukai/7685.html,35.679689,139.811514,131083_001_public_facility.csv,その他
千田地区集会所,東京都江東区千田21-15,https://www.city.koto.lg.jp/101010/kurashi/komyunitei/chiiki/shukai/7685.html,35.6812,139.81661,131083_001_public_facility.csv,その他
扇橋地区集会所,東京都江東区扇橋3-7-3,https://www.city.koto.lg.jp/101010/kurashi/komyunitei/chiiki/shukai/7685.html,35.682558,139.820235,131083_001_public_facility.csv,その他
住吉地区集会所,東京都江東区住吉1-8-12,https://www.city.koto.lg.jp/101010/kurashi/komyunitei/chiiki/shukai/7685.html,35.687457,139.811711,131083_001_public_facility.csv,その他
毛利地区集会所,東京都江東区毛利1-12-7,https://www.city.koto.lg.jp/101010/kurashi/komyunitei/chiiki/shukai/7685.html,35.69137,139.814994,131083_001_public_facility.csv,その他
東陽南地区集会所,東京都江東区東陽1-16-3,https://www.city.koto.lg.jp/101010/kurashi/komyunitei/chiiki/shukai/7685.html,35.66732,139.80975,131083_001_public_facility.csv,その他
東陽東地区集会所,東京都江東区東陽4-11-1,https://www.city.koto.lg.jp/101010/kurashi/komyunitei/chiiki/shukai/7685.html,35.67239,139.818843,131083_001_public_facility.csv,その他
亀戸西地区集会所,東京都江東区亀戸3-41-8,https://www.city.koto.lg.jp/101010/kurashi/komyunitei/chiiki/shukai/7685.html,35.704849,139.822964,131083_001_public_facility.csv,その他
亀戸北地区集会所,東京都江東区亀戸4-21-18,https://www.city.koto.lg.jp/101010/kurashi/komyunitei/chiiki/shukai/7685.html,35.702447,139.826075,131083_001_public_facility.csv,その他
亀戸南地区集会所,東京都江東区亀戸7-56-3,https://www.city.koto.lg.jp/101010/kurashi/komyunitei/chiiki/shukai/7685.html,35.696265,139.83516,131083_001_public_facility.csv,その他
亀戸水神地区集会所,東京都江東区亀戸8-27-5,https://www.city.koto.lg.jp/101010/kurashi/komyunitei/chiiki/shukai/7685.html,35.701781,139.833921,131083_001_public_facility.csv,その他
亀戸東地区集会所,東京都江東区亀戸9-34-1-135,https://www.city.koto.lg.jp/101010/kurashi/komyunitei/chiiki/shukai/7685.html,35.699359,139.840646,131083_001_public_facility.csv,その他
大島中央地区集会所,東京都江東区大島5-12-14,https://www.city.koto.lg.jp/101010/kurashi/komyunitei/chiiki/shukai/7685.html,35.688757,139.833344,131083_001_public_facility.csv,その他
大島地区集会所,東京都江東区大島7-16-4,https://www.city.koto.lg.jp/101010/kurashi/komyunitei/chiiki/shukai/7685.html,35.69256,139.838962,131083_001_public_facility.csv,その他
大島東地区集会所,東京都江東区大島7-29-4,https://www.city.koto.lg.jp/101010/kurashi/komyunitei/chiiki/shukai/7685.html,35.694248,139.842884,131083_001_public_facility.csv,その他
北砂中央地区集会所,東京都江東区北砂3-31-4,https://www.city.koto.lg.jp/101010/kurashi/komyunitei/chiiki/shukai/7685.html,35.679872,139.828433,131083_001_public_facility.csv,その他
北砂地区集会所,東京都江東区北砂4-20-13,https://www.city.koto.lg.jp/101010/kurashi/komyunitei/chiiki/shukai/7685.html,35.67745,139.83223,131083_001_public_facility.csv,その他
亀高地区集会所,東京都江東区北砂6-26-7,https://www.city.koto.lg.jp/101010/kurashi/komyunitei/chiiki/shukai/7685.html,35.681572,139.838388,131083_001_public_facility.csv,その他
東砂北地区集会所,東京都江東区東砂3-17-17,https://www.city.koto.lg.jp/101010/kurashi/komyunitei/chiiki/shukai/7685.html,35.68143,139.84216,131083_001_public_facility.csv,その他
南砂北地区集会所,東京都江東区南砂1-4-24,https://www.city.koto.lg.jp/101010/kurashi/komyunitei/chiiki/shukai/7685.html,35.679722,139.821087,131083_001_public_facility.csv,その他
東砂南地区集会所,東京都江東区東砂6-19-9,https://www.city.koto.lg.jp/101010/kurashi/komyunitei/chiiki/shukai/7685.html,35.674504,139.841341,131083_001_public_facility.csv,その他
東砂西地区集会所,東京都江東区東砂7-5-1,https://www.city.koto.lg.jp/101010/kurashi/komyunitei/chiiki/shukai/7685.html,35.670618,139.839835,131083_001_public_facility.csv,その他
南砂西地区集会所,東京都江東区南砂4-3-22,https://www.city.koto.lg.jp/101010/kurashi/komyunitei/chiiki/shukai/7685.html,35.674162,139.827373,131083_001_public_facility.csv,その他
白河出張所,東京都江東区白河1-3-28深川江戸資料館内,https://www.city.koto.lg.jp/060305/kurashi/jumin/shutcho/7122.html,35.68095,139.800612,131083_001_public_facility.csv,市役所・役場
富岡出張所,東京都江東区富岡1-16-12,https://www.city.koto.lg.jp/060305/kurashi/jumin/shutcho/7122.html,35.671785,139.798591,131083_001_public_facility.csv,市役所・役場
小松橋出張所,東京都江東区扇橋2-1-5,https://www.city.koto.lg.jp/060305/kurashi/jumin/shutcho/7122.html,35.682694,139.814281,131083_001_public_facility.csv,市役所・役場
亀戸出張所,東京都江東区亀戸2-19-1カメリアプラザ1階,https://www.city.koto.lg.jp/060305/kurashi/jumin/shutcho/7122.html,35.697633,139.824556,131083_001_public_facility.csv,市役所・役場
大島出張所,東京都江東区大島4-5-1総合区民センター2階,https://www.city.koto.lg.jp/060305/kurashi/jumin/shutcho/7122.html,35.689145,139.826996,131083_001_public_facility.csv,市役所・役場
砂町出張所,東京都江東区北砂4-7-3,https://www.city.koto.lg.jp/060305/kurashi/jumin/shutcho/7122.html,35.677468,139.828457,131083_001_public_facility.csv,市役所・役場
南砂出張所,東京都江東区南砂6-8-3,https://www.city.koto.lg.jp/060305/kurashi/jumin/shutcho/7122.html,35.671228,139.834852,131083_001_public_facility.csv,市役所・役場
富岡区民館,東京都江東区富岡1-16-12,https://www.city.koto.lg.jp/060305/kurashi/komyunitei/chiiki/7683.html,35.671785,139.798591,131083_001_public_facility.csv,その他
枝川区民館,東京都江東区枝川3-6-16,https://www.city.koto.lg.jp/060305/kurashi/komyunitei/chiiki/7683.html,35.658523,139.810294,131083_001_public_facility.csv,その他
小松橋区民館,東京都江東区扇橋2-1-5,https://www.city.koto.lg.jp/060305/kurashi/komyunitei/chiiki/7683.html,35.682694,139.814281,131083_001_public_facility.csv,その他
東陽区民館,東京都江東区東陽3-1-2,https://www.city.koto.lg.jp/060305/kurashi/komyunitei/chiiki/7683.html,35.668629,139.808576,131083_001_public_facility.csv,その他
砂町区民館,東京都江東区北砂4-7-3,https://www.city.koto.lg.jp/060305/kurashi/komyunitei/chiiki/7683.html,35.677468,139.828457,131083_001_public_facility.csv,その他
南砂区民館,東京都江東区南砂6-8-3,https://www.city.koto.lg.jp/060305/kurashi/komyunitei/chiiki/7683.html,35.671228,139.834852,131083_001_public_facility.csv,その他
塩浜福祉園,東京都江東区塩浜2-5-20塩浜福祉プラザ1階,https://www.city.koto.lg.jp/221015/fukushi/shogaisha/shisetsu/shokai/6804.html,35.662029,139.80537,131083_001_public_facility.csv,福祉施設
東砂福祉園,東京都江東区東砂3-30-6東砂福祉プラザ1・2階,https://www.city.koto.lg.jp/221015/fukushi/shogaisha/shisetsu/shokai/6805.html,35.681241,139.845344,131083_001_public_facility.csv,福祉施設
亀戸福祉園,東京都江東区亀戸9-6-29,https://www.city.koto.lg.jp/221015/fukushi/shogaisha/shisetsu/shokai/6806.html,35.696478,139.841716,131083_001_public_facility.csv,福祉施設
あすなろ作業所,東京都江東区東砂3-30-6東砂福祉プラザ2・3階,https://www.city.koto.lg.jp/221015/fukushi/shogaisha/shisetsu/shokai/6807.html,35.681241,139.845344,131083_001_public_facility.csv,福祉施設
第二あすなろ作業所,東京都江東区毛利2-1-14,https://www.city.koto.lg.jp/221015/fukushi/shogaisha/shisetsu/shokai/6808.html,35.690709,139.816524,131083_001_public_facility.csv,その他
こども発達センター,東京都江東区塩浜2-5-20塩浜福祉プラザ1階,https://www.city.koto.lg.jp/221015/fukushi/shogaisha/shisetsu/shokai/6016.html,35.662029,139.80537,131083_001_public_facility.csv,コミュニティセンター
こども発達亀戸センター,東京都江東区亀戸1-24-6-2階,https://www.city.koto.lg.jp/221015/fukushi/shogaisha/shisetsu/shokai/6016.html,35.694839,139.82428,131083_001_public_facility.csv,コミュニティセンター
障害者福祉センター,東京都江東区扇橋3-7-2,https://www.city.koto.lg.jp/221015/fukushi/shogaisha/shisetsu/shokai/6803.html,35.682902,139.820303,131083_001_public_facility.csv,コミュニティセンター
リバーハウス東砂,東京都江東区東砂3-30-6東砂福祉プラザ4階,https://www.city.koto.lg.jp/221015/fukushi/shogaisha/shisetsu/shokai/6812.html,35.681241,139.845344,131083_001_public_facility.csv,福祉施設
古石場福祉会館,東京都江東区古石場1-11-11,https://www.city.koto.lg.jp/211101/fukushi/koresha/ikigai/kero/6667.html,35.669262,139.794668,131083_001_public_facility.csv,コミュニティセンター
塩浜福祉会館,東京都江東区塩浜2-5-20,https://www.city.koto.lg.jp/211101/fukushi/koresha/ikigai/kero/6667.html,35.661932,139.805383,131083_001_public_facility.csv,コミュニティセンター
千田福祉会館,東京都江東区千田21-18,https://www.city.koto.lg.jp/211101/fukushi/koresha/ikigai/kero/6667.html,35.681019,139.816518,131083_001_public_facility.csv,コミュニティセンター
東陽福祉会館,東京都江東区東陽6-2-17,https://www.city.koto.lg.jp/211101/fukushi/koresha/ikigai/kero/6667.html,35.674728,139.812491,131083_001_public_facility.csv,コミュニティセンター
亀戸福祉会館,東京都江東区亀戸1-24-6,https://www.city.koto.lg.jp/211101/fukushi/koresha/ikigai/kero/6667.html,35.694645,139.824062,131083_001_public_facility.csv,コミュニティセンター
大島福祉会館,東京都江東区大島4-5-1,https://www.city.koto.lg.jp/211101/fukushi/koresha/ikigai/kero/6667.html,35.689093,139.826864,131083_001_public_facility.csv,コミュニティセンター
東砂福祉会館,東京都江東区東砂7-15-3,https://www.city.koto.lg.jp/211101/fukushi/koresha/ikigai/kero/6667.html,35.674251,139.839988,131083_001_public_facility.csv,コミュニティセンター
深川老人福祉センター,東京都江東区平野1-2-3,https://www.city.koto.lg.jp/211101/fukushi/koresha/ikigai/kero/6678.html,35.678466,139.798593,131083_001_public_facility.csv,コミュニティセンター
深川老人福祉センター森下分館,東京都江東区森下5-11-1,https://www.city.koto.lg.jp/211101/fukushi/koresha/ikigai/kero/6678.html,35.68483,139.808898,131083_001_public_facility.csv,コミュニティセンター
城東老人福祉センター,東京都江東区北砂4-20-12,https://www.city.koto.lg.jp/211101/fukushi/koresha/ikigai/kero/6678.html,35.677503,139.831953,131083_001_public_facility.csv,コミュニティセンター
亀戸老人福祉センター,東京都江東区亀戸9-33-2-101,https://www.city.koto.lg.jp/211101/fukushi/koresha/ikigai/kero/6678.html,35.699173,139.841995,131083_001_public_facility.csv,コミュニティセンター
児童・高齢者総合施設,東京都江東区東雲1-9-46,https://www.city.koto.lg.jp/211101/fukushi/koresha/ikigai/kero/58716.html,35.649148,139.803428,131083_001_public_facility.csv,高齢者施設
多機能ホーム新砂,東京都江東区新砂3-3-11,https://www.city.koto.lg.jp/212105/fukushi/kaigohoken/service/kakushisetsu/56957.html,35.666682,139.832897,131083_001_public_facility.csv,その他
グループホーム新砂,東京都江東区新砂3-3-11,https://www.city.koto.lg.jp/fukushi/koresha/jigyosha/koresha/index.html,35.666682,139.832897,131083_001_public_facility.csv,その他
シルバーステイ,東京都江東区新砂3-3-11,https://www.city.koto.lg.jp/211103/fukushi/koresha/service/jisshi/67944.html,35.666682,139.832897,131083_001_public_facility.csv,その他
高齢者総合福祉センター,東京都江東区東陽6-2-17,,35.674933,139.812389,131083_001_public_facility.csv,コミュニティセンター
枝川高齢者在宅サービスセンター,東京都江東区枝川1-8-15,https://www.city.koto.lg.jp/shisetsuannai/kenkou/koreshashisetsu/zaitakuservice/index.html,35.657715,139.802461,131083_001_public_facility.csv,コミュニティセンター
江東区環境学習情報館,東京都江東区潮見1-29-7,https://www.city.koto.lg.jp/spot/ecoruku.html,35.655819,139.811642,131083_001_public_facility.csv,学校・教育施設
江東区立清澄二丁目公園,東京都江東区清澄2-11-5,https://www.city.koto.lg.jp/shisetsuannai/kokyo/koen/kuritsukoen/index.html,35.682615,139.796194,131083_001_public_facility.csv,公園
江東区立八名川公園,東京都江東区新大橋3-1-18,https://www.city.koto.lg.jp/shisetsuannai/kokyo/koen/kuritsukoen/index.html,35.686387,139.795732,131083_001_public_facility.csv,公園
江東区立森下公園,東京都江東区森下2-5-16,https://www.city.koto.lg.jp/shisetsuannai/kokyo/koen/kuritsukoen/index.html,35.686451,139.799405,131083_001_public_facility.csv,公園
江東区立五間堀公園,東京都江東区森下2-30-7,https://www.city.koto.lg.jp/shisetsuannai/kokyo/koen/kuritsukoen/index.html,35.689429,139.798448,131083_001_public_facility.csv,公園
江東区立高森公園,東京都江東区森下3-13-9,https://www.city.koto.lg.jp/shisetsuannai/kokyo/koen/kuritsukoen/index.html,35.684789,139.802534,131083_001_public_facility.csv,公園
江東区立福富川公園,東京都江東区平野2-15先；平野3-3先；平野3-9先,https://www.city.koto.lg.jp/shisetsuannai/kokyo/koen/kuritsukoen/index.html,35.677882,139.804491,131083_001_public_facility.csv,公園
江東区立平野四丁目公園,東京都江東区平野4-5-1先,https://www.city.koto.lg.jp/shisetsuannai/kokyo/koen/kuritsukoen/index.html,35.677702,139.809977,131083_001_public_facility.csv,公園
江東区立白河一丁目公園,東京都江東区白河1-5-4,https://www.city.koto.lg.jp/shisetsuannai/kokyo/koen/kuritsukoen/index.html,35.683196,139.800774,131083_001_public_facility.csv,公園
江東区立白河三丁目水辺公園,東京都江東区白河3-18-17,https://www.city.koto.lg.jp/shisetsuannai/kokyo/koen/kuritsukoen/index.html,35.683732,139.803953,131083_001_public_facility.csv,公園
江東区立元加賀公園,東京都江東区白河4-3-27,https://www.city.koto.lg.jp/shisetsuannai/kokyo/koen/kuritsukoen/index.html,35.681868,139.80861,131083_001_public_facility.csv,公園
江東区立佐賀町公園,東京都江東区佐賀1-15-5,https://www.city.koto.lg.jp/shisetsuannai/kokyo/koen/kuritsukoen/index.html,35.676845,139.791442,131083_001_public_facility.csv,公園
江東区立中の堀公園,東京都江東区佐賀2-8-26,https://www.city.koto.lg.jp/shisetsuannai/kokyo/koen/kuritsukoen/index.html,35.679534,139.792166,131083_001_public_facility.csv,公園
江東区立永代公園,東京都江東区永代1-1-2；永代1-7-8,https://www.city.koto.lg.jp/shisetsuannai/kokyo/koen/kuritsukoen/index.html,35.67394,139.7888,131083_001_public_facility.csv,公園
江東区立亀堀公園,東京都江東区深川1-6-38,https://www.city.koto.lg.jp/shisetsuannai/kokyo/koen/kuritsukoen/index.html,35.677245,139.794883,131083_001_public_facility.csv,公園
江東区立武田堀公園,東京都江東区冬木1-12；冬木6-23,https://www.city.koto.lg.jp/shisetsuannai/kokyo/koen/kuritsukoen/index.html,35.673291,139.801106,131083_001_public_facility.csv,公園
江東区立臨海公園,東京都江東区門前仲町1-1-1,https://www.city.koto.lg.jp/shisetsuannai/kokyo/koen/kuritsukoen/index.html,35.671883,139.792593,131083_001_public_facility.csv,公園
江東区立油堀川公園,東京都江東区門前仲町1-20-1先,https://www.city.koto.lg.jp/shisetsuannai/kokyo/koen/kuritsukoen/index.html,35.674034,139.795477,131083_001_public_facility.csv,公園
江東区立深川公園,東京都江東区富岡1-14-10；富岡1-16-10；富岡1-17-9,https://www.city.koto.lg.jp/shisetsuannai/kokyo/koen/kuritsukoen/index.html,35.67286,139.797461,131083_001_public_facility.csv,公園
江東区立牡丹町公園,東京都江東区牡丹2-1-2,https://www.city.koto.lg.jp/shisetsuannai/kokyo/koen/kuritsukoen/index.html,35.669686,139.79525,131083_001_public_facility.csv,公園
江東区立古石場川親水公園,東京都江東区牡丹2-10先；古石場3-12先,https://www.city.koto.lg.jp/shisetsuannai/kokyo/koen/kuritsukoen/index.html,35.670568,139.79491,131083_001_public_facility.csv,公園
江東区立古石場三丁目公園,東京都江東区古石場3-1-4,https://www.city.koto.lg.jp/shisetsuannai/kokyo/koen/kuritsukoen/index.html,35.665043,139.801481,131083_001_public_facility.csv,公園
江東区立越中島公園,東京都江東区越中島1-3-23,https://www.city.koto.lg.jp/shisetsuannai/kokyo/koen/kuritsukoen/index.html,35.67044,139.78897,131083_001_public_facility.csv,公園
江東区立中の島公園,東京都江東区越中島1-3-26先,https://www.city.koto.lg.jp/shisetsuannai/kokyo/koen/kuritsukoen/index.html,35.667755,139.788797,131083_001_public_facility.csv,公園
江東区立調練橋公園,東京都江東区越中島2-16-13；越中島3-7-17,https://www.city.koto.lg.jp/shisetsuannai/kokyo/koen/kuritsukoen/index.html,35.667559,139.79627,131083_001_public_facility.csv,公園
江東区立浜園公園,東京都江東区塩浜1-4-4,https://www.city.koto.lg.jp/shisetsuannai/kokyo/koen/kuritsukoen/index.html,35.661873,139.802147,131083_001_public_facility.csv,公園
江東区立塩浜一丁目公園,東京都江東区塩浜1-5-5,https://www.city.koto.lg.jp/shisetsuannai/kokyo/koen/kuritsukoen/index.html,35.659623,139.8015,131083_001_public_facility.csv,公園
江東区立塩浜公園,東京都江東区塩浜2-10-14,https://www.city.koto.lg.jp/shisetsuannai/kokyo/koen/kuritsukoen/index.html,35.664077,139.809035,131083_001_public_facility.csv,公園
江東区立塩浜二丁目第二公園,東京都江東区塩浜2-17-8,https://www.city.koto.lg.jp/shisetsuannai/kokyo/koen/kuritsukoen/index.html,35.662334,139.810187,131083_001_public_facility.csv,公園
江東区立しおかぜ橋塩浜公園,東京都江東区塩浜2-18-4,https://www.city.koto.lg.jp/shisetsuannai/kokyo/koen/kuritsukoen/index.html,35.66209,139.81105,131083_001_public_facility.csv,公園
江東区立塩浜二丁目公園,東京都江東区塩浜2-25-16,https://www.city.koto.lg.jp/shisetsuannai/kokyo/koen/kuritsukoen/index.html,35.664635,139.814965,131083_001_public_facility.csv,公園
江東区立枝川一丁目公園,東京都江東区枝川1-6-19,https://www.city.koto.lg.jp/shisetsuannai/kokyo/koen/kuritsukoen/index.html,35.657347,139.803445,131083_001_public_facility.csv,公園
江東区立朝凪公園,東京都江東区枝川1-8-5,https://www.city.koto.lg.jp/shisetsuannai/kokyo/koen/kuritsukoen/index.html,35.65794,139.80225,131083_001_public_facility.csv,公園
江東区立枝川三丁目公園,東京都江東区枝川3-3-5,https://www.city.koto.lg.jp/shisetsuannai/kokyo/koen/kuritsukoen/index.html,35.659038,139.808361,131083_001_public_facility.csv,公園
江東区立暁橋公園,東京都江東区枝川3-8-30；枝川3-11-9,https://www.city.koto.lg.jp/shisetsuannai/kokyo/koen/kuritsukoen/index.html,35.660031,139.813285,131083_001_public_facility.csv,公園
江東区立豊洲一丁目第二公園,東京都江東区豊洲1-2-1,https://www.city.koto.lg.jp/shisetsuannai/kokyo/koen/kuritsukoen/index.html,35.659722,139.792242,131083_001_public_facility.csv,公園
江東区立豊洲一丁目公園,東京都江東区豊洲1-3-15,https://www.city.koto.lg.jp/shisetsuannai/kokyo/koen/kuritsukoen/index.html,35.661627,139.793543,131083_001_public_facility.csv,公園
江東区立豊洲公園,東京都江東区豊洲2-3-6,https://www.city.koto.lg.jp/shisetsuannai/kokyo/koen/kuritsukoen/index.html,35.653427,139.793231,131083_001_public_facility.csv,公園
江東区立豊洲三丁目公園,東京都江東区豊洲3-5-11,https://www.city.koto.lg.jp/shisetsuannai/kokyo/koen/kuritsukoen/index.html,35.657714,139.796816,131083_001_public_facility.csv,公園
江東区立豊洲四丁目第二公園,東京都江東区豊洲4-3-3,https://www.city.koto.lg.jp/shisetsuannai/kokyo/koen/kuritsukoen/index.html,35.654534,139.79777,131083_001_public_facility.csv,公園
江東区立豊洲四丁目公園,東京都江東区豊洲4-5-24先；豊洲4-5-30先,https://www.city.koto.lg.jp/shisetsuannai/kokyo/koen/kuritsukoen/index.html,35.654931,139.798387,131083_001_public_facility.csv,公園
江東区立豊洲五丁目公園,東京都江東区豊洲5-3-1,https://www.city.koto.lg.jp/shisetsuannai/kokyo/koen/kuritsukoen/index.html,35.65286,139.795396,131083_001_public_facility.csv,公園
江東区立豊洲ぐるり公園,東京都江東区豊洲6-1先；豊洲5-1先,https://www.city.koto.lg.jp/shisetsuannai/kokyo/koen/kuritsukoen/index.html,35.640426,139.778968,131083_001_public_facility.csv,公園
江東区立豊洲六丁目第二公園,東京都江東区豊洲6-2-1,https://www.city.koto.lg.jp/shisetsuannai/kokyo/koen/kuritsukoen/index.html,35.650463,139.792703,131083_001_public_facility.csv,公園
江東区立豊洲六丁目公園,東京都江東区豊洲6-2-35,https://www.city.koto.lg.jp/shisetsuannai/kokyo/koen/kuritsukoen/index.html,35.646396,139.791688,131083_001_public_facility.csv,公園
江東区立東雲緑道公園,東京都江東区東雲1-7-4,https://www.city.koto.lg.jp/shisetsuannai/kokyo/koen/kuritsukoen/index.html,35.647035,139.800294,131083_001_public_facility.csv,公園
江東区立東雲水辺公園,東京都江東区東雲1-9-58先；辰巳1-1先,https://www.city.koto.lg.jp/shisetsuannai/kokyo/koen/kuritsukoen/index.html,35.64577,139.8065,131083_001_public_facility.csv,公園
江東区立東雲公園,東京都江東区東雲2-4-17,https://www.city.koto.lg.jp/shisetsuannai/kokyo/koen/kuritsukoen/index.html,35.643087,139.79844,131083_001_public_facility.csv,公園
江東区立東雲二丁目公園,東京都江東区東雲2-7-6,https://www.city.koto.lg.jp/shisetsuannai/kokyo/koen/kuritsukoen/index.html,35.64335,139.80394,131083_001_public_facility.csv,公園
江東区立東雲駅前公園,東京都江東区東雲2-8-4,https://www.city.koto.lg.jp/shisetsuannai/kokyo/koen/kuritsukoen/index.html,35.640946,139.805499,131083_001_public_facility.csv,公園
江東区立辰巳公園,東京都江東区辰巳1-10,https://www.city.koto.lg.jp/shisetsuannai/kokyo/koen/kuritsukoen/index.html,35.647059,139.809981,131083_001_public_facility.csv,公園
江東区立潮見運動公園,東京都江東区潮見1-1-1,https://www.city.koto.lg.jp/shisetsuannai/kokyo/koen/kuritsukoen/index.html,35.655271,139.809575,131083_001_public_facility.csv,公園
江東区立潮見さざなみ公園,東京都江東区潮見1-29-24,https://www.city.koto.lg.jp/shisetsuannai/kokyo/koen/kuritsukoen/index.html,35.655297,139.814737,131083_001_public_facility.csv,公園
江東区立千石運動公園,東京都江東区千石1-5-28,https://www.city.koto.lg.jp/shisetsuannai/kokyo/koen/kuritsukoen/index.html,35.677417,139.812935,131083_001_public_facility.csv,公園
江東区立千石公園,東京都江東区千石2-7-4,https://www.city.koto.lg.jp/shisetsuannai/kokyo/koen/kuritsukoen/index.html,35.679399,139.815496,131083_001_public_facility.csv,公園
江東区立川南公園,東京都江東区千石2-9-22,https://www.city.koto.lg.jp/shisetsuannai/kokyo/koen/kuritsukoen/index.html,35.67907,139.817135,131083_001_public_facility.csv,公園
江東区立千石二丁目公園,東京都江東区千石2-11-1,https://www.city.koto.lg.jp/shisetsuannai/kokyo/koen/kuritsukoen/index.html,35.678052,139.816309,131083_001_public_facility.csv,公園
江東区立扇橋公園,東京都江東区石島18-23,https://www.city.koto.lg.jp/shisetsuannai/kokyo/koen/kuritsukoen/index.html,35.680793,139.811962,131083_001_public_facility.csv,公園
江東区立川南海辺公園,東京都江東区海辺1-3,https://www.city.koto.lg.jp/shisetsuannai/kokyo/koen/kuritsukoen/index.html,35.68009,139.817645,131083_001_public_facility.csv,公園
江東区立扇橋一丁目公園,東京都江東区扇橋1-21-28,https://www.city.koto.lg.jp/shisetsuannai/kokyo/koen/kuritsukoen/index.html,35.683998,139.811436,131083_001_public_facility.csv,公園
江東区立江東公園,東京都江東区扇橋2-22-2；千田16-5；千田17-5,https://www.city.koto.lg.jp/shisetsuannai/kokyo/koen/kuritsukoen/index.html,35.682742,139.816374,131083_001_public_facility.csv,公園
江東区立三島橋公園,東京都江東区扇橋3-7-16,https://www.city.koto.lg.jp/shisetsuannai/kokyo/koen/kuritsukoen/index.html,35.683155,139.820525,131083_001_public_facility.csv,公園
江東区立扇橋三丁目公園,東京都江東区扇橋3-20-11,https://www.city.koto.lg.jp/shisetsuannai/kokyo/koen/kuritsukoen/index.html,35.68399,139.818684,131083_001_public_facility.csv,公園
江東区立横十間川親水公園,東京都江東区扇橋3-22-9先；東陽6-1先,https://www.city.koto.lg.jp/shisetsuannai/kokyo/koen/kuritsukoen/index.html,35.68403,139.82066,131083_001_public_facility.csv,公園
江東区立扇橋河川公園,東京都江東区猿江1-5-18,https://www.city.koto.lg.jp/shisetsuannai/kokyo/koen/kuritsukoen/index.html,35.684691,139.812727,131083_001_public_facility.csv,公園
江東区立猿江一丁目公園,東京都江東区猿江1-11-5,https://www.city.koto.lg.jp/shisetsuannai/kokyo/koen/kuritsukoen/index.html,35.686373,139.81282,131083_001_public_facility.csv,公園
江東区立猿江二丁目公園,東京都江東区猿江2-3-10,https://www.city.koto.lg.jp/shisetsuannai/kokyo/koen/kuritsukoen/index.html,35.685842,139.8151,131083_001_public_facility.csv,公園
江東区立住吉一丁目公園,東京都江東区住吉1-8-13,https://www.city.koto.lg.jp/shisetsuannai/kokyo/koen/kuritsukoen/index.html,35.687436,139.811488,131083_001_public_facility.csv,公園
江東区立住利公園,東京都江東区住吉1-19-20,https://www.city.koto.lg.jp/shisetsuannai/kokyo/koen/kuritsukoen/index.html,35.690076,139.812638,131083_001_public_facility.csv,公園
江東区立竪川親水公園,東京都江東区毛利2-10先；毛利2-11先,https://www.city.koto.lg.jp/shisetsuannai/kokyo/koen/kuritsukoen/index.html,35.693226,139.817817,131083_001_public_facility.csv,公園
江東区立木場二丁目公園,東京都江東区木場2-11-11,https://www.city.koto.lg.jp/shisetsuannai/kokyo/koen/kuritsukoen/index.html,35.670428,139.804224,131083_001_public_facility.csv,公園
江東区立木場親水公園,東京都江東区木場2-20先；木場3-14先；木場3-17先,https://www.city.koto.lg.jp/shisetsuannai/kokyo/koen/kuritsukoen/index.html,35.672323,139.805042,131083_001_public_facility.csv,公園
江東区立木場三丁目公園,東京都江東区木場3-6-9,https://www.city.koto.lg.jp/shisetsuannai/kokyo/koen/kuritsukoen/index.html,35.67421,139.80422,131083_001_public_facility.csv,公園
江東区立平久公園,東京都江東区木場6-4-18,https://www.city.koto.lg.jp/shisetsuannai/kokyo/koen/kuritsukoen/index.html,35.6669,139.807557,131083_001_public_facility.csv,公園
江東区立東陽一丁目第一公園,東京都江東区東陽1-5-5,https://www.city.koto.lg.jp/shisetsuannai/kokyo/koen/kuritsukoen/index.html,35.66712,139.808561,131083_001_public_facility.csv,公園
江東区立洲崎川緑道公園,東京都江東区東陽1-10-9先；東陽2-5-6,https://www.city.koto.lg.jp/shisetsuannai/kokyo/koen/kuritsukoen/index.html,35.668744,139.81124,131083_001_public_facility.csv,公園
江東区立東陽一丁目第二公園,東京都江東区東陽1-39-8,https://www.city.koto.lg.jp/shisetsuannai/kokyo/koen/kuritsukoen/index.html,35.665974,139.812605,131083_001_public_facility.csv,公園
江東区立東陽公園,東京都江東区東陽3-27-27,https://www.city.koto.lg.jp/shisetsuannai/kokyo/koen/kuritsukoen/index.html,35.669888,139.815876,131083_001_public_facility.csv,公園
江東区立東陽五丁目公園,東京都江東区東陽5-29-39,https://www.city.koto.lg.jp/shisetsuannai/kokyo/koen/kuritsukoen/index.html,35.672684,139.813407,131083_001_public_facility.csv,公園
江東区立豊住公園,東京都江東区東陽6-1-13,https://www.city.koto.lg.jp/shisetsuannai/kokyo/koen/kuritsukoen/index.html,35.674504,139.811538,131083_001_public_facility.csv,公園
江東区立竪川河川敷公園,東京都江東区亀戸1-1先；亀戸9-12先,https://www.city.koto.lg.jp/shisetsuannai/kokyo/koen/kuritsukoen/index.html,35.69393,139.82987,131083_001_public_facility.csv,公園
江東区立亀戸西公園,東京都江東区亀戸1-9-5,https://www.city.koto.lg.jp/shisetsuannai/kokyo/koen/kuritsukoen/index.html,35.695731,139.822603,131083_001_public_facility.csv,公園
江東区立竪川第一公園,東京都江東区亀戸1-15-10,https://www.city.koto.lg.jp/shisetsuannai/kokyo/koen/kuritsukoen/index.html,35.693952,139.822469,131083_001_public_facility.csv,公園
江東区立亀戸公園,東京都江東区亀戸1-22-11,https://www.city.koto.lg.jp/shisetsuannai/kokyo/koen/kuritsukoen/index.html,35.695528,139.824045,131083_001_public_facility.csv,公園
江東区立亀戸水上公園,東京都江東区亀戸2-1-3先,https://www.city.koto.lg.jp/shisetsuannai/kokyo/koen/kuritsukoen/index.html,35.69761,139.81951,131083_001_public_facility.csv,公園
江東区立文泉公園,東京都江東区亀戸2-4-13,https://www.city.koto.lg.jp/shisetsuannai/kokyo/koen/kuritsukoen/index.html,35.698258,139.822065,131083_001_public_facility.csv,公園
江東区立亀戸駅前公園,東京都江東区亀戸2-21-9,https://www.city.koto.lg.jp/shisetsuannai/kokyo/koen/kuritsukoen/index.html,35.697928,139.824871,131083_001_public_facility.csv,公園
江東区立亀戸二丁目公園,東京都江東区亀戸2-33-2,https://www.city.koto.lg.jp/shisetsuannai/kokyo/koen/kuritsukoen/index.html,35.700039,139.82347,131083_001_public_facility.csv,公園
江東区立亀島小学校記念公園,東京都江東区亀戸3-36-20,https://www.city.koto.lg.jp/shisetsuannai/kokyo/koen/kuritsukoen/index.html,35.706857,139.819351,131083_001_public_facility.csv,学校・教育施設
江東区立亀島公園,東京都江東区亀戸3-39-16,https://www.city.koto.lg.jp/shisetsuannai/kokyo/koen/kuritsukoen/index.html,35.70555,139.822635,131083_001_public_facility.csv,公園
江東区立亀戸三丁目公園,東京都江東区亀戸3-59-8,https://www.city.koto.lg.jp/shisetsuannai/kokyo/koen/kuritsukoen/index.html,35.703142,139.824041,131083_001_public_facility.csv,公園
江東区立亀戸四丁目ふれあい公園,東京都江東区亀戸4-21-16,https://www.city.koto.lg.jp/shisetsuannai/kokyo/koen/kuritsukoen/index.html,35.702403,139.826217,131083_001_public_facility.csv,公園
江東区立香取公園,東京都江東区亀戸4-27-6,https://www.city.koto.lg.jp/shisetsuannai/kokyo/koen/kuritsukoen/index.html,35.703415,139.827262,131083_001_public_facility.csv,公園
江東区立亀戸四丁目公園,東京都江東区亀戸4-43-8；亀戸4-47-2,https://www.city.koto.lg.jp/shisetsuannai/kokyo/koen/kuritsukoen/index.html,35.702566,139.829762,131083_001_public_facility.csv,公園
江東区立水神公園,東京都江東区亀戸4-45-6,https://www.city.koto.lg.jp/shisetsuannai/kokyo/koen/kuritsukoen/index.html,35.702145,139.829411,131083_001_public_facility.csv,公園
江東区立亀戸五丁目公園,東京都江東区亀戸5-24-4,https://www.city.koto.lg.jp/shisetsuannai/kokyo/koen/kuritsukoen/index.html,35.70017,139.828789,131083_001_public_facility.csv,公園
江東区立亀戸五丁目第二公園,東京都江東区亀戸5-33-4,https://www.city.koto.lg.jp/shisetsuannai/kokyo/koen/kuritsukoen/index.html,35.698325,139.830166,131083_001_public_facility.csv,公園
江東区立亀戸緑道公園,東京都江東区亀戸6-7-9先；亀戸6-30-1先,https://www.city.koto.lg.jp/shisetsuannai/kokyo/koen/kuritsukoen/index.html,35.69417,139.82843,131083_001_public_facility.csv,公園
江東区立亀戸南公園,東京都江東区亀戸6-18-1,https://www.city.koto.lg.jp/shisetsuannai/kokyo/koen/kuritsukoen/index.html,35.695173,139.827849,131083_001_public_facility.csv,公園
江東区立竪川第二公園,東京都江東区亀戸6-33-10,https://www.city.koto.lg.jp/shisetsuannai/kokyo/koen/kuritsukoen/index.html,35.694444,139.829999,131083_001_public_facility.csv,公園
江東区立亀戸平岩公園,東京都江東区亀戸6-47-12,https://www.city.koto.lg.jp/shisetsuannai/kokyo/koen/kuritsukoen/index.html,35.694332,139.83196,131083_001_public_facility.csv,公園
江東区立亀戸東公園,東京都江東区亀戸7-8-13,https://www.city.koto.lg.jp/shisetsuannai/kokyo/koen/kuritsukoen/index.html,35.696586,139.833909,131083_001_public_facility.csv,公園
江東区立亀戸七丁目北公園,東京都江東区亀戸7-15-5,https://www.city.koto.lg.jp/shisetsuannai/kokyo/koen/kuritsukoen/index.html,35.697929,139.835435,131083_001_public_facility.csv,公園
江東区立亀戸平岩第二公園,東京都江東区亀戸7-30-8,https://www.city.koto.lg.jp/shisetsuannai/kokyo/koen/kuritsukoen/index.html,35.697535,139.837312,131083_001_public_facility.csv,公園
江東区立亀戸七丁目南公園,東京都江東区亀戸7-40-2,https://www.city.koto.lg.jp/shisetsuannai/kokyo/koen/kuritsukoen/index.html,35.696143,139.837866,131083_001_public_facility.csv,公園
江東区立亀戸七丁目西公園,東京都江東区亀戸7-42-5,https://www.city.koto.lg.jp/shisetsuannai/kokyo/koen/kuritsukoen/index.html,35.696907,139.835254,131083_001_public_facility.csv,公園
江東区立亀戸緑地公園,東京都江東区亀戸9-8-1,https://www.city.koto.lg.jp/shisetsuannai/kokyo/koen/kuritsukoen/index.html,35.696204,139.843938,131083_001_public_facility.csv,公園
江東区立亀戸浅間公園,東京都江東区亀戸9-15-1,https://www.city.koto.lg.jp/shisetsuannai/kokyo/koen/kuritsukoen/index.html,35.695991,139.844132,131083_001_public_facility.csv,公園
江東区立亀戸九丁目公園,東京都江東区亀戸9-19-17；亀戸9-20-4,https://www.city.koto.lg.jp/shisetsuannai/kokyo/koen/kuritsukoen/index.html,35.698167,139.842798,131083_001_public_facility.csv,公園
江東区立亀戸九丁目緑道公園,東京都江東区亀戸9-33-30,https://www.city.koto.lg.jp/shisetsuannai/kokyo/koen/kuritsukoen/index.html,35.699457,139.843271,131083_001_public_facility.csv,公園
江東区立亀戸運動公園,東京都江東区亀戸9-37-23,https://www.city.koto.lg.jp/shisetsuannai/kokyo/koen/kuritsukoen/index.html,35.699139,139.837883,131083_001_public_facility.csv,公園
江東区立釜屋堀公園,東京都江東区大島1-2-26,https://www.city.koto.lg.jp/shisetsuannai/kokyo/koen/kuritsukoen/index.html,35.686572,139.820826,131083_001_public_facility.csv,公園
江東区立大島一丁目公園,東京都江東区大島1-34-8,https://www.city.koto.lg.jp/shisetsuannai/kokyo/koen/kuritsukoen/index.html,35.688153,139.825713,131083_001_public_facility.csv,公園
江東区立大島二丁目公園,東京都江東区大島2-11-7,https://www.city.koto.lg.jp/shisetsuannai/kokyo/koen/kuritsukoen/index.html,35.691498,139.823221,131083_001_public_facility.csv,公園
江東区立大島防災公園,東京都江東区大島2-27-19,https://www.city.koto.lg.jp/shisetsuannai/kokyo/koen/kuritsukoen/index.html,35.692047,139.824319,131083_001_public_facility.csv,公園
江東区立大島緑道公園,東京都江東区大島3-7-7先；大島4-1-1先,https://www.city.koto.lg.jp/shisetsuannai/kokyo/koen/kuritsukoen/index.html,35.690751,139.82867,131083_001_public_facility.csv,公園
江東区立大島三丁目公園,東京都江東区大島3-22-25,https://www.city.koto.lg.jp/shisetsuannai/kokyo/koen/kuritsukoen/index.html,35.691739,139.83027,131083_001_public_facility.csv,公園
江東区立大島四丁目公園,東京都江東区大島4-17-9,https://www.city.koto.lg.jp/shisetsuannai/kokyo/koen/kuritsukoen/index.html,35.687857,139.831954,131083_001_public_facility.csv,公園
江東区立大島四丁目第二公園,東京都江東区大島4-21-11,https://www.city.koto.lg.jp/shisetsuannai/kokyo/koen/kuritsukoen/index.html,35.6865,139.83243,131083_001_public_facility.csv,公園
江東区立大島五丁目公園,東京都江東区大島5-27-16,https://www.city.koto.lg.jp/shisetsuannai/kokyo/koen/kuritsukoen/index.html,35.686594,139.836059,131083_001_public_facility.csv,公園
江東区立大島七丁目公園,東京都江東区大島7-27-17,https://www.city.koto.lg.jp/shisetsuannai/kokyo/koen/kuritsukoen/index.html,35.692539,139.840603,131083_001_public_facility.csv,公園
江東区立旧三大小記念公園,東京都江東区大島7-38-9,https://www.city.koto.lg.jp/shisetsuannai/kokyo/koen/kuritsukoen/index.html,35.691456,139.841499,131083_001_public_facility.csv,公園
江東区立大島八丁目公園,東京都江東区大島8-11-7,https://www.city.koto.lg.jp/shisetsuannai/kokyo/koen/kuritsukoen/index.html,35.687697,139.839116,131083_001_public_facility.csv,公園
江東区立大島八丁目第二公園,東京都江東区大島8-21-25,https://www.city.koto.lg.jp/shisetsuannai/kokyo/koen/kuritsukoen/index.html,35.68914,139.84028,131083_001_public_facility.csv,公園
江東区立大島東公園,東京都江東区大島8-42-3,https://www.city.koto.lg.jp/shisetsuannai/kokyo/koen/kuritsukoen/index.html,35.690025,139.843851,131083_001_public_facility.csv,公園
江東区立旧中川水辺公園,東京都江東区亀戸8-25先；大島9-10先,https://www.city.koto.lg.jp/shisetsuannai/kokyo/koen/kuritsukoen/index.html,35.700282,139.841437,131083_001_public_facility.csv,公園
江東区立北砂一丁目公園,東京都江東区北砂1-1-6,https://www.city.koto.lg.jp/shisetsuannai/kokyo/koen/kuritsukoen/index.html,35.681831,139.821495,131083_001_public_facility.csv,公園
江東区立北砂水上公園,東京都江東区北砂1-2-1先,https://www.city.koto.lg.jp/shisetsuannai/kokyo/koen/kuritsukoen/index.html,35.68475,139.821026,131083_001_public_facility.csv,公園
江東区立北砂第二公園,東京都江東区北砂1-3-25,https://www.city.koto.lg.jp/shisetsuannai/kokyo/koen/kuritsukoen/index.html,35.684492,139.823644,131083_001_public_facility.csv,公園
江東区立北砂一丁目南公園,東京都江東区北砂1-15-1,https://www.city.koto.lg.jp/shisetsuannai/kokyo/koen/kuritsukoen/index.html,35.67808,139.825425,131083_001_public_facility.csv,公園
江東区立北砂二丁目公園,東京都江東区北砂2-9-14,https://www.city.koto.lg.jp/shisetsuannai/kokyo/koen/kuritsukoen/index.html,35.679118,139.826265,131083_001_public_facility.csv,公園
江東区立北砂緑道公園,東京都江東区北砂2-15先；北砂1-2先,https://www.city.koto.lg.jp/shisetsuannai/kokyo/koen/kuritsukoen/index.html,35.685057,139.823983,131083_001_public_facility.csv,公園
江東区立南砂線路公園,東京都江東区北砂2-20先；南砂2-32先,https://www.city.koto.lg.jp/shisetsuannai/kokyo/koen/kuritsukoen/index.html,35.676317,139.825844,131083_001_public_facility.csv,公園
江東区立砂町中央公園,東京都江東区北砂4-20-24,https://www.city.koto.lg.jp/shisetsuannai/kokyo/koen/kuritsukoen/index.html,35.676678,139.831786,131083_001_public_facility.csv,公園
江東区立北砂公園,東京都江東区北砂5-1-2,https://www.city.koto.lg.jp/shisetsuannai/kokyo/koen/kuritsukoen/index.html,35.680019,139.831385,131083_001_public_facility.csv,公園
江東区立小名木川防災公園,東京都江東区北砂5-21-5,https://www.city.koto.lg.jp/shisetsuannai/kokyo/koen/kuritsukoen/index.html,35.683131,139.830839,131083_001_public_facility.csv,公園
江東区立仙台堀川公園,東京都江東区北砂6-19-21先；東陽6-6-6先,https://www.city.koto.lg.jp/shisetsuannai/kokyo/koen/kuritsukoen/index.html,35.685298,139.839155,131083_001_public_facility.csv,公園
江東区立亀高公園,東京都江東区北砂6-26-8,https://www.city.koto.lg.jp/shisetsuannai/kokyo/koen/kuritsukoen/index.html,35.681412,139.838486,131083_001_public_facility.csv,公園
江東区立北砂七丁目公園,東京都江東区北砂7-2-14,https://www.city.koto.lg.jp/shisetsuannai/kokyo/koen/kuritsukoen/index.html,35.678392,139.83525,131083_001_public_facility.csv,公園
江東区立東砂一丁目公園,東京都江東区東砂1-2-13,https://www.city.koto.lg.jp/shisetsuannai/kokyo/koen/kuritsukoen/index.html,35.68355,139.839443,131083_001_public_facility.csv,公園
江東区立東砂二丁目公園,東京都江東区東砂2-13-7,https://www.city.koto.lg.jp/shisetsuannai/kokyo/koen/kuritsukoen/index.html,35.685611,139.841647,131083_001_public_facility.csv,公園
江東区立東砂三丁目公園,東京都江東区東砂3-16-8,https://www.city.koto.lg.jp/shisetsuannai/kokyo/koen/kuritsukoen/index.html,35.682251,139.841238,131083_001_public_facility.csv,公園
江東区立東砂三丁目第二公園,東京都江東区東砂3-17-17,https://www.city.koto.lg.jp/shisetsuannai/kokyo/koen/kuritsukoen/index.html,35.681398,139.842688,131083_001_public_facility.csv,公園
江東区立荒川・砂町水辺公園,東京都江東区東砂3-30先；新砂3-8先,https://www.city.koto.lg.jp/shisetsuannai/kokyo/koen/kuritsukoen/index.html,35.678632,139.845266,131083_001_public_facility.csv,公園
江東区立城東公園,東京都江東区東砂4-20-20,https://www.city.koto.lg.jp/shisetsuannai/kokyo/koen/kuritsukoen/index.html,35.678751,139.838822,131083_001_public_facility.csv,公園
江東区立東砂六丁目公園,東京都江東区東砂6-19-8,https://www.city.koto.lg.jp/shisetsuannai/kokyo/koen/kuritsukoen/index.html,35.674467,139.841189,131083_001_public_facility.csv,公園
江東区立舟入川公園,東京都江東区東砂7-12-3,https://www.city.koto.lg.jp/shisetsuannai/kokyo/koen/kuritsukoen/index.html,35.672712,139.84062,131083_001_public_facility.csv,公園
江東区立砂町公園,東京都江東区東砂7-15-3,https://www.city.koto.lg.jp/shisetsuannai/kokyo/koen/kuritsukoen/index.html,35.674129,139.83968,131083_001_public_facility.csv,公園
江東区立東砂八丁目公園,東京都江東区東砂8-24-6,https://www.city.koto.lg.jp/shisetsuannai/kokyo/koen/kuritsukoen/index.html,35.667433,139.842369,131083_001_public_facility.csv,公園
江東区立南砂一丁目公園,東京都江東区南砂1-1-5,https://www.city.koto.lg.jp/shisetsuannai/kokyo/koen/kuritsukoen/index.html,35.67697,139.821141,131083_001_public_facility.csv,公園
江東区立南砂一丁目第二公園,東京都江東区南砂1-3-18,https://www.city.koto.lg.jp/shisetsuannai/kokyo/koen/kuritsukoen/index.html,35.678818,139.82177,131083_001_public_facility.csv,公園
江東区立南砂一丁目北公園,東京都江東区南砂1-8-4,https://www.city.koto.lg.jp/shisetsuannai/kokyo/koen/kuritsukoen/index.html,35.679661,139.822179,131083_001_public_facility.csv,公園
江東区立南砂二丁目南公園,東京都江東区南砂2-3-23,https://www.city.koto.lg.jp/shisetsuannai/kokyo/koen/kuritsukoen/index.html,35.670289,139.82313,131083_001_public_facility.csv,公園
江東区立南砂緑道公園,東京都江東区南砂2-3-1先；南砂2-35-6先,https://www.city.koto.lg.jp/shisetsuannai/kokyo/koen/kuritsukoen/index.html,35.674016,139.823196,131083_001_public_facility.csv,公園
江東区立南砂二丁目公園,東京都江東区南砂2-24-4,https://www.city.koto.lg.jp/shisetsuannai/kokyo/koen/kuritsukoen/index.html,35.674799,139.824981,131083_001_public_facility.csv,公園
江東区立日曹橋公園,東京都江東区南砂3-1-1,https://www.city.koto.lg.jp/shisetsuannai/kokyo/koen/kuritsukoen/index.html,35.67006,139.82797,131083_001_public_facility.csv,公園
江東区立南砂三丁目緑地公園,東京都江東区南砂3-8-2,https://www.city.koto.lg.jp/shisetsuannai/kokyo/koen/kuritsukoen/index.html,35.672189,139.830122,131083_001_public_facility.csv,公園
江東区立南砂三丁目公園,東京都江東区南砂3-14-21,https://www.city.koto.lg.jp/shisetsuannai/kokyo/koen/kuritsukoen/index.html,35.669767,139.833194,131083_001_public_facility.csv,公園
江東区立南砂四丁目西公園,東京都江東区南砂4-3-21,https://www.city.koto.lg.jp/shisetsuannai/kokyo/koen/kuritsukoen/index.html,35.674033,139.827463,131083_001_public_facility.csv,公園
江東区立南砂四丁目公園,東京都江東区南砂4-4-5,https://www.city.koto.lg.jp/shisetsuannai/kokyo/koen/kuritsukoen/index.html,35.674332,139.830013,131083_001_public_facility.csv,公園
江東区立砂町橋公園,東京都江東区南砂4-12-1；南砂6-4-10,https://www.city.koto.lg.jp/shisetsuannai/kokyo/koen/kuritsukoen/index.html,35.673646,139.83274,131083_001_public_facility.csv,公園
江東区立境川公園,東京都江東区南砂5-6-1,https://www.city.koto.lg.jp/shisetsuannai/kokyo/koen/kuritsukoen/index.html,35.676106,139.82837,131083_001_public_facility.csv,公園
江東区立金森公園,東京都江東区南砂5-19-13,https://www.city.koto.lg.jp/shisetsuannai/kokyo/koen/kuritsukoen/index.html,35.674861,139.832624,131083_001_public_facility.csv,公園
江東区立南砂六丁目公園,東京都江東区南砂6-5-7,https://www.city.koto.lg.jp/shisetsuannai/kokyo/koen/kuritsukoen/index.html,35.673354,139.834381,131083_001_public_facility.csv,公園
江東区立新砂あゆみ公園,東京都江東区新砂3-3-6,https://www.city.koto.lg.jp/shisetsuannai/kokyo/koen/kuritsukoen/index.html,35.668003,139.832578,131083_001_public_facility.csv,公園
江東区立新砂のぞみ公園,東京都江東区新砂3-3-47,https://www.city.koto.lg.jp/shisetsuannai/kokyo/koen/kuritsukoen/index.html,35.666754,139.830623,131083_001_public_facility.csv,公園
江東区立新砂めぐみ公園,東京都江東区新砂3-4-1,https://www.city.koto.lg.jp/shisetsuannai/kokyo/koen/kuritsukoen/index.html,35.666299,139.837664,131083_001_public_facility.csv,公園
江東区立新木場一丁目緑地公園,東京都江東区新木場1-10-3,https://www.city.koto.lg.jp/shisetsuannai/kokyo/koen/kuritsukoen/index.html,35.644367,139.835859,131083_001_public_facility.csv,公園
江東区立新木場一丁目第二公園,東京都江東区新木場1-11-6,https://www.city.koto.lg.jp/shisetsuannai/kokyo/koen/kuritsukoen/index.html,35.643367,139.835482,131083_001_public_facility.csv,公園
江東区立新木場一丁目公園,東京都江東区新木場1-12-8,https://www.city.koto.lg.jp/shisetsuannai/kokyo/koen/kuritsukoen/index.html,35.641584,139.835375,131083_001_public_facility.csv,公園
江東区立新木場三丁目公園,東京都江東区新木場3-7-21,https://www.city.koto.lg.jp/shisetsuannai/kokyo/koen/kuritsukoen/index.html,35.637442,139.83633,131083_001_public_facility.csv,公園
江東区立若洲公園,東京都江東区若洲3-2-1,https://www.city.koto.lg.jp/shisetsuannai/kokyo/koen/kuritsukoen/index.html,35.62044,139.833896,131083_001_public_facility.csv,公園
江東区立清澄児童遊園,東京都江東区清澄3-3-16,https://www.city.koto.lg.jp/shisetsuannai/kokyo/koen/jidokoen/index.html,35.680967,139.798711,131083_001_public_facility.csv,公園
江東区立万年橋児童遊園,東京都江東区常盤1-18-1,https://www.city.koto.lg.jp/shisetsuannai/kokyo/koen/jidokoen/index.html,35.683816,139.794754,131083_001_public_facility.csv,公園
江東区立常盤二丁目児童遊園,東京都江東区常盤2-12-1,https://www.city.koto.lg.jp/shisetsuannai/kokyo/koen/jidokoen/index.html,35.684986,139.797273,131083_001_public_facility.csv,公園
江東区立新大橋三丁目児童遊園,東京都江東区新大橋3-18-1,https://www.city.koto.lg.jp/shisetsuannai/kokyo/koen/jidokoen/index.html,35.68816,139.796604,131083_001_public_facility.csv,公園
江東区立森下三丁目第一児童遊園,東京都江東区森下3-5-16,https://www.city.koto.lg.jp/shisetsuannai/kokyo/koen/jidokoen/index.html,35.687987,139.800816,131083_001_public_facility.csv,公園
江東区立森下三丁目第二児童遊園,東京都江東区森下3-10-9,https://www.city.koto.lg.jp/shisetsuannai/kokyo/koen/jidokoen/index.html,35.68645,139.80176,131083_001_public_facility.csv,公園
江東区立森下三丁目第三児童遊園,東京都江東区森下3-13-1,https://www.city.koto.lg.jp/shisetsuannai/kokyo/koen/jidokoen/index.html,35.685421,139.80249,131083_001_public_facility.csv,公園
江東区立東深川橋児童遊園,東京都江東区森下4-1-1,https://www.city.koto.lg.jp/shisetsuannai/kokyo/koen/jidokoen/index.html,35.684369,139.803916,131083_001_public_facility.csv,公園
江東区立森下四丁目児童遊園,東京都江東区森下4-16-2,https://www.city.koto.lg.jp/shisetsuannai/kokyo/koen/jidokoen/index.html,35.686032,139.803749,131083_001_public_facility.csv,公園
江東区立森下五丁目児童遊園,東京都江東区森下5-6-1,https://www.city.koto.lg.jp/shisetsuannai/kokyo/koen/jidokoen/index.html,35.685387,139.807648,131083_001_public_facility.csv,公園
江東区立森下五丁目第二児童遊園,東京都江東区森下5-1-7先,https://www.city.koto.lg.jp/shisetsuannai/kokyo/koen/jidokoen/index.html,35.684633,139.808123,131083_001_public_facility.csv,公園
江東区立平野二丁目児童遊園,東京都江東区平野2-8-2,https://www.city.koto.lg.jp/shisetsuannai/kokyo/koen/jidokoen/index.html,35.678611,139.802811,131083_001_public_facility.csv,公園
江東区立三好三丁目児童遊園,東京都江東区三好3-1-10,https://www.city.koto.lg.jp/shisetsuannai/kokyo/koen/jidokoen/index.html,35.68003,139.804479,131083_001_public_facility.csv,公園
江東区立白河児童遊園,東京都江東区白河3-13-5,https://www.city.koto.lg.jp/shisetsuannai/kokyo/koen/jidokoen/index.html,35.683818,139.804928,131083_001_public_facility.csv,公園
江東区立中の堀川児童遊園,東京都江東区佐賀2-13-4,https://www.city.koto.lg.jp/shisetsuannai/kokyo/koen/jidokoen/index.html,35.678187,139.79298,131083_001_public_facility.csv,公園
江東区立大島川児童遊園,東京都江東区永代2-19-1,https://www.city.koto.lg.jp/shisetsuannai/kokyo/koen/jidokoen/index.html,35.672286,139.790261,131083_001_public_facility.csv,公園
江東区立深川一丁目児童遊園,東京都江東区深川1-3-10先,https://www.city.koto.lg.jp/shisetsuannai/kokyo/koen/jidokoen/index.html,35.675286,139.795902,131083_001_public_facility.csv,公園
江東区立牡丹二丁目児童遊園,東京都江東区牡丹2-2-11,https://www.city.koto.lg.jp/shisetsuannai/kokyo/koen/jidokoen/index.html,35.669239,139.797041,131083_001_public_facility.csv,公園
江東区立古石場二丁目児童遊園,東京都江東区古石場2-14-4,https://www.city.koto.lg.jp/shisetsuannai/kokyo/koen/jidokoen/index.html,35.666681,139.799859,131083_001_public_facility.csv,公園
江東区立石浜橋児童遊園,東京都江東区古石場3-1-8,https://www.city.koto.lg.jp/shisetsuannai/kokyo/koen/jidokoen/index.html,35.665044,139.802164,131083_001_public_facility.csv,公園
江東区立越中島一丁目児童遊園,東京都江東区越中島1-3-4,https://www.city.koto.lg.jp/shisetsuannai/kokyo/koen/jidokoen/index.html,35.6701,139.790843,131083_001_public_facility.csv,公園
江東区立越中島橋児童遊園,東京都江東区越中島1-2-1,https://www.city.koto.lg.jp/shisetsuannai/kokyo/koen/jidokoen/index.html,35.671095,139.792582,131083_001_public_facility.csv,公園
江東区立しおかぜ児童遊園,東京都江東区塩浜2-18-3,https://www.city.koto.lg.jp/shisetsuannai/kokyo/koen/jidokoen/index.html,35.661529,139.810609,131083_001_public_facility.csv,公園
江東区立塩浜二丁目児童遊園,東京都江東区塩浜2-26-4,https://www.city.koto.lg.jp/shisetsuannai/kokyo/koen/jidokoen/index.html,35.664774,139.816386,131083_001_public_facility.csv,公園
江東区立枝川橋第四児童遊園,東京都江東区枝川1-3-1,https://www.city.koto.lg.jp/shisetsuannai/kokyo/koen/jidokoen/index.html,35.657542,139.805,131083_001_public_facility.csv,公園
江東区立朝日児童遊園,東京都江東区枝川1-12-7,https://www.city.koto.lg.jp/shisetsuannai/kokyo/koen/jidokoen/index.html,35.655453,139.805526,131083_001_public_facility.csv,公園
江東区立枝川橋児童遊園,東京都江東区枝川1-14-21,https://www.city.koto.lg.jp/shisetsuannai/kokyo/koen/jidokoen/index.html,35.657275,139.805183,131083_001_public_facility.csv,公園
江東区立枝川橋第二児童遊園,東京都江東区枝川2-18-2,https://www.city.koto.lg.jp/shisetsuannai/kokyo/koen/jidokoen/index.html,35.657653,139.805732,131083_001_public_facility.csv,公園
江東区立枝川橋第三児童遊園,東京都江東区枝川2-4-17,https://www.city.koto.lg.jp/shisetsuannai/kokyo/koen/jidokoen/index.html,35.657886,139.805504,131083_001_public_facility.csv,公園
江東区立豊洲四丁目児童遊園,東京都江東区豊洲4-10-1,https://www.city.koto.lg.jp/shisetsuannai/kokyo/koen/jidokoen/index.html,35.652313,139.802398,131083_001_public_facility.csv,公園
江東区立有明二丁目児童遊園,東京都江東区有明2-1-32,https://www.city.koto.lg.jp/shisetsuannai/kokyo/koen/jidokoen/index.html,35.638507,139.796266,131083_001_public_facility.csv,公園
江東区立暁橋児童遊園,東京都江東区潮見1-2-1,https://www.city.koto.lg.jp/shisetsuannai/kokyo/koen/jidokoen/index.html,35.658831,139.813875,131083_001_public_facility.csv,公園
江東区立潮見児童遊園,東京都江東区潮見1-18-1,https://www.city.koto.lg.jp/shisetsuannai/kokyo/koen/jidokoen/index.html,35.657517,139.81322,131083_001_public_facility.csv,公園
江東区立潮見二丁目児童遊園,東京都江東区潮見2-1-1,https://www.city.koto.lg.jp/shisetsuannai/kokyo/koen/jidokoen/index.html,35.660876,139.817215,131083_001_public_facility.csv,公園
江東区立千石児童遊園,東京都江東区千石1-7-8,https://www.city.koto.lg.jp/shisetsuannai/kokyo/koen/jidokoen/index.html,35.677855,139.814256,131083_001_public_facility.csv,公園
江東区立千石二丁目児童遊園,東京都江東区千石2-3-25,https://www.city.koto.lg.jp/shisetsuannai/kokyo/koen/jidokoen/index.html,35.67823,139.8154,131083_001_public_facility.csv,公園
江東区立千田児童遊園,東京都江東区千田20-5,https://www.city.koto.lg.jp/shisetsuannai/kokyo/koen/jidokoen/index.html,35.681399,139.816864,131083_001_public_facility.csv,公園
江東区立海辺児童遊園,東京都江東区海辺5-14,https://www.city.koto.lg.jp/shisetsuannai/kokyo/koen/jidokoen/index.html,35.679882,139.819233,131083_001_public_facility.csv,公園
江東区立扇橋一丁目児童遊園,東京都江東区扇橋1-20-9,https://www.city.koto.lg.jp/shisetsuannai/kokyo/koen/jidokoen/index.html,35.683451,139.810788,131083_001_public_facility.csv,公園
江東区立猿江橋児童遊園,東京都江東区猿江1-1-2；猿江1-15-9；森下5-12-13；森下5-13-1,https://www.city.koto.lg.jp/shisetsuannai/kokyo/koen/jidokoen/index.html,35.68603,139.80989,131083_001_public_facility.csv,公園
江東区立小松橋際児童遊園,東京都江東区猿江1-5-18,https://www.city.koto.lg.jp/shisetsuannai/kokyo/koen/jidokoen/index.html,35.684864,139.81233,131083_001_public_facility.csv,公園
江東区立住吉一丁目児童遊園,東京都江東区住吉1-1-2,https://www.city.koto.lg.jp/shisetsuannai/kokyo/koen/jidokoen/index.html,35.688438,139.809714,131083_001_public_facility.csv,公園
江東区立清水橋児童遊園,東京都江東区毛利2-13-43,https://www.city.koto.lg.jp/shisetsuannai/kokyo/koen/jidokoen/index.html,35.692288,139.819246,131083_001_public_facility.csv,公園
江東区立舟木橋第一児童遊園,東京都江東区木場2-21-1,https://www.city.koto.lg.jp/shisetsuannai/kokyo/koen/jidokoen/index.html,35.669293,139.804654,131083_001_public_facility.csv,公園
江東区立舟木橋第二児童遊園,東京都江東区木場2-18-14,https://www.city.koto.lg.jp/shisetsuannai/kokyo/koen/jidokoen/index.html,35.669677,139.804799,131083_001_public_facility.csv,公園
江東区立舟木橋第三児童遊園,東京都江東区木場2-2-1,https://www.city.koto.lg.jp/shisetsuannai/kokyo/koen/jidokoen/index.html,35.669311,139.804236,131083_001_public_facility.csv,公園
江東区立舟木橋第四児童遊園,東京都江東区木場2-7-20,https://www.city.koto.lg.jp/shisetsuannai/kokyo/koen/jidokoen/index.html,35.669671,139.804272,131083_001_public_facility.csv,公園
江東区立木場二丁目児童遊園,東京都江東区木場2-10-1先,https://www.city.koto.lg.jp/shisetsuannai/kokyo/koen/jidokoen/index.html,35.67068,139.80267,131083_001_public_facility.csv,公園
江東区立鉄道堀児童遊園,東京都江東区木場3-13-8,https://www.city.koto.lg.jp/shisetsuannai/kokyo/koen/jidokoen/index.html,35.67452,139.8036,131083_001_public_facility.csv,公園
江東区立沢海橋第一児童遊園,東京都江東区木場5-12-1,https://www.city.koto.lg.jp/shisetsuannai/kokyo/koen/jidokoen/index.html,35.669548,139.808543,131083_001_public_facility.csv,公園
江東区立沢海橋第二児童遊園,東京都江東区東陽3-8-11,https://www.city.koto.lg.jp/shisetsuannai/kokyo/koen/jidokoen/index.html,35.669509,139.808997,131083_001_public_facility.csv,公園
江東区立木場六丁目児童遊園,東京都江東区木場6-13-7,https://www.city.koto.lg.jp/shisetsuannai/kokyo/koen/jidokoen/index.html,35.668239,139.807836,131083_001_public_facility.csv,公園
江東区立東陽一丁目南児童遊園,東京都江東区東陽1-1-4,https://www.city.koto.lg.jp/shisetsuannai/kokyo/koen/jidokoen/index.html,35.665608,139.808831,131083_001_public_facility.csv,公園
江東区立東陽一丁目児童遊園,東京都江東区東陽1-7-5,https://www.city.koto.lg.jp/shisetsuannai/kokyo/koen/jidokoen/index.html,35.667515,139.809166,131083_001_public_facility.csv,公園
江東区立南開橋第一児童遊園,東京都江東区東陽1-19-11先,https://www.city.koto.lg.jp/shisetsuannai/kokyo/koen/jidokoen/index.html,35.665916,139.811021,131083_001_public_facility.csv,公園
江東区立南開橋第二児童遊園,東京都江東区東陽1-21-5先,https://www.city.koto.lg.jp/shisetsuannai/kokyo/koen/jidokoen/index.html,35.665922,139.811253,131083_001_public_facility.csv,公園
江東区立東陽児童遊園,東京都江東区東陽3-8-6,https://www.city.koto.lg.jp/shisetsuannai/kokyo/koen/jidokoen/index.html,35.670163,139.809256,131083_001_public_facility.csv,公園
江東区立東陽四丁目児童遊園,東京都江東区東陽4-4-9,https://www.city.koto.lg.jp/shisetsuannai/kokyo/koen/jidokoen/index.html,35.670244,139.817273,131083_001_public_facility.csv,公園
江東区立東陽西児童遊園,東京都江東区東陽5-5-10,https://www.city.koto.lg.jp/shisetsuannai/kokyo/koen/jidokoen/index.html,35.671433,139.809673,131083_001_public_facility.csv,公園
江東区立かめ・うさぎ児童遊園,東京都江東区亀戸2-21-13,https://www.city.koto.lg.jp/shisetsuannai/kokyo/koen/jidokoen/index.html,35.697851,139.824492,131083_001_public_facility.csv,公園
江東区立亀戸三丁目児童遊園,東京都江東区亀戸3-12-10,https://www.city.koto.lg.jp/shisetsuannai/kokyo/koen/jidokoen/index.html,35.704172,139.819422,131083_001_public_facility.csv,公園
江東区立亀戸三丁目第二児童遊園,東京都江東区亀戸3-10-1,https://www.city.koto.lg.jp/shisetsuannai/kokyo/koen/jidokoen/index.html,35.703051,139.819476,131083_001_public_facility.csv,公園
江東区立亀戸四丁目児童遊園,東京都江東区亀戸4-16-9,https://www.city.koto.lg.jp/shisetsuannai/kokyo/koen/jidokoen/index.html,35.701565,139.827446,131083_001_public_facility.csv,公園
江東区立亀戸六丁目児童遊園,東京都江東区亀戸6-54-2,https://www.city.koto.lg.jp/shisetsuannai/kokyo/koen/jidokoen/index.html,35.696603,139.832204,131083_001_public_facility.csv,公園
江東区立亀戸七丁目児童遊園,東京都江東区亀戸7-48-1,https://www.city.koto.lg.jp/shisetsuannai/kokyo/koen/jidokoen/index.html,35.695509,139.834861,131083_001_public_facility.csv,公園
江東区立八千代児童遊園,東京都江東区亀戸8-6-6,https://www.city.koto.lg.jp/shisetsuannai/kokyo/koen/jidokoen/index.html,35.69956,139.833755,131083_001_public_facility.csv,公園
江東区立黎明児童遊園,東京都江東区大島1-34-19,https://www.city.koto.lg.jp/shisetsuannai/kokyo/koen/jidokoen/index.html,35.687548,139.825845,131083_001_public_facility.csv,公園
江東区立大島三丁目西児童遊園,東京都江東区大島3-8-3,https://www.city.koto.lg.jp/shisetsuannai/kokyo/koen/jidokoen/index.html,35.692146,139.828458,131083_001_public_facility.csv,公園
江東区立大島三丁目児童遊園,東京都江東区大島3-31-15,https://www.city.koto.lg.jp/shisetsuannai/kokyo/koen/jidokoen/index.html,35.689605,139.831208,131083_001_public_facility.csv,公園
江東区立大島五丁目児童遊園,東京都江東区大島5-17-6,https://www.city.koto.lg.jp/shisetsuannai/kokyo/koen/jidokoen/index.html,35.688139,139.834243,131083_001_public_facility.csv,公園
江東区立大島六丁目第二児童遊園,東京都江東区大島6-15-5,https://www.city.koto.lg.jp/shisetsuannai/kokyo/koen/jidokoen/index.html,35.691073,139.835637,131083_001_public_facility.csv,公園
江東区立東大島児童遊園,東京都江東区大島7-24-16,https://www.city.koto.lg.jp/shisetsuannai/kokyo/koen/jidokoen/index.html,35.690815,139.840628,131083_001_public_facility.csv,公園
江東区立子安児童遊園,東京都江東区大島8-19-12,https://www.city.koto.lg.jp/shisetsuannai/kokyo/koen/jidokoen/index.html,35.687856,139.841185,131083_001_public_facility.csv,公園
江東区立北砂一丁目児童遊園,東京都江東区北砂1-15-13,https://www.city.koto.lg.jp/shisetsuannai/kokyo/koen/jidokoen/index.html,35.678709,139.825008,131083_001_public_facility.csv,公園
江東区立北砂一丁目第二児童遊園,東京都江東区北砂1-3-17,https://www.city.koto.lg.jp/shisetsuannai/kokyo/koen/jidokoen/index.html,35.68467,139.82257,131083_001_public_facility.csv,公園
江東区立北砂三丁目児童遊園,東京都江東区北砂3-5-17,https://www.city.koto.lg.jp/shisetsuannai/kokyo/koen/jidokoen/index.html,35.685199,139.82885,131083_001_public_facility.csv,公園
江東区立北砂四丁目児童遊園,東京都江東区北砂4-12-11,https://www.city.koto.lg.jp/shisetsuannai/kokyo/koen/jidokoen/index.html,35.677998,139.829932,131083_001_public_facility.csv,公園
江東区立亀高児童遊園,東京都江東区北砂4-22-30,https://www.city.koto.lg.jp/shisetsuannai/kokyo/koen/jidokoen/index.html,35.678284,139.831877,131083_001_public_facility.csv,公園
江東区立北砂四丁目第二児童遊園,東京都江東区北砂4-28-9,https://www.city.koto.lg.jp/shisetsuannai/kokyo/koen/jidokoen/index.html,35.678983,139.833126,131083_001_public_facility.csv,公園
江東区立丸八児童遊園,東京都江東区北砂6-16-12,https://www.city.koto.lg.jp/shisetsuannai/kokyo/koen/jidokoen/index.html,35.685413,139.837562,131083_001_public_facility.csv,公園
江東区立北砂七丁目児童遊園,東京都江東区北砂7-2-30,https://www.city.koto.lg.jp/shisetsuannai/kokyo/koen/jidokoen/index.html,35.677875,139.835229,131083_001_public_facility.csv,公園
江東区立北砂なかよし児童遊園,東京都江東区北砂7-6-2,https://www.city.koto.lg.jp/shisetsuannai/kokyo/koen/jidokoen/index.html,35.680007,139.836128,131083_001_public_facility.csv,公園
江東区立北砂七丁目東児童遊園,東京都江東区北砂7-6-51,https://www.city.koto.lg.jp/shisetsuannai/kokyo/koen/jidokoen/index.html,35.678853,139.836395,131083_001_public_facility.csv,公園
江東区立北砂七丁目西児童遊園,東京都江東区北砂7-6-57,https://www.city.koto.lg.jp/shisetsuannai/kokyo/koen/jidokoen/index.html,35.67908,139.835985,131083_001_public_facility.csv,公園
江東区立因速寺前児童遊園,東京都江東区東砂1-5-3,https://www.city.koto.lg.jp/shisetsuannai/kokyo/koen/jidokoen/index.html,35.682275,139.84104,131083_001_public_facility.csv,公園
江東区立東砂三丁目児童遊園,東京都江東区東砂3-12-7,https://www.city.koto.lg.jp/shisetsuannai/kokyo/koen/jidokoen/index.html,35.679791,139.84201,131083_001_public_facility.csv,公園
江東区立東砂三丁目第二児童遊園,東京都江東区東砂3-19-5,https://www.city.koto.lg.jp/shisetsuannai/kokyo/koen/jidokoen/index.html,35.680922,139.842263,131083_001_public_facility.csv,公園
江東区立東砂五丁目児童遊園,東京都江東区東砂5-4-10,https://www.city.koto.lg.jp/shisetsuannai/kokyo/koen/jidokoen/index.html,35.676253,139.840573,131083_001_public_facility.csv,公園
江東区立東砂五丁目第二児童遊園,東京都江東区東砂5-12-15,https://www.city.koto.lg.jp/shisetsuannai/kokyo/koen/jidokoen/index.html,35.675307,139.842361,131083_001_public_facility.csv,公園
江東区立東砂七丁目児童遊園,東京都江東区東砂7-5-17,https://www.city.koto.lg.jp/shisetsuannai/kokyo/koen/jidokoen/index.html,35.670808,139.83797,131083_001_public_facility.csv,公園
江東区立南砂一丁目児童遊園,東京都江東区南砂1-4-25,https://www.city.koto.lg.jp/shisetsuannai/kokyo/koen/jidokoen/index.html,35.679628,139.821114,131083_001_public_facility.csv,公園
江東区立松島橋児童遊園,東京都江東区南砂1-21-12,https://www.city.koto.lg.jp/shisetsuannai/kokyo/koen/jidokoen/index.html,35.67624,139.82438,131083_001_public_facility.csv,公園
江東区立南砂三丁目児童遊園,東京都江東区南砂3-1-5,https://www.city.koto.lg.jp/shisetsuannai/kokyo/koen/jidokoen/index.html,35.669721,139.826529,131083_001_public_facility.csv,公園
江東区立新砂一丁目児童遊園,東京都江東区新砂1-7-27,https://www.city.koto.lg.jp/shisetsuannai/kokyo/koen/jidokoen/index.html,35.669183,139.822226,131083_001_public_facility.csv,公園
道路事務所,東京都江東区木場2-11-1,https://www.city.koto.lg.jp/470206/shisetsuannai/kokyo/omonashisetsu/shisetsu/16796.html,35.670605,139.803375,131083_001_public_facility.csv,その他
水辺と緑の事務所,東京都江東区潮見1-21,https://www.city.koto.lg.jp/470701/shisetsuannai/kokyo/omonashisetsu/shisetsu/16792.html,35.658708,139.813815,131083_001_public_facility.csv,その他
辰巳区民農園,東京都江東区辰巳2-9-35,https://www.city.koto.lg.jp/470701/machizukuri/midori/shizen/7501.html,35.646646,139.818505,131083_001_public_facility.csv,その他
城東区民農園,東京都江東区東砂4-20-17,https://www.city.koto.lg.jp/470701/machizukuri/midori/shizen/7501.html,35.678437,139.838588,131083_001_public_facility.csv,その他
夢の島区民農園,東京都江東区夢の島1-1-2,https://www.city.koto.lg.jp/470701/machizukuri/midori/shizen/7501.html,35.647727,139.822546,131083_001_public_facility.csv,その他
亀戸乗船場,東京都江東区亀戸2-1先,https://www.city.koto.lg.jp/470701/machizukuri/kasenkoen/shuun/jyousenjyou.html,35.697663,139.819528,131083_001_public_facility.csv,その他
小名木川クローバー橋乗船場,東京都江東区北砂1-2先,https://www.city.koto.lg.jp/470701/machizukuri/kasenkoen/shuun/jyousenjyou.html,35.68478,139.820909,131083_001_public_facility.csv,その他
番所橋乗船場,東京都江東区東砂2-14先,https://www.city.koto.lg.jp/470701/machizukuri/kasenkoen/shuun/jyousenjyou.html,35.686027,139.846229,131083_001_public_facility.csv,その他
黒船橋乗船場,東京都江東区門前仲町1-1先,https://www.city.koto.lg.jp/470701/machizukuri/kasenkoen/shuun/jyousenjyou.html,35.671753,139.792935,131083_001_public_facility.csv,その他
高橋乗船場,東京都江東区高橋3先,https://www.city.koto.lg.jp/470701/machizukuri/kasenkoen/shuun/jyousenjyou.html,35.683988,139.799306,131083_001_public_facility.csv,その他
亀戸中央公園乗船場,東京都江東区亀戸8-22先,https://www.city.koto.lg.jp/470701/machizukuri/kasenkoen/shuun/jyousenjyou.html,35.702609,139.835883,131083_001_public_facility.csv,公園
豊洲ぐるり公園乗船場,東京都江東区豊洲5-1先,https://www.city.koto.lg.jp/470701/machizukuri/kasenkoen/shuun/jyousenjyou.html,35.650641,139.793665,131083_001_public_facility.csv,公園
江東区産業会館,東京都江東区東陽4-5-18,https://koto-sangyokaikan.jp/,35.670525,139.818215,131083_001_public_facility.csv,コミュニティセンター
江東区商工情報センター,東京都江東区亀戸2-19-1カメリアプラザ9F,https://www.kcf.or.jp/kameido/,35.697547,139.824399,131083_001_public_facility.csv,コミュニティセンター
江東区消費者センター,東京都江東区扇橋3-22-2パルシティ江東2F,https://www.city.koto.lg.jp/102040/kurashi/shohi/sodan/7149.html,35.684056,139.82004,131083_001_public_facility.csv,コミュニティセンター
本庁舎防災倉庫,東京都江東区東陽4-11-28区役所庁舎内2階,https://www.city.koto.lg.jp/057102/bosai/bosai-top/taisakukeikaku/info_7055_7063.html,35.672874,139.817237,131083_001_public_facility.csv,市役所・役場
清澄防災倉庫,東京都江東区清澄3-2-1,https://www.city.koto.lg.jp/057102/bosai/bosai-top/taisakukeikaku/info_7055_7063.html,35.679414,139.796449,131083_001_public_facility.csv,消防・警察
平野防災倉庫,東京都江東区平野4-3-11,https://www.city.koto.lg.jp/057102/bosai/bosai-top/taisakukeikaku/info_7055_7063.html,35.577894,139.81041,131083_001_public_facility.csv,消防・警察
富岡防災倉庫,東京都江東区富岡2-7-2,https://www.city.koto.lg.jp/057102/bosai/bosai-top/taisakukeikaku/info_7055_7063.html,35.672886,139.801614,131083_001_public_facility.csv,消防・警察
富岡第二防災倉庫,東京都江東区富岡2-8-11,https://www.city.koto.lg.jp/057102/bosai/bosai-top/taisakukeikaku/info_7055_7063.html,35.672215,139.802467,131083_001_public_facility.csv,消防・警察
江東区中央防災倉庫,東京都江東区塩浜1-3-14,https://www.city.koto.lg.jp/057102/bosai/bosai-top/taisakukeikaku/info_7055_7063.html,35.663533,139.800686,131083_001_public_facility.csv,消防・警察
豊洲シビックセンター防災倉庫,東京都江東区豊洲2-2-18豊洲シビックセンター2階・地下1階,https://www.city.koto.lg.jp/057102/bosai/bosai-top/taisakukeikaku/info_7055_7063.html,35.654317,139.795251,131083_001_public_facility.csv,コミュニティセンター
東雲防災倉庫,東京都江東区東雲2-4-4都営住宅1階103,https://www.city.koto.lg.jp/057102/bosai/bosai-top/taisakukeikaku/info_7055_7063.html,35.643547,139.799326,131083_001_public_facility.csv,消防・警察
有明防災倉庫,東京都江東区有明2-3-5有明スポーツセンター1階・地下1階,https://www.city.koto.lg.jp/057102/bosai/bosai-top/taisakukeikaku/info_7055_7063.html,35.633378,139.783814,131083_001_public_facility.csv,スポーツ・体育館
潮見防災倉庫,東京都江東区潮見1-2-1水辺と緑の事務所1階,https://www.city.koto.lg.jp/057102/bosai/bosai-top/taisakukeikaku/info_7055_7063.html,35.658773,139.813817,131083_001_public_facility.csv,消防・警察
千田防災倉庫,東京都江東区千田21-14,https://www.city.koto.lg.jp/057102/bosai/bosai-top/taisakukeikaku/info_7055_7063.html,35.681418,139.816528,131083_001_public_facility.csv,消防・警察
木場防災倉庫,東京都江東区木場3-9,https://www.city.koto.lg.jp/057102/bosai/bosai-top/taisakukeikaku/info_7055_7063.html,35.67477,139.80573,131083_001_public_facility.csv,消防・警察
東陽第二防災倉庫,東京都江東区東陽3-1-2東陽区民館2階,https://www.city.koto.lg.jp/057102/bosai/bosai-top/taisakukeikaku/info_7055_7063.html,35.668709,139.808541,131083_001_public_facility.csv,消防・警察
亀戸防災倉庫,東京都江東区亀戸2-1-21民間住宅1階,https://www.city.koto.lg.jp/057102/bosai/bosai-top/taisakukeikaku/info_7055_7063.html,35.697611,139.821926,131083_001_public_facility.csv,消防・警察
亀戸第二防災倉庫,東京都江東区亀戸8-22-1亀戸スポーツセンター1階,https://www.city.koto.lg.jp/057102/bosai/bosai-top/taisakukeikaku/info_7055_7063.html,35.700246,139.836465,131083_001_public_facility.csv,スポーツ・体育館
亀島防災倉庫,東京都江東区亀戸3-36-5特別養護老人ホームカメリア1階,https://www.city.koto.lg.jp/057102/bosai/bosai-top/taisakukeikaku/info_7055_7063.html,35.707177,139.819874,131083_001_public_facility.csv,高齢者施設
総合区民センター防災倉庫,東京都江東区大島4-5-1総合区民センター3階,https://www.city.koto.lg.jp/057102/bosai/bosai-top/taisakukeikaku/info_7055_7063.html,35.589152,139.826969,131083_001_public_facility.csv,コミュニティセンター
大島防災倉庫,東京都江東区大島5-40-11,https://www.city.koto.lg.jp/057102/bosai/bosai-top/taisakukeikaku/info_7055_7063.html,35.686961,139.836786,131083_001_public_facility.csv,消防・警察
東大島防災倉庫,東京都江東区大島9-4-2民間住宅1階102,https://www.city.koto.lg.jp/057102/bosai/bosai-top/taisakukeikaku/info_7055_7063.html,35.691279,139.845823,131083_001_public_facility.csv,消防・警察
東大島第二防災倉庫,東京都江東区大島8-33-9東大島文化センター別棟,https://www.city.koto.lg.jp/057102/bosai/bosai-top/taisakukeikaku/info_7055_7063.html,35.589813,139.842461,131083_001_public_facility.csv,コミュニティセンター
北砂防災倉庫,東京都江東区北砂5-20-14北砂5丁目団地2階,https://www.city.koto.lg.jp/057102/bosai/bosai-top/taisakukeikaku/info_7055_7063.html,35.683967,139.832714,131083_001_public_facility.csv,消防・警察
東砂防災倉庫,東京都江東区東砂2-12-14東砂小学校敷地内,https://www.city.koto.lg.jp/057102/bosai/bosai-top/taisakukeikaku/info_7055_7063.html,35.683619,139.844275,131083_001_public_facility.csv,学校・教育施設
南砂防災倉庫,東京都江東区南砂6-8-3南砂出張所2階,https://www.city.koto.lg.jp/057102/bosai/bosai-top/taisakukeikaku/info_7055_7063.html,35.671376,139.834896,131083_001_public_facility.csv,市役所・役場
新木場防災倉庫,東京都江東区新木場4-4東京地下鉄株式会社総合研修訓練センター保守棟1階,https://www.city.koto.lg.jp/057102/bosai/bosai-top/taisakukeikaku/info_7055_7063.html,35.644862,139.839919,131083_001_public_facility.csv,コミュニティセンター
江東区青少年交流プラザ,東京都江東区亀戸7-41-16,https://www.kouryu-plaza.com/,35.696816,139.837473,131083_001_public_facility.csv,その他
教育センター内ブリッジスクール,東京都江東区東陽2-3-6教育センター内,https://www.city.koto.lg.jp/581502/kodomo/gakko/jigyo/6177.html,35.66718,139.81709,131083_001_public_facility.csv,学校・教育施設
教育委員会事務局東大島分室ブリッジスクール,東京都江東区大島8-21-9-101,https://www.city.koto.lg.jp/581502/kodomo/gakko/jigyo/6177.html,35.68895,139.83984,131083_001_public_facility.csv,学校・教育施設
教育委員会事務局南砂分室ブリッジスクール,東京都江東区南砂2-3-20南砂中学校内,https://www.city.koto.lg.jp/581502/kodomo/gakko/jigyo/6177.html,35.673394,139.823476,131083_001_public_facility.csv,学校・教育施設
深川北子ども家庭支援センター,東京都江東区高橋14-6,https://www.city.koto.lg.jp/281012/shisetsuannai/kyoiku/sonotakodomo/supportcenter/16760.html,35.686016,139.799227,131083_001_public_facility.csv,コミュニティセンター
豊洲子ども家庭支援センター,東京都江東区豊洲5-5-1-201,https://www.city.koto.lg.jp/281012/shisetsuannai/kyoiku/sonotakodomo/supportcenter/17204.html,35.653708,139.796191,131083_001_public_facility.csv,コミュニティセンター
有明子ども家庭支援センター,東京都江東区有明2-1-8-101有明ガーデン1階,https://www.city.koto.lg.jp/281012/shisetsuannai/kyoiku/sonotakodomo/supportcenter/16761.html,35.638243,139.791755,131083_001_public_facility.csv,コミュニティセンター
東陽子ども家庭支援センター,東京都江東区東陽3-1-2,https://www.city.koto.lg.jp/281012/shisetsuannai/kyoiku/sonotakodomo/supportcenter/16758.html,35.668562,139.808592,131083_001_public_facility.csv,コミュニティセンター
大島子ども家庭支援センター,東京都江東区大島4-1-37,https://www.city.koto.lg.jp/281012/shisetsuannai/kyoiku/sonotakodomo/supportcenter/16759.html,35.687359,139.828182,131083_001_public_facility.csv,コミュニティセンター
南砂子ども家庭支援センター,東京都江東区南砂3-14-1-101,https://www.city.koto.lg.jp/281012/shisetsuannai/kyoiku/sonotakodomo/supportcenter/17136.html,35.66875,139.83176,131083_001_public_facility.csv,コミュニティセンター
亀戸子ども家庭支援センター,東京都江東区亀戸6-31-26,https://www.city.koto.lg.jp/281012/shisetsuannai/kyoiku/sonotakodomo/supportcenter/kameidomizube.html,35.69487,139.82947,131083_001_public_facility.csv,コミュニティセンター
住吉子ども家庭支援センター,東京都江東区住吉1-9-8江東区こどもプラザ2階,https://www.city.koto.lg.jp/281012/shisetsuannai/kyoiku/sonotakodomo/supportcenter/sumiyoshimizube.html,35.68776,139.81263,131083_001_public_facility.csv,コミュニティセンター
江東図書館,東京都江東区南砂6-7-52,https://www.koto-lib.tokyo.jp/viewer/genre.html?id=4,35.671866,139.834271,131083_001_public_facility.csv,図書館
深川図書館,東京都江東区清澄3-3-39,https://www.koto-lib.tokyo.jp/viewer/genre.html?id=5,35.679323,139.796691,131083_001_public_facility.csv,図書館
東陽図書館,東京都江東区東陽2-3-6教育センター1階,https://www.koto-lib.tokyo.jp/viewer/genre.html?id=6,35.667359,139.816999,131083_001_public_facility.csv,学校・教育施設
豊洲図書館,東京都江東区豊洲2-2-18豊洲シビックセンター9・10階・11階の一部,https://www.koto-lib.tokyo.jp/viewer/genre.html?id=7,35.65437,139.795378,131083_001_public_facility.csv,図書館
東雲図書館,東京都江東区東雲2-7-5-201トミンタワー東雲2階,https://www.koto-lib.tokyo.jp/viewer/genre.html?id=8,35.643852,139.805301,131083_001_public_facility.csv,図書館
古石場図書館,東京都江東区古石場2-13-2古石場文化センター4階,https://www.koto-lib.tokyo.jp/viewer/genre.html?id=9,35.667,139.799022,131083_001_public_facility.csv,図書館
城東図書館,東京都江東区大島4-5-1総合区民センター4階,https://www.koto-lib.tokyo.jp/viewer/genre.html?id=10,35.689246,139.826947,131083_001_public_facility.csv,図書館
亀戸図書館,東京都江東区亀戸7-39-9,https://www.koto-lib.tokyo.jp/viewer/genre.html?id=11,35.697311,139.839344,131083_001_public_facility.csv,図書館
砂町図書館,東京都江東区北砂5-1-7砂町文化センター1階,https://www.koto-lib.tokyo.jp/viewer/genre.html?id=12,35.680561,139.832109,131083_001_public_facility.csv,図書館
東大島図書館,東京都江東区大島9-4-2-101東大島ファミールハイツ1階,https://www.koto-lib.tokyo.jp/viewer/genre.html?id=13,35.691171,139.845851,131083_001_public_facility.csv,図書館
枝川図書サービスコーナー,東京都江東区枝川3-6-16枝川区民館1階,https://www.koto-lib.tokyo.jp/viewer/genre.html?id=15,35.658741,139.81,131083_001_public_facility.csv,その他
こどもプラザ図書館,東京都江東区住吉1-9-8こどもプラザ内,https://www.koto-lib.tokyo.jp/viewer/genre.html?id=14,35.68761,139.81235,131083_001_public_facility.csv,図書館
江東きっずクラブ明治,東京都江東区深川2-17-26,,35.67642,139.79818,131083_001_public_facility.csv,その他
江東きっずクラブ深川,東京都江東区高橋14-6,,35.685985,139.799192,131083_001_public_facility.csv,その他
江東きっずクラブ八名川,東京都江東区新大橋3-1-15,,35.686827,139.795459,131083_001_public_facility.csv,その他
江東きっずクラブ臨海,東京都江東区門前仲町1-1-6,,35.672453,139.792957,131083_001_public_facility.csv,その他
江東きっずクラブ越中島,東京都江東区越中島3-6-38,,35.66589,139.79696,131083_001_public_facility.csv,その他
江東きっずクラブ数矢,東京都江東区富岡1-18-7,,35.672773,139.800087,131083_001_public_facility.csv,その他
江東きっずクラブ平久,東京都江東区木場1-3-6,,35.668479,139.802383,131083_001_public_facility.csv,その他
江東きっずクラブ東陽,東京都江東区東陽3-27-12,,35.670681,139.815576,131083_001_public_facility.csv,その他
江東きっずクラブ南陽,東京都江東区東陽2-1-20,,35.668421,139.813777,131083_001_public_facility.csv,その他
江東きっずクラブ扇橋,東京都江東区石島18-5,,35.681444,139.811666,131083_001_public_facility.csv,その他
江東きっずクラブ元加賀,東京都江東区白河4-3-19,,35.681999,139.808031,131083_001_public_facility.csv,その他
江東きっずクラブ毛利,東京都江東区毛利2-2-2,,35.69193,139.81653,131083_001_public_facility.csv,その他
江東きっずクラブ東川,東京都江東区住吉1-12-2,,35.688276,139.812328,131083_001_public_facility.csv,その他
江東きっずクラブ豊洲,東京都江東区豊洲4-4-4,,35.653977,139.798931,131083_001_public_facility.csv,その他
江東きっずクラブ豊西,東京都江東区豊洲5-1-35,,35.65108,139.794845,131083_001_public_facility.csv,その他
江東きっずクラブ豊北,東京都江東区豊洲3-6-1,,35.65821,139.79841,131083_001_public_facility.csv,その他
江東きっずクラブ東雲,東京都江東区東雲2-4-11,,35.642493,139.799062,131083_001_public_facility.csv,その他
江東きっずクラブ有明,東京都江東区有明2-10-1,,35.6412,139.79602,131083_001_public_facility.csv,その他
江東きっずクラブ有明西,東京都江東区有明1-7-13,,35.637276,139.784097,131083_001_public_facility.csv,その他
江東きっずクラブ枝川,東京都江東区枝川3-5-3,,35.65921,139.81031,131083_001_public_facility.csv,その他
江東きっずクラブ辰巳,東京都江東区辰巳1-11-1,,35.64649,139.81063,131083_001_public_facility.csv,その他
江東きっずクラブ一亀,東京都江東区亀戸2-5-7,,35.69902,139.82183,131083_001_public_facility.csv,その他
江東きっずクラブ二亀,東京都江東区亀戸6-36-1,,35.6949,139.82953,131083_001_public_facility.csv,その他
江東きっずクラブ香取,東京都江東区亀戸4-26-22,,35.703597,139.826208,131083_001_public_facility.csv,その他
江東きっずクラブ水神,東京都江東区亀戸5-22-22,,35.700028,139.828494,131083_001_public_facility.csv,その他
江東きっずクラブ一大,東京都江東区大島2-41-4,,35.689926,139.825603,131083_001_public_facility.csv,その他
江東きっずクラブ二大,東京都江東区大島3-16-2,,35.690224,139.829883,131083_001_public_facility.csv,その他
江東きっずクラブ三大,東京都江東区大島9-6-17,,35.693099,139.844445,131083_001_public_facility.csv,その他
江東きっずクラブ四大,東京都江東区大島6-7-8,,35.690982,139.834443,131083_001_public_facility.csv,その他
江東きっずクラブ五大,東京都江東区大島8-40-13,,35.688285,139.844671,131083_001_public_facility.csv,その他
江東きっずクラブ南央,東京都江東区大島4-18-5,,35.687244,139.831686,131083_001_public_facility.csv,その他
江東きっずクラブ砂町,東京都江東区北砂4-13-23,,35.6775,139.8296,131083_001_public_facility.csv,その他
江東きっずクラブ二砂,東京都江東区東砂7-17-30,,35.674856,139.838746,131083_001_public_facility.csv,その他
江東きっずクラブ四砂,東京都江東区南砂2-13-18,,35.67502,139.822006,131083_001_public_facility.csv,その他
江東きっずクラブ五砂,東京都江東区東砂8-11-5,,35.667291,139.83901,131083_001_public_facility.csv,その他
江東きっずクラブ六砂,東京都江東区北砂6-26-6,,35.682361,139.838324,131083_001_public_facility.csv,その他
江東きっずクラブ七砂,東京都江東区東砂3-21-5,,35.678903,139.84244,131083_001_public_facility.csv,その他
江東きっずクラブ小名木川,東京都江東区北砂5-22-10,,35.682386,139.8312,131083_001_public_facility.csv,その他
江東きっずクラブ東砂,東京都江東区東砂2-12-14,,35.683458,139.844351,131083_001_public_facility.csv,その他
江東きっずクラブ北砂,東京都江東区北砂1-3-33,,35.683649,139.823637,131083_001_public_facility.csv,その他
江東きっずクラブ南砂,東京都江東区南砂2-3-21,,35.671998,139.824867,131083_001_public_facility.csv,その他
江東きっずクラブ亀高,東京都江東区北砂5-20-16,,35.684947,139.83413,131083_001_public_facility.csv,その他
江東きっずクラブ平野児童館,東京都江東区平野1-2-3,,35.678466,139.798593,131083_001_public_facility.csv,保育・幼稚園
江東きっずクラブ塩浜,東京都江東区塩浜2-8-29-101,,35.663349,139.80733,131083_001_public_facility.csv,その他
江東きっずクラブ潮見,東京都江東区潮見1-29-16,,35.65644,139.81499,131083_001_public_facility.csv,その他
江東きっずクラブ豊洲三丁目,東京都江東区豊洲3-5-21-101,,35.658402,139.795901,131083_001_public_facility.csv,その他
江東きっずクラブ豊洲四丁目,東京都江東区豊洲4-11-20-137,,35.65351,139.80015,131083_001_public_facility.csv,その他
江東きっずクラブ東雲児童館,東京都江東区東雲2-4-4-102,,35.643348,139.799295,131083_001_public_facility.csv,保育・幼稚園
江東きっずクラブ東雲第二,東京都江東区東雲1-9-13-101,,35.64637,139.8037,131083_001_public_facility.csv,その他
江東きっずクラブ東雲第三,東京都江東区東雲2-7-3,,35.64357,139.80578,131083_001_public_facility.csv,その他
江東きっずクラブ辰巳児童館,東京都江東区辰巳1-1-36,,35.647503,139.809016,131083_001_public_facility.csv,保育・幼稚園
江東きっずクラブ千田児童館,東京都江東区千田21-18,,35.681019,139.816518,131083_001_public_facility.csv,保育・幼稚園
江東きっずクラブ東陽児童館,東京都江東区東陽5-16-13,,35.671373,139.811805,131083_001_public_facility.csv,保育・幼稚園
江東きっずクラブ亀戸児童館,東京都江東区亀戸2-1-19,,35.697753,139.82169,131083_001_public_facility.csv,保育・幼稚園
江東きっずクラブ亀戸第三児童館,東京都江東区亀戸7-39-9,,35.696937,139.839396,131083_001_public_facility.csv,保育・幼稚園
江東きっずクラブ浅間竪川,東京都江東区亀戸9-34-1-141,,35.70028,139.84059,131083_001_public_facility.csv,その他
江東きっずクラブ大島第二児童館,東京都江東区大島4-5-1,,35.689093,139.826864,131083_001_public_facility.csv,保育・幼稚園
江東きっずクラブ東砂児童館,東京都江東区東砂7-15-3,,35.67454,139.83979,131083_001_public_facility.csv,保育・幼稚園
江東きっずクラブ南砂児童館,東京都江東区南砂2-3-17,,35.671068,139.823184,131083_001_public_facility.csv,保育・幼稚園
江東きっずクラブ南砂六丁目,東京都江東区南砂6-5-2-101,,35.67342,139.834819,131083_001_public_facility.csv,その他
明治小学校,東京都江東区深川2-17-26,http://meiji-sho.koto.ed.jp,35.6762,139.797807,131083_001_public_facility.csv,学校・教育施設
深川小学校,東京都江東区高橋14-10,http://fukagawa-sho.koto.ed.jp,35.685891,139.799445,131083_001_public_facility.csv,学校・教育施設
八名川小学校,東京都江東区新大橋3-1-15,http://yanagawa-sho.koto.ed.jp,35.68683,139.795398,131083_001_public_facility.csv,学校・教育施設
臨海小学校,東京都江東区門前仲町1-1-6,http://rinkai-sho.koto.ed.jp,35.672453,139.792968,131083_001_public_facility.csv,学校・教育施設
越中島小学校,東京都江東区越中島3-6-38,http://ecchujima-sho.koto.ed.jp,35.66605,139.796371,131083_001_public_facility.csv,学校・教育施設
数矢小学校,東京都江東区富岡1-18-7,http://kazuya-sho.koto.ed.jp,35.672594,139.799779,131083_001_public_facility.csv,学校・教育施設
平久小学校,東京都江東区木場1-2-2,http://heikyu-sho.koto.ed.jp,35.667941,139.8022,131083_001_public_facility.csv,学校・教育施設
東陽小学校,東京都江東区東陽3-27-12,http://toyo-sho.koto.ed.jp,35.670477,139.815246,131083_001_public_facility.csv,学校・教育施設
南陽小学校,東京都江東区東陽2-1-20,http://nanyo-sho.koto.ed.jp,35.668429,139.813766,131083_001_public_facility.csv,学校・教育施設
川南小学校,東京都江東区千石2-9-12,http://sennan-sho.koto.ed.jp,35.67969,139.81674,131083_001_public_facility.csv,学校・教育施設
扇橋小学校,東京都江東区石島18-5,http://ougibashi-sho.koto.ed.jp,35.681291,139.811716,131083_001_public_facility.csv,学校・教育施設
元加賀小学校,東京都江東区白河4-3-19,http://motokaga-sho.koto.ed.jp,35.682011,139.807991,131083_001_public_facility.csv,学校・教育施設
毛利小学校,東京都江東区毛利2-2-2,http://mouri-sho.koto.ed.jp,35.691365,139.816282,131083_001_public_facility.csv,学校・教育施設
東川小学校,東京都江東区住吉1-12-2,http://tosen-sho.koto.ed.jp,35.68829,139.81231,131083_001_public_facility.csv,学校・教育施設
豊洲小学校,東京都江東区豊洲4-4-4,http://toyosu-sho.koto.ed.jp,35.65399,139798920.0,131083_001_public_facility.csv,学校・教育施設
豊洲西小学校,東京都江東区豊洲5-1-35,http://toyosunishi-sho.koto.ed.jp,35.651505,139.795468,131083_001_public_facility.csv,学校・教育施設
豊洲北小学校,東京都江東区豊洲3-6-1,http://toyosukita-sho.koto.ed.jp,35.65852,139.7983,131083_001_public_facility.csv,学校・教育施設
東雲小学校,東京都江東区東雲2-4-11,http://shinonome-sho.koto.ed.jp,35.642604,139.799207,131083_001_public_facility.csv,学校・教育施設
有明小学校,東京都江東区有明2-10-1,http://ariake-sho.koto.ed.jp,35.640109,139.796146,131083_001_public_facility.csv,学校・教育施設
枝川小学校,東京都江東区枝川3-5-3,http://edagawa-sho.koto.ed.jp,35.659637,139.809187,131083_001_public_facility.csv,学校・教育施設
辰巳小学校,東京都江東区辰巳1-11-1,http://tatsumi-sho.koto.ed.jp,35.646517,139.80999,131083_001_public_facility.csv,学校・教育施設
第二辰巳小学校,東京都江東区辰巳1-1-22,http://2tatsu-sho.koto.ed.jp,35.648533,139.808412,131083_001_public_facility.csv,学校・教育施設
第一亀戸小学校,東京都江東区亀戸2-5-7,http://1kame-sho.koto.ed.jp,35.698833,139.822237,131083_001_public_facility.csv,学校・教育施設
第二亀戸小学校,東京都江東区亀戸6-36-1,http://2kame-sho.koto.ed.jp,35.69498,139.83004,131083_001_public_facility.csv,学校・教育施設
香取小学校,東京都江東区亀戸4-26-22,http://katori-sho.koto.ed.jp,35.703858,139.826098,131083_001_public_facility.csv,学校・教育施設
浅間竪川小学校,東京都江東区亀戸9-22-4,http://sengentatekawa-sho.koto.ed.jp,35.698725,139.841716,131083_001_public_facility.csv,学校・教育施設
水神小学校,東京都江東区亀戸5-22-22,http://suijin-sho.koto.ed.jp,35.700028,139.828505,131083_001_public_facility.csv,学校・教育施設
第一大島小学校,東京都江東区大島2-41-4,http://1dai-sho.koto.ed.jp,35.689949,139.825602,131083_001_public_facility.csv,学校・教育施設
第二大島小学校,東京都江東区大島3-16-2,http://2dai-sho.koto.ed.jp,35.690184,139.829855,131083_001_public_facility.csv,学校・教育施設
第三大島小学校,東京都江東区大島9-5-3,http://3dai-sho.koto.ed.jp,35.692593,139.845101,131083_001_public_facility.csv,学校・教育施設
第四大島小学校,東京都江東区大島6-7-8,http://4dai-sho.koto.ed.jp,35.690974,139.834421,131083_001_public_facility.csv,学校・教育施設
第五大島小学校,東京都江東区大島8-40-13,http://5dai-sho.koto.ed.jp,35.68822,139.84468,131083_001_public_facility.csv,学校・教育施設
大島南央小学校,東京都江東区大島4-18-5,http://nano-sho.koto.ed.jp,35.687232,139.831683,131083_001_public_facility.csv,学校・教育施設
砂町小学校,東京都江東区北砂4-13-23,http://sunamachi-sho.koto.ed.jp,35.677482,139.829034,131083_001_public_facility.csv,学校・教育施設
第二砂町小学校,東京都江東区東砂7-17-30,http://2suna-sho.koto.ed.jp,35.674932,139.838755,131083_001_public_facility.csv,学校・教育施設
第三砂町小学校,東京都江東区南砂6-3-13,http://3suna-sho.koto.ed.jp,35.67264,139.83328,131083_001_public_facility.csv,学校・教育施設
第四砂町小学校,東京都江東区南砂2-13-18,http://4suna-sho.koto.ed.jp,35.675144,139.821729,131083_001_public_facility.csv,学校・教育施設
第五砂町小学校,東京都江東区東砂8-11-5,http://5suna-sho.koto.ed.jp,35.667052,139.838897,131083_001_public_facility.csv,学校・教育施設
第六砂町小学校,東京都江東区北砂6-26-6,http://6suna-sho.koto.ed.jp,35.682111,139.838535,131083_001_public_facility.csv,学校・教育施設
第七砂町小学校,東京都江東区東砂3-21-5,http://7suna-sho.koto.ed.jp,35.678924,139.842095,131083_001_public_facility.csv,学校・教育施設
小名木川小学校,東京都江東区北砂5-22-10,http://onagigawa-sho.koto.ed.jp,35.682403,139.8312,131083_001_public_facility.csv,学校・教育施設
東砂小学校,東京都江東区東砂2-12-14,http://higashisuna-sho.koto.ed.jp,35.683339,139.84431,131083_001_public_facility.csv,学校・教育施設
北砂小学校,東京都江東区北砂1-3-36,http://kitasuna-sho.koto.ed.jp,35.683117,139.8235,131083_001_public_facility.csv,学校・教育施設
南砂小学校,東京都江東区南砂2-3-21,http://minamisuna-sho.koto.ed.jp,35.671825,139.825039,131083_001_public_facility.csv,学校・教育施設
亀高小学校,東京都江東区北砂5-20-16,http://kametaka-sho.koto.ed.jp,35.684981,139.834081,131083_001_public_facility.csv,学校・教育施設
深川第一中学校,東京都江東区森下4-9-22,http://fuka1-chu.koto.ed.jp,35.685261,139.805802,131083_001_public_facility.csv,学校・教育施設
深川第二中学校,東京都江東区冬木22-10,http://fuka2-chu.koto.ed.jp,35.676289,139.800662,131083_001_public_facility.csv,学校・教育施設
深川第三中学校,東京都江東区越中島3-7-1,http://fuka3-chu.koto.ed.jp,35.666524,139.795624,131083_001_public_facility.csv,学校・教育施設
深川第四中学校,東京都江東区千石1-12-12,http://fuka4-chu.koto.ed.jp,35.67899,139.81241,131083_001_public_facility.csv,学校・教育施設
深川第五中学校,東京都江東区豊洲4-11-18,http://fuka5-chu.koto.ed.jp,35.652414,139.799621,131083_001_public_facility.csv,学校・教育施設
深川第六中学校,東京都江東区平野3-6-13,http://fuka6-chu.koto.ed.jp,35.678867,139.805625,131083_001_public_facility.csv,学校・教育施設
深川第七中学校,東京都江東区毛利1-14-1,http://fuka7-chu.koto.ed.jp,35.691331,139.813704,131083_001_public_facility.csv,学校・教育施設
深川第八中学校,東京都江東区塩浜2-21-14,http://fuka8-chu.koto.ed.jp,35.664741,139.812079,131083_001_public_facility.csv,学校・教育施設
有明中学校,東京都江東区有明2-10-1,http://ariake-chu.koto.ed.jp,35.640109,139.796146,131083_001_public_facility.csv,学校・教育施設
辰巳中学校,東京都江東区辰巳1-10-57,http://tatsumi-chu.koto.ed.jp,35.64684,139.81138,131083_001_public_facility.csv,学校・教育施設
東陽中学校,東京都江東区東陽2-1-8,http://toyo-chu.koto.ed.jp,35.666766,139.814052,131083_001_public_facility.csv,学校・教育施設
亀戸中学校,東京都江東区亀戸9-2-2,http://kameido-chu.koto.ed.jp,35.695357,139.841937,131083_001_public_facility.csv,学校・教育施設
第二亀戸中学校,東京都江東区亀戸4-51-1,http://2kame-chu.koto.ed.jp,35.702617,139.832428,131083_001_public_facility.csv,学校・教育施設
第三亀戸中学校,東京都江東区亀戸1-12-10,http://3kame-chu.koto.ed.jp,35.69502,139.82122,131083_001_public_facility.csv,学校・教育施設
大島中学校,東京都江東区大島8-12-22,http://ohjima-chu.koto.ed.jp,35.686416,139.839903,131083_001_public_facility.csv,学校・教育施設
第二大島中学校,東京都江東区大島3-27-18,http://2dai-chu.koto.ed.jp,35.691653,139.831117,131083_001_public_facility.csv,学校・教育施設
大島西中学校,東京都江東区大島4-1-23,http://ohjimanishi-chu.koto.ed.jp,35.686315,139.827739,131083_001_public_facility.csv,学校・教育施設
砂町中学校,東京都江東区北砂6-16-28,http://sunamachi-chu.koto.ed.jp,35.685227,139.837159,131083_001_public_facility.csv,学校・教育施設
第二砂町中学校,東京都江東区東砂8-10-9,http://2suna-chu.koto.ed.jp,35.668348,139.839455,131083_001_public_facility.csv,学校・教育施設
第三砂町中学校,東京都江東区南砂3-10-3,http://3suna-chu.koto.ed.jp,35.670198,139.829699,131083_001_public_facility.csv,学校・教育施設
第四砂町中学校,東京都江東区北砂5-20-17,http://4suna-chu.koto.ed.jp,35.684714,139.831608,131083_001_public_facility.csv,学校・教育施設
南砂中学校,東京都江東区南砂2-3-20,http://minamisuna-chu.koto.ed.jp,35.673307,139.823682,131083_001_public_facility.csv,学校・教育施設
第二南砂中学校,東京都江東区南砂1-2-18,http://2nan-chu.koto.ed.jp,35.678156,139.820937,131083_001_public_facility.csv,学校・教育施設
有明西学園,東京都江東区有明1-7-13,http://ariakenishi-gakuen.koto.ed.jp,35.63728,139.78418,131083_001_public_facility.csv,その他
日光高原学園,栃木県日光市所野1542-6,,36.764017,139.617783,131083_001_public_facility.csv,その他
こどもプラザ,東京都江東区住吉1-9-8,https://koto-kodomoplaza.com,35.68775,139.81256,131083_001_public_facility.csv,その他
江東区立大島二丁目児童遊園,東京都江東区大島2-2-19,https://www.city.koto.lg.jp/shisetsuannai/kokyo/koen/jidokoen/index.html,35.69166,139.821492,131083_001_public_facility.csv,公園
江東区立北砂一丁目第三児童遊園,東京都江東区北砂1-4-33,https://www.city.koto.lg.jp/shisetsuannai/kokyo/koen/jidokoen/index.html,35.68154,139.82327,131083_001_public_facility.csv,公園
江東区立北砂小名木川児童遊園,東京都江東区北砂1-4-17,https://www.city.koto.lg.jp/shisetsuannai/kokyo/koen/jidokoen/index.html,35.68525,139.82793,131083_001_public_facility.csv,公園
江東区立北砂四丁目第三児童遊園,東京都江東区北砂4-34-4,https://www.city.koto.lg.jp/shisetsuannai/kokyo/koen/jidokoen/index.html,35.676864,139.833388,131083_001_public_facility.csv,公園
西大島防災倉庫,東京都江東区大島2-2-20 民間住宅1階,https://www.city.koto.lg.jp/057102/bosai/bosai-top/taisakukeikaku/info_7055_7063.html,35.691634,139.82199,131083_001_public_facility.csv,消防・警察
猿江住宅,東京都江東区猿江1-11-22,https://www.city.koto.lg.jp/kurashi/sumai/moshikomi/index.html,35.68622,139.81292,131083_001_public_facility.csv,住宅・住区施設
大島住宅,東京都江東区大島5-27-17,https://www.city.koto.lg.jp/kurashi/sumai/moshikomi/index.html,35.68621,139.8359,131083_001_public_facility.csv,住宅・住区施設
江東きっずクラブ川南,東京都江東区千石2-9-12,,35.67952,139.81643,131083_001_public_facility.csv,その他
江東きっずクラブ二辰,東京都江東区辰巳1-1-22,,35.64838,139.80844,131083_001_public_facility.csv,その他
江東きっずクラブ浅竪,東京都江東区亀戸9-22-4,,35.69857,139.8423,131083_001_public_facility.csv,その他
江東きっずクラブ三砂,東京都江東区南砂6-3-13,,35.67262,139.83326,131083_001_public_facility.csv,その他
豊洲特別出張所,東京都江東区豊洲2-2-18,https://www.city.koto.lg.jp/060305/kurashi/jumin/shutcho/7122.html,35.65419,139.79524,131083_001_public_facility.csv,市役所・役場
有明こども図書館,東京都江東区有明２-3-5有明スポーツセンター7階,https://www.koto-lib.tokyo.jp/viewer/genre.html?id=16,35.634483,139.784256,131083_001_public_facility.csv,図書館
豊洲シビックセンター,東京都江東区豊洲2-2-18,https://www.city.koto.lg.jp/060901/shisetsuannai/kokyo/omonashisetsu/shisetsu/93863.html,35.65419,139.79524,131083_001_public_facility.csv,コミュニティセンター
江東区立潮見しぶさわ公園,東京都江東区潮見2-8-13,https://www.city.koto.lg.jp/shisetsuannai/kokyo/koen/kuritsukoen/index.html,35.659863,139.819914,131083_001_public_facility.csv,公園
江東区立北砂ふれあい児童遊園,東京都江東区北砂3-10-1,https://www.city.koto.lg.jp/shisetsuannai/kokyo/koen/jidokoen/index.html,35.68274,139.82963,131083_001_public_facility.csv,公園
教育センター,東京都江東区東陽2-3-6,https://www.city.koto.lg.jp/581601/kodomo/gakko/jigyo/kyoiku/6166.html,35.667286,139.816775,131083_001_public_facility.csv,学校・教育施設
砂町区民農園,東京都江東区南砂5-24-11先,https://www.city.koto.lg.jp/470701/machizukuri/midori/shizen/7501.html,35.675235,139.83631,131083_001_public_facility.csv,その他
夢の島乗船場,東京都江東区豊洲5-1先,https://www.city.koto.lg.jp/470701/machizukuri/kasenkoen/shuun/jyousenjyou.html,35.654669,139.825157,131083_001_public_facility.csv,その他
北砂二丁目アパート,東京都江東区北砂2-9-16,https://www.city.koto.lg.jp/kurashi/sumai/moshikomi/index.html,35.679244,139.826003,131083_001_public_facility.csv,住宅・住区施設
豊洲五丁目スロープ,江東区豊洲五丁目1先,https://www.city.koto.lg.jp/470701/machizukuri/kasenkoen/shuun/jyousenjyou.html,35.65056,139.79404,131083_001_public_facility.csv,その他
旧中川・川の駅スロープ,江東区大島九丁目10先,https://www.city.koto.lg.jp/470701/machizukuri/kasenkoen/shuun/jyousenjyou.html,35.68742,139.84713,131083_001_public_facility.csv,交通・駅
豊洲三丁目乗船場,江東区豊洲三丁目7先,https://www.city.koto.lg.jp/470701/machizukuri/kasenkoen/shuun/jyousenjyou.html,35.66146,139.79584,131083_001_public_facility.csv,その他
天神橋乗船場,江東区亀戸二丁目1先,https://www.city.koto.lg.jp/470701/machizukuri/kasenkoen/shuun/jyousenjyou.html,35.70191,139.819187,131083_001_public_facility.csv,その他
江東区大島九丁目すくすく公園,東京都江東区大島9-6-11,https://www.city.koto.lg.jp/shisetsuannai/kokyo/koen/kuritsukoen/index.html,35.693522,139.845341,131083_001_public_facility.csv,公園
,,,,,131083_001_public_facility.csv,その他
,,,,,131083_001_public_facility.csv,その他
,,,,,131083_001_public_facility.csv,その他
,,,,,131083_001_public_facility.csv,その他
,,,,,131083_001_public_facility.csv,その他
,,,,,131083_001_public_facility.csv,その他
,,,,,131083_001_public_facility.csv,その他
,,,,,131083_001_public_facility.csv,その他
,,,,,131083_001_public_facility.csv,その他
,,,,,131083_001_public_facility.csv,その他
,,,,,131083_001_public_facility.csv,その他
,,,,,131083_001_public_facility.csv,その他
,,,,,131083_001_public_facility.csv,その他
,,,,,131083_001_public_facility.csv,その他
中央区庁舎,東京都中央区築地1-1-1,,35.670599,139.77201,koukyoushisetu.csv,市役所・役場
本庁舎防災備蓄倉庫,東京都中央区築地1-1-1,,35.670599,139.77201,koukyoushisetu.csv,市役所・役場
中央区役所別棟,東京都中央区築地1-1-1,,35.670599,139.77201,koukyoushisetu.csv,市役所・役場
新富分庁舎,東京都中央区新富1-13-24,,35.673538,139.774941,koukyoushisetu.csv,市役所・役場
新富区民館,東京都中央区新富1-13-24,,35.673538,139.774941,koukyoushisetu.csv,その他
京橋プラザ分庁舎,東京都中央区銀座1-25-3,,35.673121,139.771593,koukyoushisetu.csv,市役所・役場
京橋プラザ防災備蓄倉庫・京橋プラザ防災拠点倉庫,東京都中央区銀座1-25-3,,35.673121,139.771593,koukyoushisetu.csv,消防・警察
京橋プラザ住宅,東京都中央区銀座1-25-3,,35.673121,139.771593,koukyoushisetu.csv,住宅・住区施設
京橋プラザ区民館,東京都中央区銀座1-25-3,,35.673121,139.771593,koukyoushisetu.csv,その他
京橋プラザコミュニティルーム,東京都中央区銀座1-25-3,,35.673121,139.771593,koukyoushisetu.csv,コミュニティセンター
京橋休日応急診療所（京橋プラザ認証保育所を含む）,東京都中央区銀座1-25-3,,35.673121,139.771593,koukyoushisetu.csv,病院・医療
京橋プラザ駐車場,東京都中央区銀座1-25-3,,35.673121,139.771593,koukyoushisetu.csv,その他
日本橋特別出張所,東京都中央区日本橋蛎殻町1-31-1,,35.682479,139.784287,koukyoushisetu.csv,市役所・役場
日本橋公会堂,東京都中央区日本橋蛎殻町1-31-1,,35.682479,139.784287,koukyoushisetu.csv,コミュニティセンター
日本橋特別出張所防災備蓄倉庫・有馬小学校副拠点倉庫,東京都中央区日本橋蛎殻町1-31-1,,35.682479,139.784287,koukyoushisetu.csv,学校・教育施設
蛎殻町職員住宅,東京都中央区日本橋蛎殻町1-31-1,,35.682479,139.784287,koukyoushisetu.csv,住宅・住区施設
日本橋道路事務所・詰所,東京都中央区日本橋蛎殻町1-31-1,,35.682479,139.784287,koukyoushisetu.csv,その他
子ども家庭支援センター日本橋分室,東京都中央区日本橋蛎殻町1-31-1,,35.682479,139.784287,koukyoushisetu.csv,コミュニティセンター
月島特別出張所,東京都中央区月島4-1-1,,35.661921,139.78192,koukyoushisetu.csv,市役所・役場
月島道路事務所,東京都中央区月島4-1-1,,35.661921,139.78192,koukyoushisetu.csv,その他
月島おとしより相談センター,東京都中央区月島4-1-1,,35.661921,139.78192,koukyoushisetu.csv,コミュニティセンター
月島児童館,東京都中央区月島4-1-1,,35.661921,139.78192,koukyoushisetu.csv,保育・幼稚園
月島図書館,東京都中央区月島4-1-1,,35.661921,139.78192,koukyoushisetu.csv,図書館
月島社会教育会館,東京都中央区月島4-1-1,,35.661921,139.78192,koukyoushisetu.csv,学校・教育施設
月島駐車場,東京都中央区月島4-1-1,,35.661921,139.78192,koukyoushisetu.csv,その他
月島特別出張所防災活動資器材庫,東京都中央区月島4-1-1,,35.661921,139.78192,koukyoushisetu.csv,市役所・役場
環境土木部八丁堀詰所,東京都中央区八丁堀4-1-5,,35.674144,139.772964,koukyoushisetu.csv,ごみ・水道施設
八丁堀職員住宅,東京都中央区八丁堀4-1-5,,35.674144,139.772964,koukyoushisetu.csv,住宅・住区施設
築地魚河岸,東京都中央区築地6-26-1、6-27-1,,35.664851,139.771186,koukyoushisetu.csv,その他
ハイテクセンター,東京都中央区八丁堀3-17-9,,35.674999,139.775575,koukyoushisetu.csv,コミュニティセンター
京華スクエア防災備蓄倉庫・京華スクエア防災拠点倉庫,東京都中央区八丁堀3-17-9,,35.674999,139.775575,koukyoushisetu.csv,消防・警察
京華コミュニティルーム,東京都中央区八丁堀3-17-9,,35.674999,139.775575,koukyoushisetu.csv,コミュニティセンター
旧問屋街産業支援施設立体駐車場,東京都中央区日本橋横山町6-15,,35.692748,139.782988,koukyoushisetu.csv,福祉施設
八丁堀分庁舎,東京都中央区八丁堀4-1-5,,35.674144,139.772964,koukyoushisetu.csv,市役所・役場
八丁堀かえで川住宅,東京都中央区八丁堀4-1-4,,35.674144,139.772964,koukyoushisetu.csv,住宅・住区施設
京橋区民館,東京都中央区京橋2-6-7,,35.676572,139.771319,koukyoushisetu.csv,その他
城東小学校防災拠点倉庫,東京都中央区京橋2-6-7,,35.676572,139.771319,koukyoushisetu.csv,学校・教育施設
知的障害者グループホームフレンドハウス京橋,東京都中央区京橋2-6-7,,35.676572,139.771319,koukyoushisetu.csv,福祉施設
銀座区民館,東京都中央区銀座4-13-17,,35.66944,139.768618,koukyoushisetu.csv,その他
銀座職員住宅,東京都中央区銀座4-13-17,,35.66944,139.768618,koukyoushisetu.csv,住宅・住区施設
明石町区民館,東京都中央区明石町14-2,,35.665783,139.77819,koukyoushisetu.csv,その他
明石町職員住宅,東京都中央区明石町14-2,,35.665783,139.77819,koukyoushisetu.csv,住宅・住区施設
明石町区民館防災備蓄倉庫,東京都中央区明石町14-2,,35.665783,139.77819,koukyoushisetu.csv,消防・警察
八丁堀区民館,東京都中央区八丁堀4-13-12,,35.674202,139.778992,koukyoushisetu.csv,その他
八丁堀区民館防災備蓄倉庫,東京都中央区八丁堀4-13-12,,35.674202,139.778992,koukyoushisetu.csv,消防・警察
新川区民館,東京都中央区新川1-26-1,,35.676398,139.78371,koukyoushisetu.csv,その他
新川区民館防災備蓄倉庫・明正小学校副拠点倉庫,東京都中央区新川1-26-1,,35.676398,139.78371,koukyoushisetu.csv,学校・教育施設
新川職員住宅,東京都中央区新川1-26-1,,35.676398,139.78371,koukyoushisetu.csv,住宅・住区施設
久松町区民館,東京都中央区日本橋久松町1-2,,35.688723,139.783927,koukyoushisetu.csv,その他
久松町区民館防災備蓄倉庫,東京都中央区日本橋久松町1-2,,35.688723,139.783927,koukyoushisetu.csv,消防・警察
日本橋休日応急診療所,東京都中央区日本橋久松町1-2,,35.688723,139.783927,koukyoushisetu.csv,病院・医療
新場橋区民館,東京都中央区日本橋兜町11-9,,35.680014,139.776367,koukyoushisetu.csv,その他
新場橋職員住宅,東京都中央区日本橋兜町11-9,,35.680014,139.776367,koukyoushisetu.csv,住宅・住区施設
佃区民館,東京都中央区佃2-17-8,,35.664743,139.78484,koukyoushisetu.csv,その他
佃区民館防災備蓄倉庫,東京都中央区佃2-17-8,,35.664743,139.78484,koukyoushisetu.csv,消防・警察
中央区休日応急診療所（精神障害者共同作業所を含む）,東京都中央区佃2-17-8,,35.664743,139.78484,koukyoushisetu.csv,病院・医療
月島区民館,東京都中央区月島2-8-11,,35.663212,139.784619,koukyoushisetu.csv,その他
月島区民館防災備蓄倉庫・月島第一小学校副拠点倉庫,東京都中央区月島2-8-11,,35.663212,139.784619,koukyoushisetu.csv,学校・教育施設
浜町コミュニティルーム,東京都中央区日本橋浜町1-2-3,,35.689686,139.785452,koukyoushisetu.csv,コミュニティセンター
セレモニーホール,東京都中央区勝どき1-13-19,,35.66045,139.774701,koukyoushisetu.csv,その他
勝どきコミュニティルーム,東京都中央区勝どき1-13-19,,35.66045,139.774701,koukyoushisetu.csv,コミュニティセンター
浜町集会施設「浜町メモリアル」,東京都中央区日本橋浜町2-59-48,,35.687465,139.790368,koukyoushisetu.csv,その他
水と緑の情報ギャラリー,東京都中央区日本橋浜町2-59-48,,35.687465,139.790368,koukyoushisetu.csv,その他
十思スクエア別館,東京都中央区小伝馬町5-19,,35.690964,139.777354,koukyoushisetu.csv,その他
十思地域密着型特別養護老人ホーム,東京都中央区小伝馬町5-19,,35.690964,139.777354,koukyoushisetu.csv,高齢者施設
公衆浴場十思湯,東京都中央区小伝馬町5-19,,35.690964,139.777354,koukyoushisetu.csv,その他
十思スクエア防災拠点倉庫（別館）,東京都中央区小伝馬町5-19,,35.690964,139.777354,koukyoushisetu.csv,消防・警察
中央会館「銀座ブロッサム」,東京都中央区銀座2-15-6,,35.671233,139.771182,koukyoushisetu.csv,コミュニティセンター
築地社会教育会館,東京都中央区築地4-15-1,,35.666391,139.768187,koukyoushisetu.csv,学校・教育施設
築地保育園,東京都中央区築地4-15-1,,35.666391,139.768187,koukyoushisetu.csv,保育・幼稚園
京橋図書館別置倉庫,東京都中央区築地4-15-1,,35.666391,139.768187,koukyoushisetu.csv,図書館
郷土天文館文化財保管庫（築地）,東京都中央区築地4-15-1,,35.666391,139.768187,koukyoushisetu.csv,文化・博物館
女性センター 「ブーケ21」,東京都中央区湊1-1-1,,35.673615,139.778758,koukyoushisetu.csv,コミュニティセンター
産業会館,東京都中央区東日本橋2-22-4,,35.694038,139.787131,koukyoushisetu.csv,コミュニティセンター
東日本橋住宅,東京都中央区東日本橋2-22-4,,35.694038,139.787131,koukyoushisetu.csv,住宅・住区施設
総合スポーツセンター,東京都中央区日本橋浜町2-59-1,,35.687126,139.789311,koukyoushisetu.csv,スポーツ・体育館
総合スポーツセンター防災備蓄倉庫,東京都中央区日本橋浜町2-59-1,,35.687126,139.789311,koukyoushisetu.csv,スポーツ・体育館
月島幼稚園,東京都中央区月島1-9-7,,35.664709,139.782848,koukyoushisetu.csv,保育・幼稚園
月島スポーツプラザ,東京都中央区月島1-9-7,,35.664709,139.782848,koukyoushisetu.csv,スポーツ・体育館
月島西仲住宅,東京都中央区月島1-9-7,,35.664709,139.782848,koukyoushisetu.csv,住宅・住区施設
月島西仲まちづくり支援用施設（仮店舗）,東京都中央区月島1-9-7,,35.664709,139.782848,koukyoushisetu.csv,福祉施設
月島西仲まちづくり支援用施設（仮住宅）,東京都中央区月島1-9-7,,35.664709,139.782848,koukyoushisetu.csv,福祉施設
月島運動場管理事務所,東京都中央区晴海1-3-29,,35.659096,139.786397,koukyoushisetu.csv,スポーツ・体育館
温浴プラザ「ほっとプラザはるみ」（休館中）,東京都中央区晴海5-2-3,,35.652023,139.774843,koukyoushisetu.csv,その他
中央清掃事務所晴海事業所,東京都中央区晴海5-2-3,,35.652023,139.774843,koukyoushisetu.csv,ごみ・水道施設
ほっとプラザはるみ防災備蓄倉庫・月島第三小学校副拠点倉庫,東京都中央区晴海5-2-3,,35.652023,139.774843,koukyoushisetu.csv,学校・教育施設
伊豆高原荘,静岡県伊東市八幡野1283-36,,34.892026,139.10718,koukyoushisetu.csv,その他
区民健康村「ヴィラ本栖」,山梨県南都留郡富士河口湖町本栖字上の原218-119,,35.454184,138.602583,koukyoushisetu.csv,その他
豊海区民館,東京都中央区勝どき6-7-8,,35.654876,139.773943,koukyoushisetu.csv,その他
豊海運動公園管理事務所,東京都中央区勝どき6-7-8,,35.654876,139.773943,koukyoushisetu.csv,公園
公衆浴場銀座湯,東京都中央区銀座1-12-2,,35.674478,139.770216,koukyoushisetu.csv,その他
子ども家庭支援センター「きらら中央」,東京都中央区勝どき1-4-1,,35.660294,139.777204,koukyoushisetu.csv,コミュニティセンター
勝どき保育園,東京都中央区勝どき1-4-1,,35.660294,139.777204,koukyoushisetu.csv,保育・幼稚園
区営勝どき住宅,東京都中央区勝どき1-4-1,,35.660294,139.777204,koukyoushisetu.csv,住宅・住区施設
築地児童館,東京都中央区築地7-9-17,,35.666116,139.776029,koukyoushisetu.csv,保育・幼稚園
築地住宅,東京都中央区築地7-9-17,,35.666116,139.776029,koukyoushisetu.csv,住宅・住区施設
佃児童館,東京都中央区佃1-11-1,,35.668935,139.784725,koukyoushisetu.csv,保育・幼稚園
シニアセンター,東京都中央区佃1-11-1,,35.668935,139.784725,koukyoushisetu.csv,コミュニティセンター
勝どき児童館,東京都中央区勝どき1-8-1,,35.659731,139.776705,koukyoushisetu.csv,保育・幼稚園
かちどき西保育園,東京都中央区勝どき1-8-1,,35.659731,139.776705,koukyoushisetu.csv,保育・幼稚園
晴海児童館,東京都中央区晴海2-4-31,,35.654888,139.783935,koukyoushisetu.csv,保育・幼稚園
晴海こども園,東京都中央区晴海2-4-31,,35.654888,139.783935,koukyoushisetu.csv,保育・幼稚園
晴海児童館等複合施設防災備蓄倉庫,東京都中央区晴海2-4-31,,35.654888,139.783935,koukyoushisetu.csv,保育・幼稚園
八丁堀保育園,東京都中央区八丁堀4-5-10,,35.674,139.77586,koukyoushisetu.csv,保育・幼稚園
人形町保育園,東京都中央区日本橋人形町2-14-5,,35.684604,139.784833,koukyoushisetu.csv,保育・幼稚園
人形町区民館,東京都中央区日本橋人形町2-14-5,,35.684604,139.784833,koukyoushisetu.csv,その他
人形町認知症高齢者グループホーム,東京都中央区日本橋人形町2-14-5,,35.684604,139.784833,koukyoushisetu.csv,高齢者施設
人形町保育園園庭,東京都中央区日本橋人形町2-12-2,,35.684848,139.784482,koukyoushisetu.csv,保育・幼稚園
人形町保育園等複合施設駐輪場棟倉庫,東京都中央区日本橋人形町2-12-2,,35.684848,139.784482,koukyoushisetu.csv,保育・幼稚園
人形町保育園等複合施設駐輪場棟防災備蓄倉庫,東京都中央区日本橋人形町2-12-2,,35.684848,139.784482,koukyoushisetu.csv,保育・幼稚園
人形町二丁目地下駐輪場,東京都中央区日本橋人形町2-12-2,,35.684848,139.784482,koukyoushisetu.csv,その他
日本橋保育園,東京都中央区日本橋蛎殻町1-1-2,,35.680752,139.783525,koukyoushisetu.csv,保育・幼稚園
つくだ保育園,東京都中央区佃2-2-2,,35.666962,139.786849,koukyoushisetu.csv,保育・幼稚園
京橋こども園,東京都中央区京橋2-17-7,,35.676178,139.773408,koukyoushisetu.csv,保育・幼稚園
京橋こども園防災備蓄倉庫,東京都中央区京橋2-17-7,,35.676178,139.773408,koukyoushisetu.csv,保育・幼稚園
月島三丁目認証保育所・月島三丁目障害者グループホーム,東京都中央区月島3-1-11,,35.6638,139.779487,koukyoushisetu.csv,福祉施設
十思スクエア,東京都中央区日本橋小伝馬町5-1,,35.690907,139.776991,koukyoushisetu.csv,その他
日本橋おとしより相談センター,東京都中央区日本橋小伝馬町5-1,,35.690907,139.776991,koukyoushisetu.csv,コミュニティセンター
子ども家庭支援センター十思分室,東京都中央区日本橋小伝馬町5-1,,35.690907,139.776991,koukyoushisetu.csv,コミュニティセンター
十思保育園,東京都中央区日本橋小伝馬町5-1,,35.690907,139.776991,koukyoushisetu.csv,保育・幼稚園
放課後等デイサービス,東京都中央区日本橋小伝馬町5-1,,35.690907,139.776991,koukyoushisetu.csv,その他
十思コミュニティルーム,東京都中央区日本橋小伝馬町5-1,,35.690907,139.776991,koukyoushisetu.csv,コミュニティセンター
協働ステーション中央,東京都中央区日本橋小伝馬町5-1,,35.690907,139.776991,koukyoushisetu.csv,その他
十思スクエア防災拠点倉庫,東京都中央区日本橋小伝馬町5-1,,35.690907,139.776991,koukyoushisetu.csv,消防・警察
特別養護老人ホーム「マイホームはるみ」・高齢者在宅サービスセンター「マイホームはるみ」,東京都中央区晴海1-5-1,,35.659858,139.784561,koukyoushisetu.csv,コミュニティセンター
晴海保育園,東京都中央区晴海1-5-1,,35.659858,139.784561,koukyoushisetu.csv,保育・幼稚園
晴海中学校,東京都中央区晴海1-5-1,,35.659858,139.784561,koukyoushisetu.csv,学校・教育施設
晴海中学校防災拠点倉庫,東京都中央区晴海1-5-1,,35.659858,139.784561,koukyoushisetu.csv,学校・教育施設
月島一丁目地域密着型特別養護老人ホーム,東京都中央区月島1-5-2,,35.663831,139.783293,koukyoushisetu.csv,高齢者施設
介護老人保健施設リハポート明石,東京都中央区明石町1-6,,35.669285,139.776757,koukyoushisetu.csv,病院・医療
知的障害者生活支援施設レインボーハウス明石,東京都中央区明石町1-6,,35.669285,139.776757,koukyoushisetu.csv,福祉施設
京橋おとしより相談センター,東京都中央区明石町1-6,,35.669285,139.776757,koukyoushisetu.csv,コミュニティセンター
郷土天文館文化財保管庫（明石町）,東京都中央区明石町1-6,,35.669285,139.776757,koukyoushisetu.csv,文化・博物館
佃認知症高齢者グループホーム「相生の里」,東京都中央区佃3-1-15,,35.665875,139.787306,koukyoushisetu.csv,高齢者施設
特別養護老人ホーム「マイホーム新川」・高齢者在宅サービスセンター「マイホーム新川」,東京都中央区新川2-27-3,,35.673732,139.784036,koukyoushisetu.csv,コミュニティセンター
マイホーム新川居宅介護支援事業所,東京都中央区新川2-27-3,,35.673732,139.784036,koukyoushisetu.csv,高齢者施設
浜町敬老館,東京都中央区日本橋浜町3-37-1,,35.685469,139.791346,koukyoushisetu.csv,高齢者施設
浜町保育園,東京都中央区日本橋浜町3-37-1,,35.685469,139.791346,koukyoushisetu.csv,保育・幼稚園
浜町児童館,東京都中央区日本橋浜町3-37-1,,35.685469,139.791346,koukyoushisetu.csv,保育・幼稚園
浜町区民館,東京都中央区日本橋浜町3-37-1,,35.685469,139.791346,koukyoushisetu.csv,その他
浜町高齢者トレーニングルーム,東京都中央区日本橋浜町3-3-1,,35.684471,139.788123,koukyoushisetu.csv,スポーツ・体育館
障害者就労促進施設さわやかワーク中央,東京都中央区東日本橋2-27-12,,35.695455,139.785711,koukyoushisetu.csv,福祉施設
中央区保健所,東京都中央区明石町12-1,,35.666634,139.776764,koukyoushisetu.csv,病院・医療
中央区休日応急歯科診療所,東京都中央区明石町12-1,,35.666634,139.776764,koukyoushisetu.csv,病院・医療
明石町保育園,東京都中央区明石町12-1,,35.666634,139.776764,koukyoushisetu.csv,保育・幼稚園
福祉センター,東京都中央区明石町12-1,,35.666634,139.776764,koukyoushisetu.csv,コミュニティセンター
障害者地域活動支援センターポケット中央,東京都中央区明石町12-1,,35.666634,139.776764,koukyoushisetu.csv,コミュニティセンター
教育センター,東京都中央区明石町12-1,,35.666634,139.776764,koukyoushisetu.csv,学校・教育施設
子ども発達支援センターゆりのき,東京都中央区明石町12-1,,35.666634,139.776764,koukyoushisetu.csv,コミュニティセンター
日本橋保健センター,東京都中央区日本橋堀留町1-1-1,,35.687441,139.778992,koukyoushisetu.csv,病院・医療
堀留町区民館,東京都中央区日本橋堀留町1-1-1,,35.687441,139.778992,koukyoushisetu.csv,その他
堀留町保育園,東京都中央区日本橋堀留町1-1-1,,35.687441,139.778992,koukyoushisetu.csv,保育・幼稚園
堀留町児童館,東京都中央区日本橋堀留町1-1-1,,35.687441,139.778992,koukyoushisetu.csv,保育・幼稚園
堀留町高齢者住宅,東京都中央区日本橋堀留町1-1-1,,35.687441,139.778992,koukyoushisetu.csv,高齢者施設
日本橋高齢者在宅サービスセンター,東京都中央区日本橋堀留町1-1-1,,35.687441,139.778992,koukyoushisetu.csv,コミュニティセンター
日本橋保健センター防災活動資器材庫,東京都中央区日本橋堀留町1-1-1,,35.687441,139.778992,koukyoushisetu.csv,病院・医療
月島保健センター,東京都中央区月島2-10-3,,35.663152,139.783988,koukyoushisetu.csv,病院・医療
月島保育園,東京都中央区月島2-10-3,,35.663152,139.783988,koukyoushisetu.csv,保育・幼稚園
区営月島四丁目アパート,東京都中央区月島4-19-13,,35.659236,139.781421,koukyoushisetu.csv,住宅・住区施設
晴海職員住宅・晴海教職員住宅,東京都中央区晴海3-11-10,,35.654216,139.778716,koukyoushisetu.csv,住宅・住区施設
晴海住宅,東京都中央区晴海3-11-10,,35.654216,139.778716,koukyoushisetu.csv,住宅・住区施設
晴海備蓄倉庫,東京都中央区晴海3-11-10,,35.654216,139.778716,koukyoushisetu.csv,その他
八丁堀住宅,東京都中央区八丁堀4-5-5,,35.673996,139.775054,koukyoushisetu.csv,住宅・住区施設
箱崎町住宅,東京都中央区日本橋箱崎町22-10,,35.681208,139.785853,koukyoushisetu.csv,住宅・住区施設
箱崎町公衆便所・倉庫,東京都中央区日本橋箱崎町22-10,,35.681208,139.785853,koukyoushisetu.csv,その他
箱崎町コミュニティルーム,東京都中央区日本橋箱崎町22-10,,35.681208,139.785853,koukyoushisetu.csv,コミュニティセンター
区立箱崎町住宅防災備蓄倉庫,東京都中央区日本橋箱崎町22-10,,35.681208,139.785853,koukyoushisetu.csv,消防・警察
明石町住宅,東京都中央区明石町14-2,,35.665783,139.77819,koukyoushisetu.csv,住宅・住区施設
リサイクルハウスかざぐるま明石町,東京都中央区明石町14-2,,35.665783,139.77819,koukyoushisetu.csv,ごみ・水道施設
築地あかつき住宅,東京都中央区築地7-9-13,,35.665738,139.776487,koukyoushisetu.csv,住宅・住区施設
築地あかつき高齢者住宅,東京都中央区築地7-9-13,,35.665738,139.776487,koukyoushisetu.csv,高齢者施設
小児がん等患児・家族宿泊施設,東京都中央区築地7-9-13,,35.665738,139.776487,koukyoushisetu.csv,その他
築地あかつきコミュニティルーム,東京都中央区築地7-9-13,,35.665738,139.776487,koukyoushisetu.csv,コミュニティセンター
築地あかつきコミュニティルーム防災備蓄倉庫,東京都中央区築地7-9-13,,35.665738,139.776487,koukyoushisetu.csv,コミュニティセンター
区立住宅「勝どきサンスクェア」,東京都中央区勝どき1-7-2,,35.65983,139.777672,koukyoushisetu.csv,住宅・住区施設
区立住宅「晴海ガーデンコート」,東京都中央区晴海1-7-1,,35.658086,139.785204,koukyoushisetu.csv,住宅・住区施設
高齢者住宅晴海ガーデンコート・ひとり親世帯住宅晴海ガーデンコート,東京都中央区晴海1-7-1,,35.658086,139.785204,koukyoushisetu.csv,高齢者施設
区立住宅「銀座ファースト」,東京都中央区銀座1-10-16,,35.673729,139.769173,koukyoushisetu.csv,住宅・住区施設
区立住宅「晴海アーバンプラザ」,東京都中央区晴海1-8-7,,35.657098,139.782332,koukyoushisetu.csv,住宅・住区施設
ひとり親世帯住宅晴海アーバンプラザ,東京都中央区晴海1-8-7,,35.657098,139.782332,koukyoushisetu.csv,住宅・住区施設
晴海区民館,東京都中央区晴海1-8-7,,35.657098,139.782332,koukyoushisetu.csv,その他
晴海区民館防災備蓄倉庫,東京都中央区晴海1-8-7,,35.657098,139.782332,koukyoushisetu.csv,消防・警察
泰明小学校,東京都中央区銀座5-1-13,,35.672383,139.761495,koukyoushisetu.csv,学校・教育施設
泰明幼稚園,東京都中央区銀座5-1-13,,35.672383,139.761495,koukyoushisetu.csv,保育・幼稚園
泰明小学校防災拠点倉庫,東京都中央区銀座5-1-13,,35.672383,139.761495,koukyoushisetu.csv,学校・教育施設
中央小学校,東京都中央区湊1-4-1,,35.672171,139.77876,koukyoushisetu.csv,学校・教育施設
中央幼稚園,東京都中央区湊1-4-1,,35.672171,139.77876,koukyoushisetu.csv,保育・幼稚園
中央小学校防災拠点倉庫,東京都中央区湊1-4-1,,35.672171,139.77876,koukyoushisetu.csv,学校・教育施設
明石小学校,東京都中央区明石町1-15,,35.668734,139.776472,koukyoushisetu.csv,学校・教育施設
明石幼稚園,東京都中央区明石町1-15,,35.668734,139.776472,koukyoushisetu.csv,保育・幼稚園
明石小学校防災拠点倉庫,東京都中央区明石町1-15,,35.668734,139.776472,koukyoushisetu.csv,学校・教育施設
京橋築地小学校,東京都中央区築地2-13-1,,35.667975,139.771173,koukyoushisetu.csv,学校・教育施設
京橋朝海幼稚園,東京都中央区築地2-13-1,,35.667975,139.771173,koukyoushisetu.csv,保育・幼稚園
京橋築地小学校防災拠点倉庫,東京都中央区築地2-13-1,,35.667975,139.771173,koukyoushisetu.csv,学校・教育施設
明正小学校,東京都中央区新川2-13-4,,35.676011,139.781852,koukyoushisetu.csv,学校・教育施設
明正幼稚園,東京都中央区新川2-13-4,,35.676011,139.781852,koukyoushisetu.csv,保育・幼稚園
明正小学校防災拠点倉庫,東京都中央区新川2-13-4,,35.676011,139.781852,koukyoushisetu.csv,学校・教育施設
新川児童館,東京都中央区新川2-13-4,,35.676011,139.781852,koukyoushisetu.csv,保育・幼稚園
常盤小学校,東京都中央区日本橋本石町4-4-26,,35.688038,139.770509,koukyoushisetu.csv,学校・教育施設
常盤幼稚園（休園中）,東京都中央区日本橋本石町4-4-26,,35.688038,139.770509,koukyoushisetu.csv,保育・幼稚園
常盤小学校防災拠点倉庫,東京都中央区日本橋本石町4-4-26,,35.688038,139.770509,koukyoushisetu.csv,学校・教育施設
日本橋小学校,東京都中央区日本橋人形町1-1-17,,35.684273,139.78123,koukyoushisetu.csv,学校・教育施設
日本橋幼稚園,東京都中央区日本橋人形町1-1-17,,35.684273,139.78123,koukyoushisetu.csv,保育・幼稚園
日本橋小学校防災拠点倉庫,東京都中央区日本橋人形町1-1-17,,35.684273,139.78123,koukyoushisetu.csv,学校・教育施設
日本橋図書館,東京都中央区日本橋人形町1-1-17,,35.684273,139.78123,koukyoushisetu.csv,図書館
日本橋社会教育会館,東京都中央区日本橋人形町1-1-17,,35.684273,139.78123,koukyoushisetu.csv,学校・教育施設
人形町駐車場,東京都中央区日本橋人形町1-1-17,,35.684273,139.78123,koukyoushisetu.csv,その他
有馬小学校,東京都中央区日本橋蛎殻町2-10-23,,35.683219,139.787989,koukyoushisetu.csv,学校・教育施設
有馬小学校防災拠点倉庫,東京都中央区日本橋蛎殻町2-10-23,,35.683219,139.787989,koukyoushisetu.csv,学校・教育施設
有馬幼稚園,東京都中央区日本橋蛎殻町2-10-23,,35.683219,139.787989,koukyoushisetu.csv,保育・幼稚園
久松小学校,東京都中央区日本橋久松町7-2,,35.689056,139.784355,koukyoushisetu.csv,学校・教育施設
久松幼稚園,東京都中央区日本橋久松町7-2,,35.689056,139.784355,koukyoushisetu.csv,保育・幼稚園
久松小学校防災拠点倉庫,東京都中央区日本橋久松町7-2,,35.689056,139.784355,koukyoushisetu.csv,学校・教育施設
佃島小学校,東京都中央区佃2-3-1,,35.668599,139.784518,koukyoushisetu.csv,学校・教育施設
佃中学校,東京都中央区佃2-3-1,,35.668599,139.784518,koukyoushisetu.csv,学校・教育施設
佃島小学校・佃中学校防災拠点倉庫,東京都中央区佃2-3-1,,35.668599,139.784518,koukyoushisetu.csv,学校・教育施設
月島第一小学校,東京都中央区月島4-15-1,,35.660674,139.780093,koukyoushisetu.csv,学校・教育施設
月島第一幼稚園,東京都中央区月島4-15-1,,35.660674,139.780093,koukyoushisetu.csv,保育・幼稚園
月島第一小学校防災拠点倉庫,東京都中央区月島4-15-1,,35.660674,139.780093,koukyoushisetu.csv,学校・教育施設
月島第二小学校,東京都中央区勝どき1-12-2,,35.66017,139.775931,koukyoushisetu.csv,学校・教育施設
月島第二幼稚園,東京都中央区勝どき1-12-2,,35.66017,139.775931,koukyoushisetu.csv,保育・幼稚園
月島第二小学校防災拠点倉庫,東京都中央区勝どき1-12-2,,35.66017,139.775931,koukyoushisetu.csv,学校・教育施設
月島第三小学校,東京都中央区晴海1-4-1,,35.658848,139.785703,koukyoushisetu.csv,学校・教育施設
晴海幼稚園,東京都中央区晴海1-4-1,,35.658848,139.785703,koukyoushisetu.csv,保育・幼稚園
月島第三小学校防災拠点倉庫,東京都中央区晴海1-4-1,,35.658848,139.785703,koukyoushisetu.csv,学校・教育施設
月島社会教育会館晴海分館「アートはるみ」,東京都中央区晴海1-4-1,,35.658848,139.785703,koukyoushisetu.csv,学校・教育施設
福祉センターふれあい作業所,東京都中央区晴海1-4-1,,35.658848,139.785703,koukyoushisetu.csv,コミュニティセンター
郷土天文館文化財保管庫（月島）,東京都中央区晴海1-4-1,,35.658848,139.785703,koukyoushisetu.csv,文化・博物館
豊海小学校,東京都中央区豊海町3-1,,35.653413,139.771548,koukyoushisetu.csv,学校・教育施設
豊海幼稚園,東京都中央区豊海町3-1,,35.653413,139.771548,koukyoushisetu.csv,保育・幼稚園
豊海小学校防災拠点倉庫,東京都中央区豊海町3-1,,35.653413,139.771548,koukyoushisetu.csv,学校・教育施設
銀座中学校,東京都中央区銀座8-19-15,,35.665512,139.764854,koukyoushisetu.csv,学校・教育施設
銀座中学校防災拠点倉庫,東京都中央区銀座8-19-15,,35.665512,139.764854,koukyoushisetu.csv,学校・教育施設
日本橋中学校,東京都中央区東日本橋1-10-1,,35.691933,139.786993,koukyoushisetu.csv,学校・教育施設
日本橋中学校防災拠点倉庫,東京都中央区東日本橋1-10-1,,35.691933,139.786993,koukyoushisetu.csv,学校・教育施設
柏学園,千葉県柏市柏1236-1,,35.863214,139.99022,koukyoushisetu.csv,その他
宇佐美学園,静岡県伊東市宇佐美545,,35.01362,139.083078,koukyoushisetu.csv,その他
中央清掃事務所月島粗大中継所,東京都中央区京橋1-19-6,,35.677045,139.773938,koukyoushisetu.csv,ごみ・水道施設
リサイクルハウスかざぐるま箱崎町,東京都中央区日本橋箱崎町36-15,,35.681155,139.789059,koukyoushisetu.csv,ごみ・水道施設
中央清掃事務所日本橋待機所,東京都中央区日本橋箱崎町36-15,,35.681155,139.789059,koukyoushisetu.csv,ごみ・水道施設
湊職員住宅,東京都中央区湊1-1-9,,35.673311,139.78002,koukyoushisetu.csv,住宅・住区施設
湊コミュニティルーム,東京都中央区湊1-1-9,,35.673311,139.78002,koukyoushisetu.csv,コミュニティセンター
湊コミュニティルーム防災備蓄倉庫,東京都中央区湊1-1-9,,35.673311,139.78002,koukyoushisetu.csv,コミュニティセンター
中洲まちづくり支援用住宅,東京都中央区日本橋中洲12-10,,35.684196,139.791102,koukyoushisetu.csv,福祉施設
中洲職員住宅,東京都中央区日本橋中洲12-10,,35.684196,139.791102,koukyoushisetu.csv,住宅・住区施設
中洲コミュニティルーム,東京都中央区日本橋中洲12-10,,35.684196,139.791102,koukyoushisetu.csv,コミュニティセンター
月島清澄通りまちづくり支援用施設（仮店舗）,東京都中央区月島3-13-13,,35.662239,139.780707,koukyoushisetu.csv,福祉施設
月島清澄通りまちづくり支援用施設（仮住宅）,東京都中央区月島3-13-13,,35.662239,139.780707,koukyoushisetu.csv,福祉施設
月島清澄通りコミュニティルーム,東京都中央区月島3-13-13,,35.662239,139.780707,koukyoushisetu.csv,コミュニティセンター
湊二丁目認知症高齢者グループホーム,東京都中央区湊2-16-23,,35.67126,139.781141,koukyoushisetu.csv,高齢者施設
観光拠点,東京都中央区京橋2-2-1,,35.677019,139.769831,koukyoushisetu.csv,その他
勝どきおとしより相談センター,東京都中央区勝どき5-1-17,,35.658032,139.772525,koukyoushisetu.csv,コミュニティセンター
勝どき五丁目認可保育所,東京都中央区勝どき5-1-17,,35.658032,139.772525,koukyoushisetu.csv,その他
勝どき五丁目サービス付き高齢者向け住宅,東京都中央区勝どき5-3-2,,35.656756,139.772321,koukyoushisetu.csv,高齢者施設
勝どき五丁目小規模多機能型居宅介護事業所,東京都中央区勝どき5-3-2,,35.656756,139.772321,koukyoushisetu.csv,高齢者施設
銀座一丁目認可保育所,東京都中央区銀座1-12-6,,35.674356,139.769998,koukyoushisetu.csv,その他
水谷橋公園内公衆便所,東京都中央区銀座1-12-6,,35.674356,139.769998,koukyoushisetu.csv,公園
水谷橋公園,東京都中央区銀座1-12-6,,35.674356,139.769998,koukyoushisetu.csv,公園
地域防災備蓄倉庫,東京都中央区銀座1-12-6,,35.674356,139.769998,koukyoushisetu.csv,消防・警察
築地場外市場地区まちづくり支援施設店舗施設 Ａ棟,東京都中央区築地4-16-2,,35.664998,139.769824,koukyoushisetu.csv,福祉施設
佃・月島まちづくり支援用施設,東京都中央区佃2-10-9,,35.665946,139.784171,koukyoushisetu.csv,福祉施設
晴海地区まちづくり支援施設,東京都中央区晴海3-11-3,,35.654448,139.779054,koukyoushisetu.csv,福祉施設
阪本小学校,東京都中央区日本橋兜町15-18,,35.679538,139.776687,koukyoushisetu.csv,学校・教育施設
日本橋兜町公私連携幼保連携型認定こども園,東京都中央区日本橋兜町15-18,,35.679538,139.776687,koukyoushisetu.csv,保育・幼稚園
阪本小学校防災拠点倉庫,東京都中央区日本橋兜町15-18,,35.679538,139.776687,koukyoushisetu.csv,学校・教育施設
桜川敬老館,東京都中央区入船1-1-13,,35.673744,139.778229,koukyoushisetu.csv,高齢者施設
桜川保育園,東京都中央区入船1-1-13,,35.673744,139.778229,koukyoushisetu.csv,保育・幼稚園
桜川地域密着型特別養護老人ホーム,東京都中央区入船1-1-13,,35.673744,139.778229,koukyoushisetu.csv,高齢者施設
築地川第一駐車場,東京都中央区築地4-16-1,,35.664013,139.770665,koukyoushisetu.csv,その他
京橋図書館,東京都中央区新富1-13-14,,35.673688,139.7756,koukyoushisetu.csv,図書館
郷土資料館,東京都中央区新富1-3-14,,35.673326,139.773624,koukyoushisetu.csv,文化・博物館
勝どき区民館,東京都中央区勝どき1-5-1,,35.660594,139.777901,koukyoushisetu.csv,その他
勝どき敬老館,東京都中央区勝どき1-5-1,,35.660594,139.777901,koukyoushisetu.csv,高齢者施設
環境情報センター,東京都中央区京橋3-1-1東京スクエアガーデン6階京橋環境ステーション,,35.676025,139.768762,koukyoushisetu.csv,コミュニティセンター
浜町運動場ダッグアウト,東京都中央区日本橋浜町2-59-1,,35.687126,139.789311,koukyoushisetu.csv,スポーツ・体育館
人形町おとしより相談センター,東京都中央区日本橋人形町2-32-4日本橋医師会人形町ビル1階,,35.686204,139.785479,koukyoushisetu.csv,コミュニティセンター
中央清掃事務所,東京都中央区京橋1-19-6,,35.677045,139.773938,koukyoushisetu.csv,ごみ・水道施設
城東小学校,東京都中央区八重洲2-2-1,,35.679059,139.769114,koukyoushisetu.csv,学校・教育施設
中央区勤労者サービス公社「レッツ中央」,東京都中央区銀座4-9-8 NMF銀座四丁目ビル2階,,35.670322,139.766861,koukyoushisetu.csv,その他
新川コミュニティルーム,東京都中央区新川2-27-4-102,,35.674438,139.784576,koukyoushisetu.csv,コミュニティセンター
勝どきデイルーム,東京都中央区勝どき1-5-1,,35.660923,139.777954,koukyoushisetu.csv,その他
勝どきグリーンホームズⅠ（一般）,東京都中央区勝どき3-14-10,,35.659054,139.772827,koukyoushisetu.csv,その他
勝どきグリーンホームズⅡ（一般）,東京都中央区勝どき3-13-2,,35.659412,139.773941,koukyoushisetu.csv,その他
銀座アイタワー（一般）,東京都中央区銀座2-9-7,,35.67247,139.768234,koukyoushisetu.csv,その他
勝どきグリーンホームズⅡ（社宅利用型）,東京都中央区勝どき3-13-2,,35.659412,139.773941,koukyoushisetu.csv,その他
銀座アイタワー（社宅利用型）,東京都中央区銀座2-9-7,,35.67247,139.768234,koukyoushisetu.csv,その他
水産庁船員詰所内地域防災備蓄倉庫,東京都中央区勝どき5-10-3,,35.656425,139.771866,koukyoushisetu.csv,消防・警察
勝どきまちづくり支援用施設,東京都中央区勝どき3-13-2,,35.659412,139.773941,koukyoushisetu.csv,福祉施設
月島一丁目まちづくり支援用施設,東京都中央区月島1-5-2,,35.664398,139.784027,koukyoushisetu.csv,福祉施設
勝どき駅前まちづくり支援用施設,東京都中央区勝どき1-8-1,,35.660088,139.776703,koukyoushisetu.csv,交通・駅
晴海三丁目まちづくり支援用施設,東京都中央区晴海3-6-8,,35.65567,139.77948,koukyoushisetu.csv,福祉施設
環境土木部倉庫（築地７丁目１）,東京都中央区築地7-5-15,,35.666401,139.773361,koukyoushisetu.csv,ごみ・水道施設
環境土木部倉庫（築地７丁目２）,東京都中央区築地7-14番地先,,35.665672,139.775696,koukyoushisetu.csv,ごみ・水道施設
環境土木部倉庫（佃１丁目）,東京都中央区佃1-28番地先,,,,koukyoushisetu.csv,ごみ・水道施設
第一自転車保管場所管理棟,東京都中央区佃2-304番地先,,,,koukyoushisetu.csv,その他
地域防災活動センター（築地）,東京都中央区築地7-1-18,,35.667007,139.773727,koukyoushisetu.csv,コミュニティセンター
地域防災活動センター（茅場町）,東京都中央区日本橋茅場町3-13-7,,35.677708,139.779724,koukyoushisetu.csv,コミュニティセンター
公衆浴場入船湯,東京都中央区入船3-6-14,,35.671188,139.776352,koukyoushisetu.csv,その他
地域防災活動センター（八重洲）,東京都中央区八重洲2-2-1,,35.679059,139.769114,koukyoushisetu.csv,コミュニティセンター
